{
"type": "FeatureCollection",
"name": "buffer800",
"crs": { "type": "name", "properties": { "name": "urn:ogc:def:crs:OGC:1.3:CRS84" } },
"features": [
{"type":"Feature","properties":{"_id":"NAIT/Blatchford Market Stop","_version":null,"_created_a":null,"_updated_a":null,"lrt_stop_n":null,"lrt_stop_d":null,"latitude":null,"longitude":null,"location":null,"_@computed":null,"_@comput_1":null,"_@comput_2":null},"geometry":{"type":"MultiPolygon","coordinates":[[[[-113.517202820206833,53.499768896387486],[-113.517568532296778,53.499248280755651],[-113.518001614004035,53.49874637704481],[-113.518499393471572,53.498266278965978],[-113.519058800351814,53.497810945715827],[-113.519676384770094,53.497383183751104],[-113.520348338617453,53.496985629506241],[-113.521070519041075,53.49662073316],[-113.521838473987188,53.49629074355088],[-113.522647469638827,53.495997694333603],[-113.523492519579747,53.495743391461737],[-113.524368415504924,53.495529402072854],[-113.5252697592896,53.495357044844333],[-113.526190996219569,53.495227381879111],[-113.527126449179519,53.495141212170637],[-113.528070353589982,53.495099066687139],[-113.529016892878971,53.495101205105364],[-113.529960234271485,53.495147614213614],[-113.530894564677695,53.495238007993905],[-113.531814126460731,53.495371829382599],[-113.532713252864994,53.495548253698985],[-113.533586402888375,53.495766193720478],[-113.53442819538509,53.496024306373606],[-113.535233442190147,53.496321000999757],[-113.535997180062665,53.496654449145161],[-113.536714701252066,53.49702259581494],[-113.537381582499592,53.497423172122652],[-113.537993712296867,53.497853709257512],[-113.53854731623376,53.498311553683877],[-113.539038980279443,53.498793883479856],[-113.539465671852412,53.49929772571457],[-113.53982475854977,53.499819974757891],[-113.540114024418656,53.500357411409702],[-113.540331683669265,53.500906722731649],[-113.540476391743013,53.501464522459315],[-113.540547253666688,53.502027371869133],[-113.540543829639134,53.502591800972105],[-113.540466137814505,53.503154329903168],[-113.540314654263085,53.503711490375167],[-113.540090310108326,53.504259847064617],[-113.539794485855609,53.50479601879757],[-113.539429002946235,53.505316699404943],[-113.538996112587228,53.505818678118125],[-113.538498481924009,53.506298859379328],[-113.537939177640055,53.506754281943678],[-113.537321647083786,53.507182137155176],[-113.536649697037944,53.507579786283365],[-113.535927470261669,53.507944776813119],[-113.535582362182581,53.508093093256058],[-113.535697231152653,53.508173869352966],[-113.536250948878973,53.508631722427658],[-113.536742710493627,53.509114059832598],[-113.537169482812601,53.509617908590279],[-113.537528632933856,53.510140163030528],[-113.537817944512071,53.510677603920158],[-113.538035631474017,53.51122691829481],[-113.538180349088506,53.511784719871258],[-113.538251202321732,53.51234756991466],[-113.538247751424223,53.51291199843196],[-113.53817001471397,53.513474525561698],[-113.538018468536265,53.514031683027646],[-113.53779404439895,53.514580035524666],[-113.537498123299017,53.515116201904469],[-113.537132527273513,53.515636876030626],[-113.536699508225723,53.516138847174268],[-113.536201734093581,53.516619019823921],[-113.536134164438806,53.516674023522398],[-113.536363655874737,53.516899074634203],[-113.536790505039633,53.517402923292934],[-113.537149719545056,53.517925177543674],[-113.537439082647751,53.518462618154537],[-113.537656807955671,53.519011932163025],[-113.537801550500021,53.519569733288286],[-113.537872415091897,53.520132582798283],[-113.53786896191049,53.52069701070333],[-113.537791209286453,53.52125953714566],[-113.53763963366184,53.521816693853275],[-113.53741516672477,53.522365045525582],[-113.537119189734824,53.522901211019267],[-113.536753525072598,53.523421884203245],[-113.53632042506355,53.52392385435418],[-113.535822558143963,53.524404025966575],[-113.535262992452729,53.524859437854467],[-113.534645176949184,53.525287281427083],[-113.534274685758717,53.52550642653042],[-113.534232436501185,53.525811878976761],[-113.534080799687018,53.526369031514889],[-113.533856264374052,53.526917376934776],[-113.533560212242904,53.527453534131467],[-113.533194466137004,53.527974197024818],[-113.532761278883626,53.528476154954781],[-113.53226331945676,53.528956312490948],[-113.531703656565597,53.529411708533985],[-113.531085739768827,53.529839534590607],[-113.530413378230463,53.5302371521094],[-113.529690717247277,53.530602108769351],[-113.52892221269272,53.530932153621023],[-113.528112603534339,53.53122525098577],[-113.527266882594887,53.531479593027079],[-113.526390265737462,53.531693610916108],[-113.525488159665983,53.5318659845219],[-113.52456612853986,53.531995650566195],[-113.523629859610764,53.532081809192142],[-113.522685128094139,53.532123928906081],[-113.521737761493867,53.532121749861709],[-113.520793603601959,53.532075285466156],[-113.520522633226065,53.532049072831889],[-113.520877785214182,53.532397391457422],[-113.521304614187954,53.532901294570877],[-113.521663777008712,53.533423594829287],[-113.521953057248794,53.533961072717027],[-113.522170669023808,53.534510415041616],[-113.522315268061718,53.535068235347325],[-113.522385960055274,53.535631094783426],[-113.522382306244822,53.536195523298517],[-113.522304326195183,53.536758041030517],[-113.522152497748067,53.537315179760441],[-113.521927754148209,53.537863504297839],[-113.521631478359197,53.538399633665868],[-113.521265494602503,53.538920261955461],[-113.521140561455169,53.539064934804642],[-113.521376057583709,53.539065477815427],[-113.522320371834212,53.539111935757646],[-113.523255659310081,53.539202377689222],[-113.524176156480976,53.539336246250414],[-113.524345387726839,53.539369428145569],[-113.524518088742454,53.539336436532437],[-113.52544027889472,53.539206769158916],[-113.52637670050963,53.539120594667544],[-113.527321583043076,53.539078444055647],[-113.528269103900342,53.53908057703142],[-113.529213424262494,53.539126980416775],[-113.53014872501177,53.539217368229231],[-113.531069242536205,53.539351183442463],[-113.531888780295546,53.539511818541598],[-113.532443085854965,53.539460779024331],[-113.533387968360685,53.539418580434173],[-113.534335495551716,53.539420665221726],[-113.535279828570168,53.539467020505768],[-113.536215148220364,53.539557360600199],[-113.537135690774107,53.539691128772624],[-113.538035783436271,53.539867500670908],[-113.538909879254206,53.540085389396296],[-113.539752591256942,53.540343452192445],[-113.540558725615611,53.54064009870919],[-113.541323313621362,53.540973500790514],[-113.542041642285284,53.541341603726856],[-113.542342200019746,53.541521917513727],[-113.542766189573712,53.541228346122743],[-113.543438603903468,53.540830659087391],[-113.544161315267814,53.540465619206913],[-113.544929868338258,53.540135476203261],[-113.545739525610244,53.539842264675279],[-113.546585296589654,53.539587791575578],[-113.547461968528637,53.539373625089588],[-113.54836413852172,53.539201084984981],[-113.549286246765675,53.539071234490656],[-113.550222610779016,53.538984873754821],[-113.551167460371929,53.538942534922178],[-113.552114973152356,53.538944478860479],[-113.553059310351145,53.538990693556187],[-113.553994652747036,53.539080894189276],[-113.554583083947577,53.53916631099144],[-113.554619607323275,53.53913107721224],[-113.555179145441912,53.538675575901927],[-113.555796940893671,53.538247627180532],[-113.556469184263563,53.53784986863279],[-113.557191730909878,53.537484751695743],[-113.557960126518282,53.537154526566468],[-113.558769634553514,53.536861228350041],[-113.559615265440087,53.53660666453343],[-113.560491807292451,53.536392403861136],[-113.5613938580058,53.536219766681242],[-113.562315858511042,53.536089816820805],[-113.563252126989838,53.536003355040251],[-113.56419689384046,53.53596091410683],[-113.5651443371802,53.535962755517282],[-113.566088618667493,53.536008867889706],[-113.567023919424273,53.536098967034427],[-113.56794447583917,53.536232497703466],[-113.56884461503256,53.536408637007867],[-113.56971878976627,53.536626299481853],[-113.570561612584683,53.53688414376311],[-113.571012809162369,53.537050032733539],[-113.571224125070216,53.536877917644723],[-113.571841730275253,53.536449888078174],[-113.572513792229643,53.536052041277131],[-113.573236167408481,53.535686829222833],[-113.574004402552831,53.535356502698676],[-113.574813762115056,53.535063097434787],[-113.575659257433401,53.534808421577871],[-113.576535677456533,53.534594044562915],[-113.577437620829357,53.534421287454869],[-113.578359529143285,53.53429121481976],[-113.579057428343916,53.534226668156862],[-113.579006206762443,53.534152354125681],[-113.578716206816239,53.533615022978218],[-113.578497871140243,53.533065792203558],[-113.578352543225805,53.53250804841641],[-113.578281116263568,53.531945230591667],[-113.578284027705777,53.531380808854678],[-113.578361256641159,53.530818263082665],[-113.578512323996662,53.530261061449437],[-113.578736295563317,53.52971263904552],[-113.579031787825627,53.529176376705855],[-113.579396976556637,53.528655580174785],[-113.57982960812457,53.528153459737297],[-113.580327013439273,53.527673110441214],[-113.580886124451766,53.527217493032261],[-113.581503493103597,53.526789415719009],[-113.582175312608811,53.526391516879528],[-113.582897440936307,53.526026248816201],[-113.58366542634775,53.525695862658011],[-113.584446951244644,53.525412399380116],[-113.584381976483158,53.525348792324735],[-113.583954484857998,53.52484512197406],[-113.583594637607973,53.524323016542496],[-113.583304651246564,53.523785695624461],[-113.583086311265191,53.523236472521255],[-113.58294096118351,53.522678733800319],[-113.582869494330666,53.522115918405404],[-113.582872348406624,53.521551496446968],[-113.582949502855541,53.520988947803808],[-113.583100479065266,53.520431740667611],[-113.583324343390302,53.519883310163152],[-113.583619712977637,53.519347037175578],[-113.583984764357837,53.518826227515227],[-113.584417244746788,53.518324091548379],[-113.584914485987113,53.517843724418952],[-113.585473421041755,53.51738808698299],[-113.58609060293719,53.516959987572868],[-113.586762226038715,53.516562064703265],[-113.587484149525608,53.516196770825012],[-113.588251922921756,53.515866357226543],[-113.589060813523872,53.515572860175261],[-113.589905835558625,53.515318088384078],[-113.590781780889401,53.51510361187961],[-113.591683251084206,53.51493075234027],[-113.592604690648102,53.514800574963516],[-113.593540421216318,53.51471388191176],[-113.594484676498908,53.514671207377241],[-113.595431637762914,53.514672814295885],[-113.596375469635092,53.514718692730341],[-113.597310356006147,53.514808559931986],[-113.598230535816896,53.514941862081564],[-113.599130338507635,53.515117777697625],[-113.600004218913639,53.515335222692194],[-113.600846791393437,53.515592857042478],[-113.601652862980899,53.515889093037764],[-113.60167671307903,53.515899480773676],[-113.601830973480588,53.515750367574839],[-113.602389697451414,53.515294653355646],[-113.603006676046917,53.514866468828458],[-113.603678104884082,53.514468453032862],[-113.604399844338133,53.514103058992688],[-113.605167445065746,53.513772538613871],[-113.605976175426392,53.51347892882206],[-113.606821050632888,53.513224039024955],[-113.60769686345219,53.513009439976408],[-113.608598216267779,53.512836454109994],[-113.609519554307013,53.512706147401524],[-113.6104551998299,53.51261932281021],[-113.611399387069895,53.512576515338708],[-113.612346297712904,53.512577988741938],[-113.613290096697355,53.512623733905059],[-113.614224968116659,53.512713468900444],[-113.615145151003958,53.512846640723282],[-113.616044974781033,53.513022428695074],[-113.616918894153912,53.513239749514234],[-113.617761523241867,53.513497263923007],[-113.618099536407996,53.513621427311598],[-113.618157311916235,53.513607264681475],[-113.619058632044428,53.513434200271405],[-113.619979948154295,53.513303813136005],[-113.620915582640649,53.513216906730001],[-113.621859769804701,53.513174016560072],[-113.622806691332784,53.513175406890589],[-113.623750512096294,53.51322106911848],[-113.624685416054604,53.513310721827089],[-113.625605642040711,53.513443812518538],[-113.62650551921125,53.513619521014157],[-113.627379501943793,53.513836764502081],[-113.628222203967823,53.514094204201051],[-113.629028431520695,53.514390253599814],[-113.629793215325137,53.514723088221487],[-113.630511841192501,53.515090656853232],[-113.631179879063623,53.51549069417235],[-113.631217433124618,53.515517025752196],[-113.631252158740111,53.515502062116767],[-113.632060735189583,53.515208277615692],[-113.632905481535047,53.514953204902817],[-113.633781191335856,53.514738415859092],[-113.634682467608854,53.514565234088742],[-113.63560375605195,53.514434726774525],[-113.636539379229902,53.514347698111585],[-113.637483571513329,53.514304684359779],[-113.638430514556887,53.514305950544809],[-113.639374373099542,53.514351488828417],[-113.640309330868178,53.514441018557498],[-113.641229626364719,53.514573987991831],[-113.642129588318156,53.51474957769986],[-113.643003670584449,53.514966705601566],[-113.643846486280722,53.515224033627945],[-113.644652840944971,53.515519975955925],[-113.645417764517802,53.515852708768506],[-113.64613654195044,53.516220181480364],[-113.64680474225095,53.516620129360128],[-113.647418245790135,53.517050087472107],[-113.647973269699278,53.517507405851731],[-113.648466391202888,53.517989265822187],[-113.648894568742662,53.518492697351697],[-113.649255160761626,53.519014597345148],[-113.649545942032034,53.519551748757763],[-113.649765117425261,53.520100840413562],[-113.649911333037537,53.520658487406372],[-113.649983684601665,53.521221251958458],[-113.649981723130864,53.521785664608167],[-113.649905457758905,53.522348245596085],[-113.64975535575644,53.522905526318119],[-113.649532339722498,53.523454070713157],[-113.649237781965937,53.523990496453479],[-113.648873496110241,53.524511495806941],[-113.648441725971637,53.525013856042349],[-113.647945131777689,53.52549447925162],[-113.64738677380987,53.52595040146651],[-113.646770093570211,53.526378810951265],[-113.64609889258692,53.5267770655582],[-113.645377308989353,53.527142709038642],[-113.644609791996317,53.527473486208102],[-113.643801074474851,53.527767356871728],[-113.642956143739184,53.528022508423462],[-113.642080210770303,53.528237367041108],[-113.641178678046458,53.528410607407316],[-113.640257106184436,53.528541160896467],[-113.639321179598198,53.528628222176444],[-113.638376671388031,53.528671254184275],[-113.637429407678439,53.52866999144473],[-113.636485231626324,53.528624441711209],[-113.635549967322959,53.528534885918738],[-113.634629383814314,53.52840187644933],[-113.633729159463215,53.528226233720368],[-113.632854846874778,53.528009041117365],[-113.632011838603162,53.527751638302497],[-113.631205333852293,53.527455612940408],[-113.630440306377139,53.527122790892662],[-113.629721473784883,53.526755224941823],[-113.629053268425707,53.52635518211514],[-113.629015705863665,53.526328849997284],[-113.628980970705527,53.526343813074391],[-113.628172162619649,53.526637579047915],[-113.627327156425139,53.526892620983141],[-113.626451163569371,53.527107365734075],[-113.625549586900902,53.527280488685797],[-113.624627987308273,53.527410921937111],[-113.623692049376999,53.527497860897753],[-113.622747546277651,53.52754076925946],[-113.621800304103317,53.527539382309918],[-113.620856165877925,53.527493708568912],[-113.619920955459108,53.527404029736616],[-113.619000441559919,53.527270898954164],[-113.618100302113092,53.527095137387384],[-113.617226089199193,53.526877829154941],[-113.61638319475658,53.526620314632332],[-113.616045081609016,53.526496147810981],[-113.615987287955434,53.526510309610693],[-113.61508567853727,53.526683353982804],[-113.614164056969898,53.526813706767932],[-113.613228107974706,53.526900563872246],[-113.612283604790733,53.526943389492587],[-113.611336373511662,53.526941919427131],[-113.61039225709419,53.526896162708518],[-113.609457079261205,53.526806401548896],[-113.608536608524417,53.526673189597354],[-113.607636522549868,53.5264973485205],[-113.606762373087747,53.526279962927504],[-113.605919551684295,53.526022373671076],[-113.605113256388918,53.525726169565871],[-113.605089399868049,53.525715782607271],[-113.604935116002807,53.525864900084215],[-113.604376284385566,53.526320626812769],[-113.603759157164845,53.526748819492262],[-113.60308753862914,53.527146837311435],[-113.602365569486693,53.527512225481473],[-113.601597701337838,53.527842730392159],[-113.600816250577026,53.528126304907104],[-113.600881254071481,53.528189902654709],[-113.601308979654391,53.528693509392909],[-113.601669081992611,53.529215558087856],[-113.601959338872575,53.529752830777007],[-113.602177958394222,53.530302015535298],[-113.602323590076992,53.53085972688114],[-113.60239533325047,53.531422526638451],[-113.602392742676216,53.531986945126739],[-113.602315831364692,53.53254950254879],[-113.602165070568006,53.533106730443961],[-113.601941386946592,53.533655193074999],[-113.601646156925824,53.534191508616509],[-113.601281198275359,53.534712370014091],[-113.600848758961675,53.53521456538558],[-113.60035150334096,53.535694997837979],[-113.600203287654622,53.535815825457803],[-113.600441360738998,53.536012173162412],[-113.600934171018608,53.53649423179089],[-113.601361984277673,53.536997836704479],[-113.60172216119912,53.537519883738547],[-113.602012479108524,53.538057154940944],[-113.602231145728382,53.538606338395979],[-113.602376810286472,53.539164048630163],[-113.602448571908255,53.539726847474363],[-113.602445985240109,53.540291265253799],[-113.602369063266963,53.540853822175578],[-113.602218277305184,53.541411049782113],[-113.601994554168925,53.541959512337876],[-113.601699270525884,53.542495828017785],[-113.601334244475112,53.543016689766446],[-113.600901724397559,53.543518885699321],[-113.600404375146454,53.543999318919759],[-113.599845261661414,53.544455026629507],[-113.599227830106187,53.544883198414126],[-113.598555886645528,53.545281193590583],[-113.597833573991394,53.545646557509059],[-113.597065345862916,53.545977036708344],[-113.596255939517334,53.546270592830645],[-113.595410346521689,53.546525415209466],[-113.59453378194597,53.546739932052624],[-113.59363165216844,53.546912820150773],[-113.592709521492566,53.547043013051287],[-113.591773077782833,53.547129707646512],[-113.590828097332448,53.547172369135751],[-113.589880409181575,53.54717073432986],[-113.588935859107238,53.547124813277946],[-113.588040103417512,53.547038717626592],[-113.58735252776836,53.547334406822706],[-113.586543026375978,53.547627898204588],[-113.585697345910731,53.547882652818316],[-113.584820701982892,53.548097099289699],[-113.583918501460829,53.548269914843488],[-113.582996309085004,53.548400033474557],[-113.582059813100955,53.548486652533498],[-113.581114790124772,53.548529237685635],[-113.580167069459193,53.548527526212823],[-113.579222497082,53.548481528637247],[-113.578286899530511,53.548391528657305],[-113.577366047906835,53.548258081395815],[-113.576465622227289,53.548082009971552],[-113.575591176337639,53.547864400415243],[-113.574748103612166,53.547606594961749],[-113.574296779172244,53.547440721852453],[-113.574085424691006,53.547612842571723],[-113.573467683639223,53.548040884655954],[-113.572795444491547,53.548438738228],[-113.572072851785663,53.548803949510962],[-113.571304360970103,53.549134265984755],[-113.570494710924422,53.549427650294973],[-113.569648894720842,53.54968229283481],[-113.568772128808078,53.549896622921324],[-113.567869820808028,53.550069318497201],[-113.566947536125056,53.550199314297494],[-113.566010963574868,53.550285808430615],[-113.565065880246465,53.550328267332624],[-113.564118115815262,53.550326429064405],[-113.56317351652919,53.550280304930418],[-113.562237909091564,53.550190179409995],[-113.561649309964764,53.550104802412029],[-113.561612783348636,53.550140038323192],[-113.56105316809105,53.550595569924909],[-113.560435250752107,53.551023546500915],[-113.559762840495466,53.551421328571251],[-113.559040082915132,53.551786462799768],[-113.558271434477589,53.552116697141393],[-113.557461635035637,53.55240999474821],[-113.556615678584095,53.552664546548073],[-113.555738782437757,53.552878782417693],[-113.5548363550228,53.55305138088093],[-113.55391396248109,53.553181277271918],[-113.552977294294408,53.553267670312316],[-113.552032128142358,53.553310027061976],[-113.551084294211705,53.553308086211963],[-113.550139639179449,53.553261859699774],[-113.549203990092892,53.553171632636406],[-113.548283118371785,53.553037961545819],[-113.54738270415568,53.552861670927847],[-113.546508301218623,53.552643848165594],[-113.545665302668482,53.552385836809293],[-113.544858907644482,53.552089228278028],[-113.54409408921903,53.551755852031015],[-113.543375563703194,53.551387764269464],[-113.543074930334498,53.551207454214811],[-113.542650845406882,53.551501027390749],[-113.541978257561198,53.551898711400689],[-113.541255335265262,53.552263739926744],[-113.540486536002945,53.552593861575588],[-113.539676600558778,53.5528870401943],[-113.538830523767771,53.55314146744464],[-113.537953523688259,53.553355573971579],[-113.53705100938862,53.553528039096875],[-113.536128547547548,53.553657798977305],[-113.535191828075043,53.553744053176736],[-113.534246628967566,53.553786269611642],[-113.533298780615496,53.553784187838872],[-113.532354129784778,53.553737820665432],[-113.531418503496667,53.553647454070195],[-113.530497673029856,53.553513645438052],[-113.52967786779594,53.553353004207516],[-113.529123377371477,53.55340403292837],[-113.528178178231315,53.553446201360082],[-113.527230336219034,53.553444071374031],[-113.526285698061457,53.553397656074708],[-113.525350090701536,53.553307241737912],[-113.524429285301011,53.553173386043127],[-113.524259998532926,53.553140204972514],[-113.524087241415117,53.553173196794113],[-113.523164744331496,53.553302857000645],[-113.522228003007342,53.553389009822993],[-113.521282795574209,53.553431123803136],[-113.520334952473945,53.553428939130072],[-113.51939032044011,53.553382469245733],[-113.518454726377769,53.553292000762688],[-113.517533941366452,53.553158091694506],[-113.517385927266147,53.553129070716324],[-113.517153740126872,53.553173397240791],[-113.516231220097879,53.553303004179433],[-113.515294462920295,53.553389102825832],[-113.514349246823656,53.553431162056221],[-113.51340140230333,53.55342892239743],[-113.512456776101644,53.553382397630607],[-113.511521195087582,53.553291874707028],[-113.510600430260041,53.553157911976108],[-113.510224344721735,53.553084148635655],[-113.510748914233943,53.553517746490861],[-113.511240926341941,53.554000182915111],[-113.51166786771347,53.554504117609696],[-113.51202710439739,53.55502644437523],[-113.512316419507215,53.555563943532896],[-113.512534026939861,53.556113301759169],[-113.512678582446213,53.55667113250027],[-113.512749191983431,53.557233996841006],[-113.51274541729623,53.55779842469947],[-113.51266727869087,53.558360936217234],[-113.512515254982972,53.558918063213156],[-113.512290280617734,53.559466370568572],[-113.511993739978507,53.560002477411956],[-113.511985557250739,53.560014107789698],[-113.512488362572796,53.560087243211591],[-113.513388794589531,53.560263796394636],[-113.51426319359318,53.560481861330416],[-113.515106170744332,53.560740094177291],[-113.515912530579399,53.561036903537783],[-113.516677302998772,53.561370460252903],[-113.517395773875251,53.561738708660634],[-113.518063514094791,53.562139379249444],[-113.518676406851228,53.562570002629357],[-113.519230673026811,53.563027924734932],[-113.519722894502337,53.56351032316708],[-113.520150035252655,53.564014224573292],[-113.520509460097117,53.56453652295987],[-113.520798950988606,53.565073998823387],[-113.521016720739482,53.565623338984381],[-113.521161424098779,53.566181157000869],[-113.521232166110778,53.566744014036509],[-113.52122850770192,53.567308440054795],[-113.521150468459865,53.567870955208988],[-113.520998526585856,53.568428091295765],[-113.52077361601863,53.568976413140632],[-113.520477120746307,53.569512539782885],[-113.520110866339124,53.570033165329569],[-113.519677108753868,53.570535079349575],[-113.519178520477482,53.571015186681834],[-113.518618174093987,53.571470526535037],[-113.518420340478642,53.571607319280943],[-113.51861863252914,53.571708923192887],[-113.519286544316756,53.572109584405183],[-113.519899596847921,53.572540199061379],[-113.520454010019691,53.572998113150192],[-113.520946364806164,53.573480504322234],[-113.521373624359597,53.573984399270103],[-113.521733152765975,53.574506692040138],[-113.522022731338524,53.575044163163859],[-113.52224057234767,53.575593499491241],[-113.522385330101599,53.576151314604083],[-113.522456109307569,53.576714169684109],[-113.522452470660994,53.577278594706982],[-113.522374433625913,53.577841109832107],[-113.522222476388166,53.578398246856359],[-113.521997532979526,53.578946570599413],[-113.521700987588915,53.579482700088747],[-113.521334666094035,53.580003329413685],[-113.520900824863944,53.58050524811965],[-113.520402136900117,53.580985361016445],[-113.519841675400244,53.581440707278176],[-113.519222894845015,53.581868478716835],[-113.518549609723465,53.582266037115964],[-113.51782597102779,53.582630930517418],[-113.517056440661975,53.582960908360157],[-113.516245763922015,53.583253935377215],[-113.515398940217949,53.583508204164538],[-113.514521192218226,53.583722146343838],[-113.513617933607932,53.583894442250084],[-113.512694735660574,53.584024029083459],[-113.51175729283041,53.584110107475112],[-113.510811387579579,53.584152146425993],[-113.509862854657797,53.584149886587916],[-113.508917545057045,53.58410334186663],[-113.5079812898651,53.584012799336712],[-113.50705986424245,53.583878817468893],[-113.506158951746627,53.583702222680891],[-113.505284109225627,53.583484104233008],[-113.504440732498352,53.583225807500298],[-113.50363402303536,53.582928925663033],[-113.502868955846367,53.582595289867037],[-113.502150248773674,53.582226957915168],[-113.501482333381915,53.581826201559835],[-113.50086932762359,53.581395492475643],[-113.500315010449967,53.580937486999019],[-113.499822798523155,53.580455009729583],[-113.49939572517323,53.579951036094791],[-113.499036421729215,53.579428673985795],[-113.498747101338608,53.578891144578456],[-113.498529545373685,53.578341762457946],[-113.498385092507519,53.577783915170002],[-113.498314630525471,53.577221042325185],[-113.498318590921073,53.576656614385278],[-113.498396946307707,53.576094111262648],[-113.498549210660698,53.575537000864927],[-113.498774442386093,53.574988717716799],[-113.499071250195612,53.574452641791197],[-113.499437801749949,53.573932077679871],[-113.499871835015213,53.573430234231644],[-113.500370672261397,53.572950204783616],[-113.50093123661496,53.572494948106851],[-113.501129131694256,53.572358183630719],[-113.500930877576906,53.572256550278411],[-113.500263133768598,53.571855784581224],[-113.499650287770095,53.571425066808295],[-113.499096117547808,53.570967053349328],[-113.498604038858275,53.570484568852848],[-113.498177084210781,53.569980588790514],[-113.497817884203471,53.569458221092852],[-113.497528651347267,53.568920686969939],[-113.497311166476095,53.568371301035761],[-113.497166767826243,53.567813450859411],[-113.497096342850497,53.5672505760691],[-113.497100322815896,53.566686147138519],[-113.497178680217004,53.566123643986117],[-113.497330929018474,53.565566534519675],[-113.497556127723954,53.565018253258231],[-113.497852885250438,53.564482180163168],[-113.49786107271197,53.564470550706837],[-113.497358238405056,53.564397354113716],[-113.496457780917922,53.564220680532237],[-113.495583391603887,53.564002485316315],[-113.49474046348449,53.563744114314105],[-113.493934195261559,53.563447161163488],[-113.493169559221911,53.56311345744956],[-113.492451270547605,53.562745061393471],[-113.491783758222098,53.562344245142278],[-113.491171137711873,53.561913480739214],[-113.49061718559247,53.561455424861116],[-113.490125316275382,53.560972902417653],[-113.489698560979008,53.56046888911402],[-113.48933954907271,53.559946493085263],[-113.48905049190823,53.55940893571568],[-113.488833169237125,53.558859531762153],[-113.488688918296802,53.558301668904427],[-113.488618625630636,53.557738786848525],[-113.488622721691499,53.55717435611254],[-113.488701178259845,53.556611856625743],[-113.488853508690752,53.556054756273049],[-113.489078770986495,53.555506489517093],[-113.489375573673911,53.554970436229695],[-113.48974208444865,53.554449900863098],[-113.49017604153147,53.55394809208908],[-113.490674767664899,53.553468103031278],[-113.490798390770692,53.553367688902313],[-113.490666918007946,53.553310292488405],[-113.489948819472701,53.552941878710257],[-113.489281487726004,53.552541045864729],[-113.488669037120701,53.552110266097067],[-113.488115243184836,53.551652196178495],[-113.488039569154168,53.551577937119688],[-113.487574433503127,53.55155492857422],[-113.486638939880621,53.551464209808302],[-113.486541805786715,53.551450055982727],[-113.486310952030735,53.551482428697085],[-113.485374166730452,53.551568293110527],[-113.484428953961995,53.551610115623397],[-113.483481144200439,53.551607638223096],[-113.482536583973456,53.551560876157687],[-113.481601099742534,53.551470117842555],[-113.480680461908534,53.551335923079478],[-113.479780349165594,53.551159119599156],[-113.478906313424602,53.550940797948741],[-113.47806374552431,53.550682304756052],[-113.477257841942915,53.550385234412346],[-113.476493572716421,53.55005141922522],[-113.475775650762969,53.549682918102796],[-113.475108502802925,53.549282003839643],[-113.474496242054556,53.54885114908285],[-113.473942642873951,53.548393011065805],[-113.473451117495657,53.547910415203994],[-113.473024695017031,53.547406337654607],[-113.472666002755432,53.546883886948081],[-113.472377250092222,53.546346284805061],[-113.472160214902487,53.54579684625773],[-113.472016232652436,53.545238959198343],[-113.471946188230547,53.544676063481447],[-113.471950510561157,53.544111629708617],[-113.472029170032073,53.543549137827263],[-113.472181678749905,53.542992055674823],[-113.472349018288739,53.542585065652652],[-113.471589260206997,53.542253108981896],[-113.470871514132796,53.541884575993336],[-113.470204536715016,53.541483631973222],[-113.469592440119897,53.541052749751813],[-113.4690389976912,53.540594586731594],[-113.468547620696953,53.540111968481881],[-113.468121337319857,53.539607871297605],[-113.467762774020031,53.539085403829944],[-113.46747413938435,53.538547787902552],[-113.467359450523119,53.53825729954265],[-113.466585501136819,53.538445770896729],[-113.465682995056241,53.538617697193395],[-113.46476062045285,53.538746905361052],[-113.463824066699914,53.538832598367719],[-113.462879110772036,53.538874247592553],[-113.461931581558943,53.538871596092186],[-113.460987323856372,53.538824660188887],[-113.460052162258052,53.538733729370563],[-113.459131865172878,53.538599364503199],[-113.458232109191087,53.538422394366755],[-113.457358444020855,53.538203910536311],[-113.456516258213028,53.537945260639887],[-113.45571074588689,53.537648040034995],[-113.454946874663136,53.53731408195565],[-113.45422935500325,53.536945446190863],[-113.453562611144676,53.536544406364996],[-113.452950753811976,53.536113435898905],[-113.452397554872149,53.535655192738801],[-113.451906424090609,53.535172502947773],[-113.451480388130904,53.534668343261437],[-113.45112207192679,53.534145822715764],[-113.450833682541145,53.533608163461139],[-113.450787072896475,53.533489970323146],[-113.450607673733316,53.533423756673209],[-113.449843918782463,53.533089764460115],[-113.449126515120753,53.532721096524291],[-113.448459886269845,53.532320026688353],[-113.447848142244666,53.531889028558041],[-113.447295054213228,53.531430760249933],[-113.446804031256875,53.530948047982015],[-113.446378099374243,53.53044386862824],[-113.446019882857399,53.529921331345633],[-113.445731588154771,53.529383658387538],[-113.445514990318685,53.528834165221561],[-113.445371422120317,53.528276240075613],[-113.445301765897341,53.527713323037858],[-113.445306448183274,53.527148884840322],[-113.445385437149625,53.526586405456612],[-113.445538242875031,53.526029352646233],[-113.445763920437884,53.525481160577442],[-113.446061075811599,53.524945208660561],[-113.446427874524403,53.52442480072208],[-113.446779310266734,53.524018747840735],[-113.44659840102014,53.5239098764483],[-113.445986799548692,53.523478866666451],[-113.445433843836369,53.523020587703016],[-113.444942942148998,53.522537865841329],[-113.444517119738023,53.522033678014239],[-113.444159000221347,53.521511133430735],[-113.44387078945023,53.520973454388958],[-113.443654261960617,53.520423956393827],[-113.443510750091221,53.519866027702797],[-113.443441135833808,53.519303108425781],[-113.443445845464581,53.518738669308455],[-113.443524846987941,53.518176190330067],[-113.443677650406642,53.5176191392476],[-113.443903310814761,53.517070950218653],[-113.44420043429291,53.516535002634882],[-113.444567186567269,53.51601460029616],[-113.445001304377939,53.515512951053758],[-113.445500109484371,53.515033147047752],[-113.445699682434693,53.514871115223706],[-113.445578675277289,53.514785818466898],[-113.445025840119001,53.514327535688359],[-113.444535046672328,53.513844810331292],[-113.444109319522042,53.51334061934984],[-113.443751281699548,53.512818071972205],[-113.44346313855354,53.512280390513538],[-113.443246664204253,53.511730890493503],[-113.44310319066409,53.511172960181895],[-113.443033599689954,53.510610039698498],[-113.44303831741604,53.51004559979642],[-113.443117311798389,53.509483120459691],[-113.443270092885271,53.50892606944754],[-113.443495715909975,53.508377880917216],[-113.443792787184947,53.507841934257414],[-113.444143897324452,53.507343638231426],[-113.443786735595054,53.507342579908098],[-113.44284319589643,53.50729549235561],[-113.441908765427797,53.507204410931635],[-113.440989208084403,53.507069897430988],[-113.440090195889923,53.506892781550206],[-113.439217273961148,53.506674155762866],[-113.438375826261279,53.506415368571957],[-113.437571042354037,53.506118016181077],[-113.436807885364942,53.505783932636128],[-113.43609106134835,53.505415178498886],[-113.435424990250098,53.505014028122694],[-113.434813778644951,53.50458295560891],[-113.434261194417758,53.504124619531858],[-113.433770643543937,53.503641846526286],[-113.433345149112455,53.503137613839648],[-113.432987332720131,53.50261503095679],[-113.432699398350906,53.502077320411225],[-113.432483118838618,53.50152779790141],[-113.432339824995523,53.500969851835308],[-113.43227039747201,53.500406922429363],[-113.432275261396128,53.499842480491203],[-113.432354383824389,53.499280006017038],[-113.432507274017553,53.498722966735734],[-113.432732986538312,53.498174796731981],[-113.433030127149451,53.497638875279982],[-113.433396861475018,53.497118506018552],[-113.43383092636887,53.496616896595135],[-113.434329643919739,53.496137138904565],[-113.434889938004531,53.495682190043453],[-113.435508353287176,53.495254854097766],[-113.436181076545012,53.494857764874901],[-113.436903960190477,53.494493369686708],[-113.437672547842908,53.494163914282417],[-113.438482101792872,53.493871429024246],[-113.439327632189745,53.49361771639029],[-113.44020392777341,53.493404339880989],[-113.441105587961104,53.493232614397463],[-113.442027056092854,53.49310359815037],[-113.442962653631653,53.493018086148787],[-113.443906615109128,53.492976605309025],[-113.444853123602513,53.492979411213248],[-113.445796346526336,53.493026486537715],[-113.446730471519487,53.493117541160117],[-113.447649742208469,53.493252013945572],[-113.448548493628053,53.493429076200115],[-113.44942118708255,53.493647636770618],[-113.450262444234568,53.493906348759914],[-113.451067080212312,53.494203617816147],[-113.451830135532802,53.494537611945404],[-113.452546906645026,53.494906272787588],[-113.45321297490591,53.495307328286621],[-113.453824233810494,53.495738306677303],[-113.454376914309293,53.496196551702951],[-113.454867608056347,53.496679238970799],[-113.455293288444665,53.497183393344564],[-113.455651329298561,53.497705907267694],[-113.455939521107126,53.498243559904708],[-113.456156084697511,53.498793036983045],[-113.456299682262468,53.499350951213401],[-113.456369425673003,53.499913863163243],[-113.456364882022896,53.500478302454788],[-113.456286076369409,53.501040789156988],[-113.456133491651713,53.501597855239851],[-113.455908065785337,53.50214606595879],[-113.455611185949095,53.502682041037033],[-113.455260248257574,53.503180369167431],[-113.455617374173386,53.503181393582864],[-113.456560833275631,53.503228381151523],[-113.457495203767621,53.503319348665215],[-113.45841472776435,53.503453735525845],[-113.45931373874096,53.503630713568974],[-113.460186696403667,53.503849192160523],[-113.461028220788222,53.504107824908708],[-113.46183312537724,53.504405017950262],[-113.462596449033484,53.504738939759974],[-113.463313486553247,53.505107532423828],[-113.463979817652373,53.505508524306379],[-113.464591334206517,53.505939444034944],[-113.465144265578587,53.506397635714919],[-113.465635201876452,53.506880275282818],[-113.466061114997899,53.507384387896941],[-113.466419377332258,53.507906866258729],[-113.466707778002629,53.508444489752442],[-113.466924536547666,53.508993944285706],[-113.467068313957114,53.509551842708746],[-113.467138220991814,53.510114745686984],[-113.467133823735097,53.510679182898372],[-113.467055146339945,53.511241674425094],[-113.466902670952749,53.511798752207788],[-113.466677334812928,53.512346981430021],[-113.466380524543965,53.512882981701132],[-113.466014067669661,53.51340344790669],[-113.465580221406285,53.513905170597837],[-113.46508165879807,53.514385055793319],[-113.464882163091815,53.514547119139181],[-113.465003207720059,53.514632395917886],[-113.465556259692519,53.515090583753647],[-113.466047304302009,53.515573219798682],[-113.46647331277785,53.516077329233241],[-113.466831656920633,53.516599804778586],[-113.467120125348046,53.51713742583658],[-113.467336937179752,53.517686878330011],[-113.467480753075634,53.518244775121829],[-113.467550683557803,53.518807676887619],[-113.467546294563505,53.519372113312855],[-113.467467610193225,53.519934604484583],[-113.467315112634864,53.5204916823456],[-113.467089739263017,53.521039912078919],[-113.466792876929347,53.521575913290597],[-113.466426353477345,53.522096380860276],[-113.466075122915711,53.522502489334201],[-113.466256075077624,53.522611330765379],[-113.466867866334098,53.52304223467091],[-113.467421050654522,53.52350041182131],[-113.467912216586612,53.523983038243223],[-113.468338334611218,53.524487139176514],[-113.468696775852777,53.52500960739512],[-113.468985328329452,53.525547222346304],[-113.469031979016293,53.5256654080545],[-113.469211372861551,53.525731594170047],[-113.469975142029028,53.526065462752648],[-113.470692608481514,53.526434005126077],[-113.471359349291717,53.526834949965568],[-113.471971253810153,53.527265826189172],[-113.472524549007943,53.527723978171217],[-113.47301582274946,53.528206582093702],[-113.473442044851055,53.528710663335445],[-113.473800585795473,53.529233114791971],[-113.474089232986032,53.529770716014163],[-113.474203942931254,53.530061198029998],[-113.474977705107918,53.529872679213575],[-113.475879986354812,53.529700685031884],[-113.476802128530352,53.529571393481532],[-113.477738448945914,53.529485601267233],[-113.478683177681333,53.529443837031295],[-113.479630493089232,53.529446358101652],[-113.480574557615682,53.529493148909324],[-113.481509553717757,53.529583921085035],[-113.482429719658569,53.529718115234402],[-113.483329384960797,53.529894904380683],[-113.484203005301779,53.530113199054178],[-113.485045196636705,53.53037165399698],[-113.485850768341052,53.530668676442161],[-113.486614755168986,53.531002435916683],[-113.487332447832003,53.531370875507868],[-113.487999422009992,53.531771724524688],[-113.488611565616452,53.532202512476118],[-113.489165104150089,53.532660584280976],[-113.48965662397643,53.533143116615939],[-113.490083093395768,53.533647135301592],[-113.490257630188623,53.533901264137747],[-113.490350164531066,53.533892775932479],[-113.491294975658562,53.533850911044574],[-113.492242387029194,53.533853331005666],[-113.493186560498188,53.533900020869645],[-113.494121677851908,53.533990692889148],[-113.494460621995344,53.534040080876494],[-113.494758571662715,53.533983237874146],[-113.495680744278005,53.533853800326256],[-113.496617115987604,53.533767859607401],[-113.497561916555142,53.53372594527481],[-113.498509323890843,53.533728315581008],[-113.498816824524084,53.533743506296311],[-113.499023831124347,53.533369281593544],[-113.499390044375716,53.532848718415913],[-113.499823673372418,53.532346876793689],[-113.500322042881223,53.531866850053824],[-113.500882078915694,53.531411596951841],[-113.501500327722184,53.530983923449156],[-113.502172977096464,53.530586465433558],[-113.502895879899455,53.530221672489496],[-113.503664579626488,53.529891792817004],[-113.504474337872381,53.529598859392195],[-113.505320163523621,53.529344677454091],[-113.506196843497747,53.529130813394183],[-113.507098974841583,53.528958585116932],[-113.508020997991309,53.528829053930174],[-113.508957230990504,53.528743018015007],[-113.509901904456726,53.528701007515131],[-113.510849197082749,53.528703281275583],[-113.51179327145492,53.528749825250969],[-113.51206421593713,53.528776057996296],[-113.511709166747607,53.528427711807254],[-113.511282497372221,53.527923772254866],[-113.510923510108398,53.527401438359121],[-113.510634416161665,53.526863931121099],[-113.51041699551638,53.526314564988674],[-113.51027258602015,53.52575672740867],[-113.510202075200127,53.525193857931725],[-113.510205894860277,53.524629426999056],[-113.510284018490935,53.524066914541962],[-113.510435961505252,53.523509788526319],[-113.510660784298835,53.5229614835741],[-113.510957098112371,53.522425379793816],[-113.511323073658971,53.521904781950326],[-113.511756452461725,53.521402899101908],[-113.512254560830073,53.520922824830237],[-113.512814326387414,53.520467518184411],[-113.513432297047032,53.520039785456433],[-113.513802851148228,53.519820704109065],[-113.513845243127903,53.519515256990537],[-113.51399712488147,53.518958126786401],[-113.514221879239116,53.518409815561327],[-113.514518117863986,53.517873703462726],[-113.514884011933162,53.517353095306916],[-113.515317303472415,53.51685120021596],[-113.515815319329377,53.516371111847199],[-113.51588291521837,53.516316119340296],[-113.515653534361959,53.5160910275874],[-113.515226947377087,53.515587100284407],[-113.514868021218206,53.515064776615965],[-113.514578966715959,53.514527277519939],[-113.514361563613534,53.513977917393902],[-113.514217149652495,53.513420083647588],[-113.51414661238978,53.512857215808047],[-113.514150383794558,53.512292784306453],[-113.514228437656911,53.511730269077823],[-113.514380289822185,53.511173138105285],[-113.514605001248128,53.510624826041649],[-113.51490118386377,53.510088713039615],[-113.515267009192641,53.509568103921218],[-113.515700219685243,53.509066207814662],[-113.516198142689689,53.508586118383775],[-113.516757706972811,53.508130794771517],[-113.517375461689142,53.507703043374931],[-113.518047597679725,53.507305500562914],[-113.518769970969004,53.506940616443437],[-113.519115130115736,53.506792347972059],[-113.519000296000527,53.506711555508346],[-113.51844678742907,53.506253619917359],[-113.51795526541342,53.505771204220473],[-113.517528759037774,53.50526728346366],[-113.517169896144893,53.504744965210591],[-113.516880887176796,53.504207470365529],[-113.516663511597585,53.503658113299721],[-113.516519106980866,53.503100281403995],[-113.516448560827769,53.502537414193938],[-113.516452305164108,53.501972982096923],[-113.516530313948692,53.501410465051677],[-113.516682103306593,53.500853331052724],[-113.516906734584396,53.500305014771676],[-113.517202820206833,53.499768896387486]]],[[[-113.655419596069081,53.520268904338174],[-113.655783766225937,53.519747886114779],[-113.656215397084395,53.519245500659274],[-113.656711825718489,53.518764844655415],[-113.657269990094363,53.518308880741465],[-113.657886447982762,53.517880419263498],[-113.658557398205161,53.517482100968842],[-113.6592787040818,53.517116380746295],[-113.660045918936873,53.516785512512385],[-113.660854313503435,53.516491535336627],[-113.661698905059694,53.51623626089085],[-113.662574488116945,53.516021262299049],[-113.663475666471456,53.515847864456561],[-113.664396886423162,53.515717135877445],[-113.665332470957921,53.515629882120024],[-113.666276654683827,53.515586640830847],[-113.667223619308004,53.515587678437385],[-113.668167529436559,53.515632988509559],[-113.669102568479005,53.515722291800174],[-113.670022974437273,53.515855037964066],[-113.670923075360932,53.516030408945198],[-113.67179732425106,53.51624732401126],[-113.67264033319978,53.516504446404674],[-113.673446906556194,53.516800191569551],[-113.67421207291541,53.517132736903996],[-113.674931115734736,53.517500032978234],[-113.675599602389084,53.517899816149793],[-113.676213411486856,53.51832962249847],[-113.676768758278413,53.518786802995592],[-113.677262218000479,53.51926853981481],[-113.677690747012107,53.51977186368412],[-113.678051701591755,53.520293672172834],[-113.67834285427837,53.520830748801167],[-113.678562407655065,53.521379782855078],[-113.67870900548894,53.521937389784547],[-113.678781741156968,53.522500132059868],[-113.678780163304594,53.523064540357836],[-113.678704278700209,53.523627134946977],[-113.678554552266277,53.524184447140399],[-113.678331904285201,53.524733040684012],[-113.678037704795088,53.525269532948009],[-113.677673765208667,53.52579061579101],[-113.677242327205022,53.526293075967821],[-113.676746048961377,53.526773814954829],[-113.676187988808479,53.527229868070414],[-113.675571586409291,53.527658422772099],[-113.674900641575988,53.528056836017051],[-113.674179290855619,53.528422650578499],[-113.673411982028227,53.52875361021696],[-113.672603446674628,53.529047673612254],[-113.67175867098328,53.529303026969536],[-113.670882864976917,53.529518095221739],[-113.669981430348969,53.529691551758262],[-113.669059927109856,53.529822326619794],[-113.668124039249179,53.529909613108416],[-113.667179539627739,53.529952872771588],[-113.666232254316782,53.529951838729438],[-113.665288026606603,53.529906517324264],[-113.664352680907612,53.529817188082319],[-113.663431986768742,53.52968440198778],[-113.662531623236418,53.529508978079903],[-113.661657143775869,53.529291998394235],[-113.660813941972336,53.529034801279501],[-113.660007218225502,53.528738973131496],[-113.659241947643324,53.528406338595403],[-113.658522849334815,53.528038949297454],[-113.657854357291399,53.527639071175592],[-113.657240593037372,53.527209170488021],[-113.656685340218161,53.526751898586348],[-113.656192021283132,53.526270075547586],[-113.655763676406607,53.525766672766792],[-113.655402944776085,53.525244794617684],[-113.655112048362881,53.524707659295309],[-113.654892778273577,53.524158578958975],[-113.654746483765621,53.523600939298341],[-113.654674063993099,53.523038178649003],[-113.654675962532224,53.522473766786653],[-113.654752164718204,53.521911183530499],[-113.654902197808667,53.521353897288414],[-113.655125133970316,53.520805343675455],[-113.655419596069081,53.520268904338174]]],[[[-113.505385901244523,53.454769003321111],[-113.505818692214675,53.454267143942026],[-113.506316106518128,53.45378709779407],[-113.506875076063452,53.453331823754759],[-113.507492153675955,53.452904127917023],[-113.508163534373878,53.452506646308919],[-113.508885078839398,53.452141828662796],[-113.509652338939759,53.45181192333343],[-113.510460585140777,53.451518963457396],[-113.511304835644438,53.451264754438945],[-113.512179887070999,53.451050862838372],[-113.513080346497716,53.450878606731528],[-113.514000664657161,53.450749047599096],[-113.514935170092159,53.450662983795397],[-113.515878104058004,53.450620945636587],[-113.516823655958277,53.45062319213838],[-113.517765999097705,53.450669709423181],[-113.518699326533053,53.450760210806273],[-113.519617886803204,53.450894138560614],[-113.520516019319615,53.451070667349477],[-113.521388189200678,53.451288709305665],[-113.522229021337026,53.451546920726607],[-113.523033333478878,53.451843710343852],[-113.523796168143107,53.452177249116907],[-113.524512823144008,53.452545481490965],[-113.525178880560588,53.452946138049839],[-113.525790233962326,53.453376749486544],[-113.52634311372573,53.453834661805892],[-113.526834110285861,53.454317052665893],[-113.527260195178883,53.454820948757764],[-113.527618739745776,53.455343244117863],[-113.52790753138072,53.455880719259213],[-113.528124787223263,53.456430061004959],[-113.528269165208371,53.456987882902055],[-113.528339772404976,53.45755074608941],[-113.528336170589967,53.458115180492378],[-113.528258379021437,53.458677706212775],[-113.528106874392648,53.459234854983031],[-113.527882587964896,53.459783191551793],[-113.527586899895212,53.460319334869439],[-113.527221630792496,53.460839978942481],[-113.526789030552081,53.461341913228303],[-113.526291764536396,53.46182204244387],[-113.525732897185549,53.462277405666256],[-113.525115873157844,53.462705194606535],[-113.524444496115649,53.463102770944161],[-113.523722905286689,53.463467682614237],[-113.522955549945436,53.463797678946818],[-113.522147161971176,53.464090724564457],[-113.521302726652848,53.464345011951757],[-113.520427451920924,53.464558972618661],[-113.51952673619671,53.464731286788691],[-113.518606135058505,53.464860891551453],[-113.517671326931378,53.464946987429073],[-113.516728078013301,53.464989043315612],[-113.515782206655842,53.46498679975884],[-113.514839547420436,53.464940270563837],[-113.513905915033604,53.464849742708608],[-113.512987068465392,53.464715774571992],[-113.512088675353937,53.464539192485084],[-113.511216276997587,53.464321085627432],[-113.510375254131532,53.464062799299747],[-113.509570793701911,53.463765926614897],[-113.508807856843234,53.463432298658773],[-113.508091148257563,53.463063973182166],[-113.507425087185283,53.46266322189377],[-113.506813780146985,53.462232516433112],[-113.506260995624487,53.461774513110569],[-113.50577014083764,53.461292036508944],[-113.505344240759285,53.460788062048245],[-113.504985919497756,53.460265697621814],[-113.504697384160295,53.459728164417285],[-113.504480411296498,53.459178777041195],[-113.504336336003519,53.458620923070178],[-113.504266043759117,53.458058042155095],[-113.504269965031284,53.457493604807105],[-113.504348072695763,53.45693109099691],[-113.504499882276008,53.456373968698806],[-113.504724455001821,53.455825672512304],[-113.505020403666535,53.455289582492703],[-113.505385901244523,53.454769003321111]]],[[[-113.505602008011437,53.482828733130447],[-113.505967724309912,53.48230815171631],[-113.506400778230031,53.481806289181584],[-113.506898498088859,53.481326238983627],[-113.507457813908786,53.480870960024156],[-113.508075276378662,53.480443258425623],[-113.508747078143088,53.480045770250698],[-113.509469077288131,53.479680945271376],[-113.510236822878426,53.479351031886722],[-113.51104558238805,53.479058063282196],[-113.511890370856321,53.478803844915028],[-113.512765981589624,53.478589943402447],[-113.513667018220232,53.478417676880788],[-113.514587927925945,53.478288106894418],[-113.515523035606819,53.478202031864143],[-113.51646657880967,53.478159982175058],[-113.517412743186767,53.47816221691383],[-113.518355698271534,53.478208722275347],[-113.519289633352713,53.478299211648533],[-113.520208793227525,53.478433127380661],[-113.521107513615021,53.478609644209492],[-113.521980256013222,53.478827674342099],[-113.522821641786436,53.479085874149391],[-113.523626485274519,53.479382652435227],[-113.524389825720689,53.479716180229758],[-113.52510695782253,53.4800844020467],[-113.525773460718426,53.480485048535805],[-113.526385225231436,53.48091565045307],[-113.526938479202769,53.481373553862845],[-113.527429810758932,53.481855936478937],[-113.527856189368634,53.482359825044149],[-113.528214984559213,53.482882113641999],[-113.528503982176289,53.483419582827814],[-113.52872139808558,53.483968919461979],[-113.528865889230914,53.484526737123389],[-113.528936561978966,53.48508959697736],[-113.528932977697636,53.485654028969932],[-113.528855155532085,53.486216553217815],[-113.528703572359419,53.486773701462383],[-113.528479159920423,53.487322038455268],[-113.528183299144743,53.487858183143864],[-113.527817811702022,53.488378829525708],[-113.527384948830232,53.488880767043327],[-113.526887377508075,53.489360900393095],[-113.526328164055656,53.489816268625788],[-113.525710755263532,53.490244063420768],[-113.525038957165364,53.490641646420528],[-113.524316911584791,53.491006565518212],[-113.523549070600581,53.491336569997216],[-113.522740169087612,53.491629624429045],[-113.521895195503092,53.491883921243108],[-113.52101936109888,53.492097891890573],[-113.520118067750175,53.492270216532766],[-113.519196874600439,53.492399832194195],[-113.518261463728962,53.492485939329384],[-113.517317605054473,53.492528006762704],[-113.516371120692682,53.492525774970588],[-113.515427848989233,53.492479257685545],[-113.514493608451588,53.492388741812299],[-113.513574161803888,53.492254785656066],[-113.512675180388356,53.492078215474457],[-113.511802209134416,53.491860120374149],[-113.510960632312873,53.491601845583936],[-113.510155640288147,53.491304984146296],[-113.509392197474497,53.490971367078529],[-113.508675011694933,53.490603052065154],[-113.508008505132807,53.490202310751208],[-113.507396787055356,53.4897716147156],[-113.506843628477938,53.489313620211462],[-113.506352438925148,53.488831151768089],[-113.505926245431667,53.488327184755967],[-113.505567673912026,53.48780482702324],[-113.505278933013031,53.487267299716912],[-113.505061800547736,53.486717917407674],[-113.50491761259299,53.48616006764135],[-113.504847255316548,53.485597190043158],[-113.504851159582557,53.485032755103944],[-113.504929298366747,53.484470242779565],[-113.505081186995881,53.483913121035059],[-113.505305886207751,53.483364824466278],[-113.505602008011437,53.482828733130447]]],[[[-113.418447101293623,53.455923347414313],[-113.418813671708307,53.455403021613684],[-113.419247499903733,53.454901464797238],[-113.419745909433516,53.454421768536186],[-113.420305826078362,53.453966889549342],[-113.420923796833037,53.453539631493008],[-113.421596011218213,53.453142627695605],[-113.42231832478528,53.452778324943608],[-113.423086284668699,53.452448968417748],[-113.423895157028625,53.452156587872075],[-113.424739956214779,53.451902985140514],[-113.4256154754721,53.451689723047316],[-113.426516319000029,53.451518115789561],[-113.427436935168529,53.45138922085016],[-113.42837165068741,53.451303832491384],[-113.429314705519701,53.451262476868202],[-113.430260288325371,53.451265408791485],[-113.43120257221878,53.451312610161118],[-113.432135750620702,53.451403790077975],[-113.433054072986224,53.451538386634823],[-113.433951880189525,53.451715570374475],[-113.434823639349474,53.451934249394448],[-113.435663977882569,53.452193076066756],[-113.436467716575024,53.452490455331734],[-113.437229901471156,53.452824554515011],[-113.437945834382646,53.453193314607709],[-113.438611101831498,53.453594462940657],[-113.439221602248423,53.454025527174934],[-113.439773571259863,53.454483850523211],[-113.440263604907244,53.454966608108379],[-113.440688680655185,53.45547082435921],[-113.44104617605889,53.455993391336285],[-113.441329348304379,53.456522609449486],[-113.4420199473536,53.456825256555085],[-113.442735989309043,53.457193986476895],[-113.443401364846338,53.457595106663348],[-113.444011971730362,53.458026144949166],[-113.444564044931525,53.458484444707175],[-113.445054179849137,53.458967181205878],[-113.445479353323591,53.459471379004235],[-113.445836942307608,53.459993930276823],[-113.446124740080137,53.460531613956746],[-113.446340969902408,53.461081115579034],[-113.446484296030519,53.461639047702242],[-113.446553832014899,53.462201970782793],[-113.446549146234617,53.462766414373718],[-113.446470264629909,53.463328898517084],[-113.446317670614945,53.463885955198549],[-113.446092302169262,53.464434149731495],[-113.44579554612406,53.464970101939159],[-113.445429229676989,53.465490507003715],[-113.444995609186094,53.465992155853769],[-113.444497356310436,53.466471954964163],[-113.443937541581747,53.466926945445579],[-113.443319615507164,53.467354321306075],[-113.442647387318786,53.467751446771253],[-113.442462579425609,53.467844678785234],[-113.443205942070719,53.467991258124627],[-113.444078082973462,53.468209864747301],[-113.444918800526381,53.468468621390308],[-113.445722913181342,53.4687659334259],[-113.446485464679299,53.46909996859457],[-113.447201754573513,53.469468668282467],[-113.447867367186475,53.469869760193262],[-113.448478198821888,53.470300772336458],[-113.449030483064632,53.47075904824645],[-113.449520814012629,53.471241763339179],[-113.449946167297199,53.471745942306036],[-113.45030391876152,53.472268477438078],[-113.450591860681627,53.472806147768345],[-113.450808215428594,53.473355638914533],[-113.45095164648653,53.473913563500105],[-113.45102126675711,53.474476482028194],[-113.451016644097635,53.475040924080204],[-113.450937804057034,53.475603409707801],[-113.450785229790995,53.476160470887606],[-113.450559859155064,53.47670867290531],[-113.450263078991838,53.477244635537971],[-113.449896716645597,53.477765053903397],[-113.449463028755503,53.478266718848033],[-113.448964687394493,53.478746536747245],[-113.448404763638422,53.479201548595647],[-113.44778670866549,53.479628948269216],[-113.447114332501698,53.480026099846363],[-113.446391780542882,53.480390553880419],[-113.445623507997666,53.480720062522842],[-113.444814252408932,53.481012593403371],[-113.44396900442338,53.481266342180938],[-113.443092976990201,53.481479743687515],[-113.442191573179258,53.481651481595698],[-113.441270352818421,53.481780496550023],[-113.440334998156828,53.481865992711363],[-113.439391278767445,53.481907442673872],[-113.438445015906751,53.481904590723836],[-113.43750204655295,53.481857454420258],[-113.436568187346282,53.481766324487168],[-113.435649198655568,53.481631763018399],[-113.434750748994219,53.48145460000601],[-113.433878380006874,53.481235928213842],[-113.433037472244067,53.480977096428099],[-113.432233211937472,53.480679701126746],[-113.431470558981886,53.480345576619641],[-113.430754216322214,53.479976783720382],[-113.43008860093525,53.479575597020521],[-113.429477816585575,53.479144490844511],[-113.428925628524013,53.478686123973446],[-113.428435440284304,53.478203323231071],[-113.428010272721195,53.477699066034994],[-113.427652745418442,53.477176462020431],[-113.427365060580371,53.476638733850471],[-113.427148989505724,53.476089197331603],[-113.427005861725419,53.475531240957601],[-113.426936556870103,53.474968305008019],[-113.426941499315902,53.474403860330533],[-113.427020655639666,53.473841386938027],[-113.42717353489779,53.473284352552646],[-113.42739919172476,53.47273619122894],[-113.427696232231099,53.472200282187814],[-113.428062822661943,53.471679928991882],[-113.428496700761954,53.47117833918999],[-113.428995189774596,53.47069860455651],[-113.429555214988326,53.470243682046551],[-113.430173322726745,53.46981637558433],[-113.430845701664566,53.469419318796263],[-113.431030542329538,53.469326104421221],[-113.430287195802563,53.469179449117746],[-113.429415102607848,53.468960741246065],[-113.428574466167248,53.468701874538198],[-113.427770471038031,53.468404445687185],[-113.427008075478639,53.468070289209443],[-113.426291980845917,53.467701466115393],[-113.425626602586689,53.467300251182323],[-113.425016043003112,53.466869118908456],[-113.424464065960052,53.466410728235267],[-113.423974073690516,53.465927906132904],[-113.423549085841572,53.465423630150234],[-113.423191720889861,53.464901010037863],[-113.422908713944096,53.464371747705258],[-113.422218123218713,53.46406899027555],[-113.421502137696237,53.463700137021185],[-113.420836867580533,53.463298893955439],[-113.420226414506473,53.462867735749832],[-113.4196745416819,53.462409321505568],[-113.419184650696977,53.461926478337944],[-113.418759760574233,53.461422183925499],[-113.418402489187741,53.460899548132268],[-113.418115037165421,53.460361793816631],[-113.417899174372337,53.459812236945709],[-113.417756229057389,53.459254266138217],[-113.417687079728708,53.458691321762196],[-113.4176921498062,53.458126874716832],[-113.417771405082746,53.457564405029295],[-113.41792435400761,53.457007380398622],[-113.418150050788853,53.456459234819022],[-113.418447101293623,53.455923347414313]]],[[[-113.45951947618741,53.557086119055811],[-113.459953820566199,53.556584415904922],[-113.46045292301487,53.556104548964413],[-113.461013705029984,53.555649476003218],[-113.461632708261291,53.555222001870874],[-113.462306115856777,53.554824761225056],[-113.463029776006877,53.554460202309194],[-113.46379922754241,53.554130571879959],[-113.464609727428424,53.553837901376511],[-113.465456279984622,53.553583994416883],[-113.46633366765289,53.553370415697501],[-113.467236483122917,53.553198481364127],[-113.468159162618974,53.553069250913097],[-113.469096020143809,53.552983520672413],[-113.470041282470007,53.552941818902369],[-113.470989124664769,53.55294440254599],[-113.471933705930468,53.552991255648855],[-113.472869205542338,53.55308208945808],[-113.473789858662897,53.553216344199797],[-113.474689991814472,53.553393192524375],[-113.475564057792852,53.553611544597956],[-113.476406669808057,53.553870054809522],[-113.477212634643649,53.554167130052221],[-113.477976984631127,53.554500939528296],[-113.478695008243449,53.554869426017625],[-113.47936227911984,53.555270318540835],[-113.479974683343698,53.555701146339423],[-113.480528444805373,53.556159254087241],[-113.481020148493826,53.55664181823996],[-113.481446761573125,53.557145864422502],[-113.48180565211328,53.557668285747525],[-113.482094605359251,53.558205861952459],[-113.482311837436725,53.558755279237879],[-113.482456006408867,53.559313150684886],[-113.482526220614474,53.559876037126251],[-113.482522044234656,53.560440468342719],[-113.482443500051744,53.561002964453969],[-113.482291069381901,53.561560057372724],[-113.482065689179862,53.56210831218926],[-113.481768746332165,53.562644348354908],[-113.481402069171864,53.563164860533462],[-113.480967916265897,53.563666638991897],[-113.480468962542531,53.56414658940421],[-113.479908282843127,53.5646017519461],[-113.479289332998562,53.565029319562264],[-113.478615928546276,53.565426655293145],[-113.477892221218497,53.565791308554012],[-113.477122673346003,53.566121030265087],[-113.476312030335933,53.56641378673956],[-113.475465291392766,53.566667772242489],[-113.474587678664065,53.566881420143496],[-113.473684605001864,53.567053412593289],[-113.472761640539474,53.567182688664545],[-113.471824478290955,53.567268450905914],[-113.470878898986996,53.567310170269145],[-113.469930735365509,53.567307589378025],[-113.468985836138643,53.567260724119201],[-113.468433853630742,53.567207131219938],[-113.468609851793261,53.567379878488296],[-113.469036430826108,53.567883968577867],[-113.469395264697781,53.568406427002671],[-113.469684139000321,53.568944033271343],[-113.469901270343797,53.569493473398929],[-113.47004531741014,53.570051360325436],[-113.4701153892875,53.570614254787827],[-113.470111051032418,53.571178686516987],[-113.470032326423265,53.571741175628993],[-113.469879697886924,53.572298254079136],[-113.469654103596639,53.57284648704637],[-113.469356931757716,53.573382494116153],[-113.468990012114247,53.573902970131066],[-113.46855560472774,53.574404705580463],[-113.468056386095327,53.574884606402946],[-113.467495432691905,53.575339713079444],[-113.466876202036502,53.575767218898562],[-113.466202511398834,53.576164487281382],[-113.465478514276811,53.576529068058001],[-113.464708674789549,53.57685871259531],[-113.463897740143878,53.577151387682065],[-113.46305071134438,53.577405288085068],[-113.462172812327836,53.577618847698581],[-113.461269457713641,53.577790749217726],[-113.460346219369569,53.577919932275968],[-113.459408792000588,53.578005599995741],[-113.458462957974149,53.578047223911831],[-113.457514551600738,53.578044547236942],[-113.45656942309104,53.57799758644871],[-113.455633402414435,53.577906631188867],[-113.454712263282843,53.577772242474595],[-113.453811687483991,53.577595249233646],[-113.452937229785888,53.577376743184459],[-113.452094283630245,53.577118072093008],[-113.451288047827845,53.576820831448643],[-113.450523494462686,53.576486854610096],[-113.449805338203561,53.576118201483311],[-113.449138007213492,53.575717145800958],[-113.448525615836417,53.575286161082893],[-113.447971939230371,53.574827905364444],[-113.447480390103223,53.574345204787257],[-113.447053997694141,53.573841036154441],[-113.446695389130113,53.573318508558089],[-113.446406773271235,53.572780844192792],[-113.446189927143706,53.572231358474049],[-113.446046185042661,53.57167343958443],[-113.445976430370621,53.571110527574028],[-113.445981090260474,53.570546093144067],[-113.4460601330141,53.569983616244961],[-113.446213068370866,53.569426564620677],[-113.446438950602555,53.568878372431726],[-113.446736384413825,53.568342419088573],[-113.447103533609933,53.567822008425679],[-113.447538132477021,53.567320348344538],[-113.448037499803092,53.566840531050715],[-113.448598555451895,53.566385514006534],[-113.449217839386819,53.56595810171634],[-113.449891533026175,53.565560928456058],[-113.450615482798156,53.565196442053363],[-113.451385225749576,53.564866888817562],[-113.452196017050625,53.564574299711744],[-113.453042859226372,53.564320477852],[-113.453920532935271,53.564106987410057],[-113.454823629105789,53.563935143987536],[-113.4557465822339,53.563806006520458],[-113.456683704637598,53.563720370763804],[-113.45762922145866,53.563678764395704],[-113.458577306197284,53.563681443771408],[-113.459522116562468,53.563728392346754],[-113.460074043638897,53.563782027056043],[-113.459898095290882,53.563609266569202],[-113.459471668598582,53.563105141843344],[-113.459113003118873,53.562582651336726],[-113.458824308065047,53.562045017015372],[-113.458607360953906,53.561495554109747],[-113.458463496705448,53.560937650662048],[-113.458393599477546,53.560374746627474],[-113.458398097284075,53.55981031265852],[-113.458476959428125,53.559247828703221],[-113.458629696764262,53.558690762549581],[-113.458855364786587,53.558142548448259],[-113.459152569521507,53.557606565945392],[-113.45951947618741,53.557086119055811]]],[[[-113.421854716654721,53.585305735815091],[-113.422289790465726,53.584804163592388],[-113.422789647147852,53.584324447622542],[-113.423351203548762,53.583869544742242],[-113.423970996546089,53.58344225875112],[-113.424645204421807,53.58304522314576],[-113.425369670436297,53.582680884904562],[-113.426139928456692,53.58235148942294],[-113.426951230481109,53.582059066691187],[-113.427798575889625,53.581805418799533],[-113.428676742242146,53.581592108847289],[-113.429580317433832,53.581420451323559],[-113.430503733011491,53.581291504018708],[-113.431441298445947,53.581206061515886],[-113.432387236151328,53.581164650302526],[-113.433335717036485,53.581167525531519],[-113.434280896371135,53.581214669452208],[-113.435216949747556,53.581305791520244],[-113.436138108917689,53.581440330186254],[-113.437038697286624,53.581617456351793],[-113.437913164845327,53.581836078471738],[-113.438756122328698,53.582094849271783],[-113.43956237439015,53.582392174040088],[-113.440326951589071,53.582726220441913],[-113.441045140995371,53.583094929797731],[-113.441712515223031,53.583496029755281],[-113.442324959714227,53.583927048278042],[-113.442878698106355,53.584385328864649],[-113.443370315525286,53.584868046905591],[-113.443796779661128,53.585372227077201],[-113.444155459496002,53.585894761665891],[-113.444444141567558,53.586432429710435],[-113.444661043666969,53.586981916844529],[-113.44480482588547,53.587539835717791],[-113.444874598940345,53.588102746869474],[-113.444869929726906,53.588667179926688],[-113.44479084406089,53.589229654996338],[-113.444637826592526,53.589786704119277],[-113.44441181789081,53.590334892654155],[-113.444114208714439,53.590870840459267],[-113.443746831502864,53.591391242741445],[-113.44331194913832,53.591892890443575],[-113.442812241046653,53.592372690044179],[-113.44225078672136,53.592827682647339],[-113.44163104677142,53.593255062244125],[-113.440956841608667,53.593652193033108],[-113.440232327905875,53.59401662569212],[-113.439461972970165,53.594346112500851],[-113.438650527189807,53.594638621220298],[-113.43780299472445,53.594892347642862],[-113.436924602620195,53.595105726735561],[-113.436020768540573,53.595277442306831],[-113.435097067313521,53.595406435136987],[-113.43415919650181,53.595491909521876],[-113.433212941210712,53.595533338189043],[-113.432264138351414,53.595530465555797],[-113.431318640582276,53.595483309308939],[-113.430382280151917,53.595392160296235],[-113.429460832869083,53.59525758073061],[-113.428559982422982,53.595080400717563],[-113.427685285275871,53.594861713128125],[-113.426842136346053,53.59460286684866],[-113.426035735694185,53.594305458449604],[-113.425271056419632,53.593971322324897],[-113.42455281396596,53.593602519363394],[-113.423885437025376,53.593201324222242],[-113.423273040222512,53.592770211281675],[-113.422719398745713,53.592311839367952],[-113.422227925082751,53.591829035339323],[-113.421801648003751,53.59132477663681],[-113.421443193920624,53.590802172907665],[-113.421154770736962,53.590264446815596],[-113.420938154286958,53.589714914156204],[-113.420794677445684,53.589156963400868],[-113.420725221976497,53.588594034795385],[-113.420730213164049,53.588029599142423],[-113.420809617264524,53.587467136398963],[-113.420962941786797,53.586910114220657],[-113.421189238601201,53.586361966585386],[-113.421487109854738,53.585826072627782],[-113.421854716654721,53.585305735815091]]],[[[-113.400302692719507,53.59877479143384],[-113.400738157879132,53.598273294369342],[-113.401238415960975,53.597793665082449],[-113.401800381338916,53.597338859874654],[-113.402420588370518,53.59691168194275],[-113.403095212786923,53.59651476411652],[-113.40382009528274,53.596150552647799],[-113.404590767159959,53.595821292150127],[-113.405402477868051,53.595529011781359],[-113.406250224270551,53.59527551275405],[-113.40712878145834,53.595062357249844],[-113.408032734920326,53.594890858805883],[-113.408956513874386,53.594762074232179],[-113.409894425554199,53.594676797109123],[-113.41084069024221,53.594635552905181],[-113.411789476834031,53.594638595744335],[-113.412734938717009,53.594685906843353],[-113.41367124974343,53.594777194628108],[-113.414592640078354,53.594911896528401],[-113.415493431702771,53.595089182440361],[-113.41636807335513,53.595307959834869],[-113.417211174697044,53.59556688048125],[-113.418017539494613,53.59586434874457],[-113.418782197611236,53.596198531406209],[-113.419500435616499,53.596567368947213],[-113.420167825822872,53.596968588225565],[-113.420780253571749,53.597399716469532],[-113.421333942601152,53.597858096501582],[-113.421825478338334,53.598340903099242],[-113.422251828973884,53.598845160392862],[-113.42261036418644,53.599367760193267],[-113.422898871401998,53.599905481136879],[-113.423115569486413,53.600455008530865],[-113.423259119785627,53.601012954776046],[-113.42332863444372,53.601575880242301],[-113.423323681946428,53.602140314467725],[-113.423244289853557,53.602702777551187],[-113.423090944702565,53.603259801606569],[-113.422864589081087,53.603807952146134],[-113.422566615885614,53.60434384926149],[-113.422198859799252,53.604864188471097],[-113.421763586040043,53.605365761105752],[-113.421263476447336,53.60584547410604],[-113.420701612990953,53.606300369109121],[-113.420081458803693,53.606727640707184],[-113.419406836853199,53.60712465376406],[-113.418681906384151,53.607488959683025],[-113.417911137275823,53.607818311524852],[-113.41709928247289,53.608110677882479],[-113.416251348659884,53.608364255426032],[-113.415372565360627,53.608577480040545],[-113.414468352653842,53.608749036487147],[-113.413544287705079,53.6088778665276],[-113.412606070322781,53.608963175461966],[-113.411659487751976,53.609004437038507],[-113.41071037892435,53.609001396705423],[-113.409764598387085,53.608954073184272],[-113.408827980134177,53.608862758355066],[-113.407906301565546,53.608728015453892],[-113.407005247797471,53.60855067559423],[-113.406130376546344,53.608331832633532],[-113.405287083804012,53.608072836416994],[-113.404480570517336,53.607775284440287],[-113.403715810479184,53.607441011983326],[-113.402997519629594,53.607072080776163],[-113.402330126957352,53.606670766267179],[-113.401717747181706,53.606239543572975],[-113.401164155383455,53.605781072196777],[-113.400672763741142,53.605298179610266],[-113.40024660051607,53.604793843800387],[-113.399888291414982,53.604271174889689],[-113.399600043444238,53.603733395943443],[-113.39938363135451,53.60318382308273],[-113.399240386757754,53.602625845026225],[-113.399171189982411,53.602062902187384],[-113.399176464715509,53.60149846545589],[-113.399256175462639,53.600936014794549],[-113.399409827840103,53.600379017783631],[-113.399636471695246,53.599830908244932],[-113.399934707034376,53.599295065077271],[-113.400302692719507,53.59877479143384]]]]}}
]
}
