{
"type": "FeatureCollection",
"name": "infill-photos",
"features": [
{"type":"Feature","properties":{"Field1":"ID","Field2":"Photo_Path","Field3":"Image_Type"},"geometry":null},
{"type":"Feature","properties":{"Field1":"Inf-001913","Field2":"images\\Inf-001913-001.jpg","Field3":"Construction progress"},"geometry":null},
{"type":"Feature","properties":{"Field1":"Inf-001758","Field2":"images\\Inf-001758-001.jpg","Field3":"Rendering"},"geometry":null},
{"type":"Feature","properties":{"Field1":"Inf-001486","Field2":"images\\Inf-001486-001.jpg","Field3":"Rendering"},"geometry":null},
{"type":"Feature","properties":{"Field1":"Inf-001714","Field2":"images\\Inf-001714-001.jpg","Field3":"Rendering"},"geometry":null},
{"type":"Feature","properties":{"Field1":"Inf-001757","Field2":"images\\Inf-001757-001.jpg","Field3":"Rendering"},"geometry":null},
{"type":"Feature","properties":{"Field1":"Inf-001746","Field2":"images\\Inf-001746-001.jpg","Field3":"Rendering"},"geometry":null},
{"type":"Feature","properties":{"Field1":"Inf-001767","Field2":"images\\Inf-001767-001.jpg","Field3":"Rendering"},"geometry":null},
{"type":"Feature","properties":{"Field1":"Inf-002095","Field2":"images\\Inf-002095-001.jpg","Field3":"Rendering"},"geometry":null},
{"type":"Feature","properties":{"Field1":"Inf-001781","Field2":"images\\Inf-001781-001.jpg","Field3":"Rendering"},"geometry":null},
{"type":"Feature","properties":{"Field1":"Inf-001905","Field2":"images\\Inf-001905-001.jpg","Field3":"Rendering"},"geometry":null},
{"type":"Feature","properties":{"Field1":"Inf-001748","Field2":"images\\Inf-001748-001,jpg","Field3":"Rendering"},"geometry":null},
{"type":"Feature","properties":{"Field1":"Inf-001862","Field2":"images\\Inf-001862-001.jpg","Field3":"Rendering"},"geometry":null},
{"type":"Feature","properties":{"Field1":"Inf-001773","Field2":"images\\Inf-001773-001.jpg","Field3":"Rendering"},"geometry":null},
{"type":"Feature","properties":{"Field1":"Inf-001795","Field2":"images\\Inf-001795-001.jpg","Field3":"Rendering"},"geometry":null},
{"type":"Feature","properties":{"Field1":"Inf-001750","Field2":"images\\Inf-001750-001.jpg","Field3":"Rendering"},"geometry":null},
{"type":"Feature","properties":{"Field1":"Inf-002120","Field2":"images\\Inf-002120-001.jpg","Field3":"Rendering"},"geometry":null},
{"type":"Feature","properties":{"Field1":"Inf-001556","Field2":"images\\Inf-001556-001.jpg","Field3":"Rendering"},"geometry":null},
{"type":"Feature","properties":{"Field1":"Inf-001805","Field2":"images\\Inf-001805-001.jpg","Field3":"Rendering"},"geometry":null},
{"type":"Feature","properties":{"Field1":"Inf-000027","Field2":"images\\Inf-000027-001.jpg","Field3":"Rendering"},"geometry":null},
{"type":"Feature","properties":{"Field1":"Inf-001811","Field2":"images\\Inf-001811-001.jpg","Field3":"Rendering"},"geometry":null},
{"type":"Feature","properties":{"Field1":"Inf-001679","Field2":"images\\Inf-001679-001.jpg","Field3":"Construction progress"},"geometry":null},
{"type":"Feature","properties":{"Field1":"Inf-001872","Field2":"images\\Inf-001872-001.jpg","Field3":"Rendering"},"geometry":null},
{"type":"Feature","properties":{"Field1":"Inf-001892","Field2":"images\\Inf-001892-001,jpg","Field3":"Rendering"},"geometry":null},
{"type":"Feature","properties":{"Field1":"Inf-001729","Field2":"images\\Inf-001729-001.jpg","Field3":"Rendering"},"geometry":null},
{"type":"Feature","properties":{"Field1":"Inf-001867","Field2":"images\\Inf-001867-001.jpg","Field3":"Rendering"},"geometry":null},
{"type":"Feature","properties":{"Field1":"Inf-000949","Field2":"images\\Inf-000949-001.jpg","Field3":"Construction progress"},"geometry":null},
{"type":"Feature","properties":{"Field1":"Inf-001856","Field2":"images\\Inf-001856-001.jpg","Field3":"Rendering"},"geometry":null},
{"type":"Feature","properties":{"Field1":"Inf-001844","Field2":"images\\Inf-001844-001.jpg","Field3":"Rendering"},"geometry":null},
{"type":"Feature","properties":{"Field1":"Inf-001844","Field2":"images\\Inf-001844-002.jpg","Field3":"Construction progress"},"geometry":null},
{"type":"Feature","properties":{"Field1":"Inf-001459","Field2":"images\\Inf-001459-001.jpg","Field3":"Rendering"},"geometry":null},
{"type":"Feature","properties":{"Field1":"Inf-001849","Field2":"images\\Inf-001849-001.jpg","Field3":"Construction progress"},"geometry":null},
{"type":"Feature","properties":{"Field1":"Inf-001865","Field2":"images\\Inf-001865-001.jpg","Field3":"Rendering"},"geometry":null},
{"type":"Feature","properties":{"Field1":"Inf-001696","Field2":"images\\Inf-001696-001.jpg","Field3":"Construction progress"},"geometry":null},
{"type":"Feature","properties":{"Field1":"Inf-001751","Field2":"images\\Inf-001751-001,jpg","Field3":"Rendering"},"geometry":null},
{"type":"Feature","properties":{"Field1":"Inf-001908","Field2":"images\\Inf-001908-001.jpg","Field3":"Construction progress"},"geometry":null},
{"type":"Feature","properties":{"Field1":"Inf-001941","Field2":"images\\Inf-001908-001.jpg","Field3":"Construction progress"},"geometry":null},
{"type":"Feature","properties":{"Field1":"Inf-001906","Field2":"images\\Inf-001906-001.jpg","Field3":"Rendering"},"geometry":null},
{"type":"Feature","properties":{"Field1":"Inf-001682","Field2":"images\\Inf-001682-001.jpg","Field3":"Rendering"},"geometry":null},
{"type":"Feature","properties":{"Field1":"Inf-002119","Field2":"images\\Inf-002119-001.jpg","Field3":"Rendering"},"geometry":null},
{"type":"Feature","properties":{"Field1":"Inf-002119","Field2":"images\\Inf-002119-002.jpg","Field3":"Rendering"},"geometry":null},
{"type":"Feature","properties":{"Field1":"Inf-001257","Field2":"images\\Inf-001257-001.jpg","Field3":"Construction progress"},"geometry":null},
{"type":"Feature","properties":{"Field1":"Inf-002212","Field2":"images\\Inf-002212-001,jpg","Field3":"Rendering"},"geometry":null},
{"type":"Feature","properties":{"Field1":"Inf-000778","Field2":"images\\Inf-000778-001,jpg","Field3":"Construction progress"},"geometry":null},
{"type":"Feature","properties":{"Field1":"Inf-002115","Field2":"images\\Inf-002115-001.jpg","Field3":"Rendering"},"geometry":null},
{"type":"Feature","properties":{"Field1":"Inf-002301","Field2":"images\\Inf-002301-001.jpg","Field3":"Rendering"},"geometry":null},
{"type":"Feature","properties":{"Field1":"Inf-001537","Field2":"images\\Inf-001537-001,jpg","Field3":"Construction progress"},"geometry":null},
{"type":"Feature","properties":{"Field1":"Inf-000360","Field2":"images\\Inf-000360-001.jpg","Field3":"Rendering"},"geometry":null},
{"type":"Feature","properties":{"Field1":"Inf-000360","Field2":"images\\Inf-000360-002.jpg","Field3":"Rendering"},"geometry":null},
{"type":"Feature","properties":{"Field1":"Inf-001456","Field2":"images\\Inf-001456-001.jpg","Field3":"Construction progress"},"geometry":null},
{"type":"Feature","properties":{"Field1":"Inf-002228","Field2":"images\\Inf-002228-001.jpg","Field3":"Rendering"},"geometry":null},
{"type":"Feature","properties":{"Field1":"Inf-001880","Field2":"images\\Inf-001880-001.jpg","Field3":"Rendering"},"geometry":null},
{"type":"Feature","properties":{"Field1":"ID","Field2":"Photo_Path","Field3":"Image_Type"},"geometry":null},
{"type":"Feature","properties":{"Field1":"Inf-001913","Field2":"images\\Inf-001913-001.jpg","Field3":"Construction progress"},"geometry":null},
{"type":"Feature","properties":{"Field1":"Inf-001758","Field2":"images\\Inf-001758-001.jpg","Field3":"Rendering/Sign"},"geometry":null},
{"type":"Feature","properties":{"Field1":"Inf-001486","Field2":"images\\Inf-001486-001.jpg","Field3":"Rendering/Sign"},"geometry":null},
{"type":"Feature","properties":{"Field1":"Inf-001714","Field2":"images\\Inf-001714-001.jpg","Field3":"Rendering/Sign"},"geometry":null},
{"type":"Feature","properties":{"Field1":"Inf-001757","Field2":"images\\Inf-001757-001.jpg","Field3":"Rendering/Sign"},"geometry":null},
{"type":"Feature","properties":{"Field1":"Inf-001746","Field2":"images\\Inf-001746-001.jpg","Field3":"Rendering/Sign"},"geometry":null},
{"type":"Feature","properties":{"Field1":"Inf-001767","Field2":"images\\Inf-001767-001.jpg","Field3":"Rendering/Sign"},"geometry":null},
{"type":"Feature","properties":{"Field1":"Inf-002095","Field2":"images\\Inf-002095-001.jpg","Field3":"Rendering/Sign"},"geometry":null},
{"type":"Feature","properties":{"Field1":"Inf-001781","Field2":"images\\Inf-001781-001.jpg","Field3":"Rendering/Sign"},"geometry":null},
{"type":"Feature","properties":{"Field1":"Inf-001905","Field2":"images\\Inf-001905-001.jpg","Field3":"Rendering/Sign"},"geometry":null},
{"type":"Feature","properties":{"Field1":"Inf-001748","Field2":"images\\Inf-001748-001.jpg","Field3":"Rendering/Sign"},"geometry":null},
{"type":"Feature","properties":{"Field1":"Inf-001862","Field2":"images\\Inf-001862-001.jpg","Field3":"Rendering/Sign"},"geometry":null},
{"type":"Feature","properties":{"Field1":"Inf-001773","Field2":"images\\Inf-001773-001.jpg","Field3":"Rendering/Sign"},"geometry":null},
{"type":"Feature","properties":{"Field1":"Inf-001795","Field2":"images\\Inf-001795-001.jpg","Field3":"Rendering/Sign"},"geometry":null},
{"type":"Feature","properties":{"Field1":"Inf-001750","Field2":"images\\Inf-001750-001.jpg","Field3":"Rendering/Sign"},"geometry":null},
{"type":"Feature","properties":{"Field1":"Inf-002120","Field2":"images\\Inf-002120-001.jpg","Field3":"Rendering/Sign"},"geometry":null},
{"type":"Feature","properties":{"Field1":"Inf-001556","Field2":"images\\Inf-001556-001.jpg","Field3":"Rendering/Sign"},"geometry":null},
{"type":"Feature","properties":{"Field1":"Inf-001805","Field2":"images\\Inf-001805-001.jpg","Field3":"Rendering/Sign"},"geometry":null},
{"type":"Feature","properties":{"Field1":"Inf-000027","Field2":"images\\Inf-000027-001.jpg","Field3":"Rendering/Sign"},"geometry":null},
{"type":"Feature","properties":{"Field1":"Inf-001811","Field2":"images\\Inf-001811-001.jpg","Field3":"Rendering/Sign"},"geometry":null},
{"type":"Feature","properties":{"Field1":"Inf-001679","Field2":"images\\Inf-001679-001.jpg","Field3":"Construction progress"},"geometry":null},
{"type":"Feature","properties":{"Field1":"Inf-001872","Field2":"images\\Inf-001872-001.jpg","Field3":"Rendering/Sign"},"geometry":null},
{"type":"Feature","properties":{"Field1":"Inf-001892","Field2":"images\\Inf-001892-001.jpg","Field3":"Rendering/Sign"},"geometry":null},
{"type":"Feature","properties":{"Field1":"Inf-001729","Field2":"images\\Inf-001729-001.jpg","Field3":"Rendering/Sign"},"geometry":null},
{"type":"Feature","properties":{"Field1":"Inf-001867","Field2":"images\\Inf-001867-001.jpg","Field3":"Rendering/Sign"},"geometry":null},
{"type":"Feature","properties":{"Field1":"Inf-000949","Field2":"images\\Inf-000949-001.jpg","Field3":"Construction progress"},"geometry":null},
{"type":"Feature","properties":{"Field1":"Inf-001856","Field2":"images\\Inf-001856-001.jpg","Field3":"Rendering/Sign"},"geometry":null},
{"type":"Feature","properties":{"Field1":"Inf-001844","Field2":"images\\Inf-001844-001.jpg","Field3":"Rendering/Sign"},"geometry":null},
{"type":"Feature","properties":{"Field1":"Inf-001844","Field2":"images\\Inf-001844-002.jpg","Field3":"Construction progress"},"geometry":null},
{"type":"Feature","properties":{"Field1":"Inf-001459","Field2":"images\\Inf-001459-001.jpg","Field3":"Rendering/Sign"},"geometry":null},
{"type":"Feature","properties":{"Field1":"Inf-001849","Field2":"images\\Inf-001849-001.jpg","Field3":"Construction progress"},"geometry":null},
{"type":"Feature","properties":{"Field1":"Inf-001865","Field2":"images\\Inf-001865-001.jpg","Field3":"Rendering/Sign"},"geometry":null},
{"type":"Feature","properties":{"Field1":"Inf-001696","Field2":"images\\Inf-001696-001.jpg","Field3":"Construction progress"},"geometry":null},
{"type":"Feature","properties":{"Field1":"Inf-001751","Field2":"images\\Inf-001751-001.jpg","Field3":"Rendering/Sign"},"geometry":null},
{"type":"Feature","properties":{"Field1":"Inf-001908","Field2":"images\\Inf-001908-001.jpg","Field3":"Construction progress"},"geometry":null},
{"type":"Feature","properties":{"Field1":"Inf-001941","Field2":"images\\Inf-001908-001.jpg","Field3":"Construction progress"},"geometry":null},
{"type":"Feature","properties":{"Field1":"Inf-001906","Field2":"images\\Inf-001906-001.jpg","Field3":"Rendering/Sign"},"geometry":null},
{"type":"Feature","properties":{"Field1":"Inf-001682","Field2":"images\\Inf-001682-001.jpg","Field3":"Rendering/Sign"},"geometry":null},
{"type":"Feature","properties":{"Field1":"Inf-002119","Field2":"images\\Inf-002119-001.jpg","Field3":"Rendering/Sign"},"geometry":null},
{"type":"Feature","properties":{"Field1":"Inf-002119","Field2":"images\\Inf-002119-002.jpg","Field3":"Rendering/Sign"},"geometry":null},
{"type":"Feature","properties":{"Field1":"Inf-001257","Field2":"images\\Inf-001257-001.jpg","Field3":"Construction progress"},"geometry":null},
{"type":"Feature","properties":{"Field1":"Inf-002212","Field2":"images\\Inf-002212-001.jpg","Field3":"Rendering/Sign"},"geometry":null},
{"type":"Feature","properties":{"Field1":"Inf-000778","Field2":"images\\Inf-000778-001.jpg","Field3":"Construction progress"},"geometry":null},
{"type":"Feature","properties":{"Field1":"Inf-002115","Field2":"images\\Inf-002115-001.jpg","Field3":"Rendering/Sign"},"geometry":null},
{"type":"Feature","properties":{"Field1":"Inf-002301","Field2":"images\\Inf-002301-001.jpg","Field3":"Rendering/Sign"},"geometry":null},
{"type":"Feature","properties":{"Field1":"Inf-001537","Field2":"images\\Inf-001537-001.jpg","Field3":"Construction progress"},"geometry":null},
{"type":"Feature","properties":{"Field1":"Inf-000360","Field2":"images\\Inf-000360-001.jpg","Field3":"Rendering/Sign"},"geometry":null},
{"type":"Feature","properties":{"Field1":"Inf-000360","Field2":"images\\Inf-000360-002.jpg","Field3":"Rendering/Sign"},"geometry":null},
{"type":"Feature","properties":{"Field1":"Inf-001456","Field2":"images\\Inf-001456-001.jpg","Field3":"Construction progress"},"geometry":null},
{"type":"Feature","properties":{"Field1":"Inf-002228","Field2":"images\\Inf-002228-001.jpg","Field3":"Rendering/Sign"},"geometry":null},
{"type":"Feature","properties":{"Field1":"Inf-001880","Field2":"images\\Inf-001880-001.jpg","Field3":"Rendering/Sign"},"geometry":null},
{"type":"Feature","properties":{"Field1":"Inf-002217","Field2":"images\\Inf-002217-001.jpg","Field3":"Rendering/Sign"},"geometry":null},
{"type":"Feature","properties":{"Field1":"Inf-001987","Field2":"images\\Inf-001987-001.jpg","Field3":"Rendering/Sign"},"geometry":null},
{"type":"Feature","properties":{"Field1":"Inf-001996","Field2":"images\\Inf-001996-001.jpg","Field3":"Rendering/Sign"},"geometry":null},
{"type":"Feature","properties":{"Field1":"Inf-002070","Field2":"images\\Inf-002070-001.jpg","Field3":"Rendering/Sign"},"geometry":null},
{"type":"Feature","properties":{"Field1":"Inf-002154","Field2":"images\\Inf-002154-001.jpg","Field3":"Rendering/Sign"},"geometry":null},
{"type":"Feature","properties":{"Field1":"Inf-002165","Field2":"images\\Inf-002165-001.jpg","Field3":"Rendering/Sign"},"geometry":null},
{"type":"Feature","properties":{"Field1":"BZBR-00155","Field2":"images\\BZBR-00155-001.jpg","Field3":"Finished project"},"geometry":null},
{"type":"Feature","properties":{"Field1":"BZBR-00156","Field2":"images\\BZBR-00155-001.jpg","Field3":"Finished project"},"geometry":null},
{"type":"Feature","properties":{"Field1":"Inf-002026","Field2":"images\\Inf-002026-001.jpg","Field3":"Rendering/Sign"},"geometry":null},
{"type":"Feature","properties":{"Field1":"Inf-002132","Field2":"images\\Inf-002132-001.jpg","Field3":"Rendering/Sign"},"geometry":null},
{"type":"Feature","properties":{"Field1":"Inf-002061","Field2":"images\\Inf-002061-001.jpg","Field3":"Construction progress"},"geometry":null},
{"type":"Feature","properties":{"Field1":"Inf-001947","Field2":"images\\Inf-001947-001.jpg","Field3":"Construction progress"},"geometry":null},
{"type":"Feature","properties":{"Field1":"Inf-002107","Field2":"images\\Inf-002107-001.jpg","Field3":"Construction progress"},"geometry":null},
{"type":"Feature","properties":{"Field1":"Inf-002149","Field2":"images\\Inf-002149-001.jpg","Field3":"Rendering/Sign"},"geometry":null},
{"type":"Feature","properties":{"Field1":"Inf-002198","Field2":"images\\Inf-002198-001.jpg","Field3":"Construction progress"},"geometry":null},
{"type":"Feature","properties":{"Field1":"Inf-001931","Field2":"images\\Inf-001931-001.jpg","Field3":"Rendering/Sign"},"geometry":null},
{"type":"Feature","properties":{"Field1":"Inf-002180","Field2":"images\\Inf-002180-001.jpg","Field3":"Construction progress"},"geometry":null},
{"type":"Feature","properties":{"Field1":"Inf-001960","Field2":"images\\Inf-001960-001.jpg","Field3":"Construction progress"},"geometry":null},
{"type":"Feature","properties":{"Field1":"Inf-002199","Field2":"images\\Inf-002199-001.jpg","Field3":"Rendering/Sign"},"geometry":null},
{"type":"Feature","properties":{"Field1":"Inf-001992","Field2":"images\\Inf-001992-001.jpg","Field3":"Rendering/Sign"},"geometry":null},
{"type":"Feature","properties":{"Field1":"Inf-002052","Field2":"images\\Inf-002052-001.jpg","Field3":"Rendering/Sign"},"geometry":null},
{"type":"Feature","properties":{"Field1":"Inf-002105","Field2":"images\\Inf-002105-001.jpg","Field3":"Rendering/Sign"},"geometry":null},
{"type":"Feature","properties":{"Field1":"Inf-002092","Field2":"images\\Inf-002092-001.jpg","Field3":"Construction progress"},"geometry":null},
{"type":"Feature","properties":{"Field1":"Inf-001948","Field2":"images\\Inf-001948-001.jpg","Field3":"Rendering/Sign"},"geometry":null},
{"type":"Feature","properties":{"Field1":"Inf-002009","Field2":"images\\Inf-002009-001.jpg","Field3":"Rendering/Sign"},"geometry":null},
{"type":"Feature","properties":{"Field1":"Inf-002176","Field2":"imgaes\\Inf-002176-001.jpg","Field3":"Rendering/Sign"},"geometry":null}
]
}
