{
"type": "FeatureCollection",
"name": "LRT Stops",
"crs": { "type": "name", "properties": { "name": "urn:ogc:def:crs:EPSG::3857" } },
"features": [
{"type":"Feature","properties":{":id":"row-y3bg.wesr~xgeh",":version":"rv-ggy9-2jm6_7pgw",":created_at":"2026-08-28T07:03:03.622Z",":updated_at":"2026-08-28T07:03:04.242Z","lrt_stop_number":"19811","lrt_stop_description":"Stadium Station","latitude":"53.560126000058794","longitude":"-113.47046000038726","location":"(53.560126000058794, -113.47046000038726)",":@computed_region_ecxu_fw7u":"153",":@computed_region_ueb5_7sqn":"7",":@computed_region_7ccj_gre3":"367"},"geometry":{"type":"Point","coordinates":[-12631473.827321626245975,7087285.684581033885479]}},
{"type":"Feature","properties":{":id":"row-fb3u_mae6-ek9x",":version":"rv-ja9e.ezwq~hbyq",":created_at":"2026-08-28T07:03:03.622Z",":updated_at":"2026-08-28T07:03:04.242Z","lrt_stop_number":"22990","lrt_stop_description":"Strathearn Stop","latitude":"53.53168999978526","longitude":"-113.46246200026941","location":"(53.53168999978526, -113.46246200026941)",":@computed_region_ecxu_fw7u":"126",":@computed_region_ueb5_7sqn":"5",":@computed_region_7ccj_gre3":"342"},"geometry":{"type":"Point","coordinates":[-12630583.494021143764257,7081958.192633223719895]}},
{"type":"Feature","properties":{":id":"row-8jii.deta-iyw9",":version":"rv-txs7~a7nw~scr2",":created_at":"2026-08-28T07:03:03.622Z",":updated_at":"2026-08-28T07:03:04.242Z","lrt_stop_number":"11172","lrt_stop_description":"MacEwan Station","latitude":"53.54768399993457","longitude":"-113.49818000028814","location":"(53.54768399993457, -113.49818000028814)",":@computed_region_ecxu_fw7u":"222",":@computed_region_ueb5_7sqn":"7",":@computed_region_7ccj_gre3":"338"},"geometry":{"type":"Point","coordinates":[-12634559.60359538346529,7084954.232228497043252]}},
{"type":"Feature","properties":{":id":"row-w3hc-9pcf-rn79",":version":"rv-syis~c3ug-37wf",":created_at":"2026-08-28T07:03:03.622Z",":updated_at":"2026-08-28T07:03:04.242Z","lrt_stop_number":"19252","lrt_stop_description":"Government Station","latitude":"53.53588500040125","longitude":"-113.510326999277","location":"(53.53588500040125, -113.510326999277)",":@computed_region_ecxu_fw7u":"24",":@computed_region_ueb5_7sqn":"7",":@computed_region_7ccj_gre3":"182"},"geometry":{"type":"Point","coordinates":[-12635911.801337487995625,7082743.902057688683271]}},
{"type":"Feature","properties":{":id":"row-6gdy_sm4t.3hbh",":version":"rv-5i67.nih8_njz6",":created_at":"2026-08-28T07:03:03.622Z",":updated_at":"2026-08-28T07:03:04.242Z","lrt_stop_number":"1515","lrt_stop_description":"Churchill Stop","latitude":"53.5434639999909","longitude":"-113.49013299982286","location":"(53.5434639999909, -113.49013299982286)",":@computed_region_ecxu_fw7u":"242",":@computed_region_ueb5_7sqn":"7",":@computed_region_7ccj_gre3":"338"},"geometry":{"type":"Point","coordinates":[-12633663.815601173788309,7084163.620432096533477]}},
{"type":"Feature","properties":{":id":"row-6xkr~gdj8.g8s9",":version":"rv-2ykb~6c23_i8r9",":created_at":"2026-08-28T07:03:03.622Z",":updated_at":"2026-08-28T07:03:04.242Z","lrt_stop_number":"2717","lrt_stop_description":"Avonmore Stop","latitude":"53.51036299979529","longitude":"-113.45508599986613","location":"(53.51036299979529, -113.45508599986613)",":@computed_region_ecxu_fw7u":"73",":@computed_region_ueb5_7sqn":"5",":@computed_region_7ccj_gre3":"188"},"geometry":{"type":"Point","coordinates":[-12629762.401412157341838,7077964.920899639837444]}},
{"type":"Feature","properties":{":id":"row-6iqx-fkay.6nzi",":version":"rv-2ewm-ze6k_ntsm",":created_at":"2026-08-28T07:03:03.622Z",":updated_at":"2026-08-28T07:03:04.242Z","lrt_stop_number":"20141","lrt_stop_description":"Health Sciences Jubilee Station","latitude":"53.52038799984137","longitude":"-113.52581799937964","location":"(53.52038799984137, -113.52581799937964)",":@computed_region_ecxu_fw7u":"146",":@computed_region_ueb5_7sqn":"9",":@computed_region_7ccj_gre3":"121"},"geometry":{"type":"Point","coordinates":[-12637636.25158079341054,7079841.753525454550982]}},
{"type":"Feature","properties":{":id":"row-d7nt.cqkv_famb",":version":"rv-sqdx.qe4v~wt9w",":created_at":"2026-08-28T07:03:03.622Z",":updated_at":"2026-08-28T07:03:04.242Z","lrt_stop_number":"23161","lrt_stop_description":"University Station","latitude":"53.524939999621544","longitude":"-113.52225800047876","location":"(53.524939999621544, -113.52225800047876)",":@computed_region_ecxu_fw7u":"146",":@computed_region_ueb5_7sqn":"9",":@computed_region_7ccj_gre3":"121"},"geometry":{"type":"Point","coordinates":[-12637239.954315921291709,7080694.103796934708953]}},
{"type":"Feature","properties":{":id":"row-d5wb-zh5z.a99t",":version":"rv-d8sd_7a9d.x7mg",":created_at":"2026-08-28T07:03:03.622Z",":updated_at":"2026-08-28T07:03:04.242Z","lrt_stop_number":"21132","lrt_stop_description":"Southgate Station","latitude":"53.48534399998489","longitude":"-113.51689200028993","location":"(53.48534399998489, -113.51689200028993)",":@computed_region_ecxu_fw7u":"19",":@computed_region_ueb5_7sqn":"9",":@computed_region_7ccj_gre3":"148"},"geometry":{"type":"Point","coordinates":[-12636642.613907303661108,7073282.918988915160298]}},
{"type":"Feature","properties":{":id":"row-9vkb-4jsk_845d",":version":"rv-epmn-p7ku~6ym8",":created_at":"2026-08-28T07:03:03.622Z",":updated_at":"2026-08-28T07:03:04.242Z","lrt_stop_number":"1514","lrt_stop_description":"102 Street Stop","latitude":"53.54319199976193","longitude":"-113.49520999931818","location":"(53.54319199976193, -113.49520999931818)",":@computed_region_ecxu_fw7u":"242",":@computed_region_ueb5_7sqn":"7",":@computed_region_7ccj_gre3":"338"},"geometry":{"type":"Point","coordinates":[-12634228.984599750488997,7084112.664227875880897]}},
{"type":"Feature","properties":{":id":"row-56gd~74u5.cvc4",":version":"rv-kubu-9374_8dkx",":created_at":"2026-08-28T07:03:03.622Z",":updated_at":"2026-08-28T07:03:04.242Z","lrt_stop_number":"21152","lrt_stop_description":"South Campus Ft Edmonton Station","latitude":"53.502282999864654","longitude":"-113.52849799940002","location":"(53.502282999864654, -113.52849799940002)",":@computed_region_ecxu_fw7u":"17",":@computed_region_ueb5_7sqn":"9",":@computed_region_7ccj_gre3":"260"},"geometry":{"type":"Point","coordinates":[-12637934.587818387895823,7076452.544992390088737]}},
{"type":"Feature","properties":{":id":"row-zeze_rfnf_8fvy",":version":"rv-a47h~dnbk~c2p3",":created_at":"2026-08-28T07:03:03.622Z",":updated_at":"2026-08-28T07:03:04.242Z","lrt_stop_number":"78301","lrt_stop_description":"Belvedere Station","latitude":"53.58834899968461","longitude":"-113.43279999956972","location":"(53.58834899968461, -113.43279999956972)",":@computed_region_ecxu_fw7u":"42",":@computed_region_ueb5_7sqn":"2",":@computed_region_7ccj_gre3":"203"},"geometry":{"type":"Point","coordinates":[-12627281.535207344219089,7092576.812916590832174]}},
{"type":"Feature","properties":{":id":"row-s9wj-jns5-s7zd",":version":"rv-9mdy_gf9g_cd6i",":created_at":"2026-08-28T07:03:03.622Z",":updated_at":"2026-08-28T07:03:04.242Z","lrt_stop_number":"2687","lrt_stop_description":"Davies Station","latitude":"53.50016099968718","longitude":"-113.44432000065416","location":"(53.50016099968718, -113.44432000065416)",":@computed_region_ecxu_fw7u":"241",":@computed_region_ueb5_7sqn":"5",":@computed_region_7ccj_gre3":"94"},"geometry":{"type":"Point","coordinates":[-12628563.935862001031637,7076055.406897870823741]}},
{"type":"Feature","properties":{":id":"row-cqae-s3aw-ccyr",":version":"rv-t328.av4m_jsnu",":created_at":"2026-08-28T07:03:03.622Z",":updated_at":"2026-08-28T07:03:04.242Z","lrt_stop_number":"2006","lrt_stop_description":"Holyrood Stop","latitude":"53.527466000363916","longitude":"-113.45735900045291","location":"(53.527466000363916, -113.45735900045291)",":@computed_region_ecxu_fw7u":"91",":@computed_region_ueb5_7sqn":"5",":@computed_region_7ccj_gre3":"152"},"geometry":{"type":"Point","coordinates":[-12630015.430680053308606,7081167.130468800663948]}},
{"type":"Feature","properties":{":id":"row-b9x7-dgrr-pbu5",":version":"rv-vdrc_yti2_cq73",":created_at":"2026-08-28T07:03:03.622Z",":updated_at":"2026-08-28T07:03:04.242Z","lrt_stop_number":"19851","lrt_stop_description":"Bay Enterprise Square Station","latitude":"53.54090999981269","longitude":"-113.4979850002221","location":"(53.54090999981269, -113.4979850002221)",":@computed_region_ecxu_fw7u":"242",":@computed_region_ueb5_7sqn":"7",":@computed_region_7ccj_gre3":"338"},"geometry":{"type":"Point","coordinates":[-12634537.896287325769663,7083685.169927386566997]}},
{"type":"Feature","properties":{":id":"row-the6.5ipp_tck3",":version":"rv-xi7c~rgrs.4ct9",":created_at":"2026-08-28T07:03:03.622Z",":updated_at":"2026-08-28T07:03:04.242Z","lrt_stop_number":"2716","lrt_stop_description":"Bonnie Doon Stop","latitude":"53.51905599995044","longitude":"-113.45549599928046","location":"(53.51905599995044, -113.45549599928046)",":@computed_region_ecxu_fw7u":"80",":@computed_region_ueb5_7sqn":"5",":@computed_region_7ccj_gre3":"269"},"geometry":{"type":"Point","coordinates":[-12629808.042338186874986,7079592.357286263257265]}},
{"type":"Feature","properties":{":id":"row-h8fw_2yb2-se67",":version":"rv-abiq~hux9~igrx",":created_at":"2026-08-28T07:03:03.622Z",":updated_at":"2026-08-28T07:03:04.242Z","lrt_stop_number":"79771","lrt_stop_description":"Clareview Station","latitude":"53.60182000039132","longitude":"-113.4112500006051","location":"(53.60182000039132, -113.4112500006051)",":@computed_region_ecxu_fw7u":"184",":@computed_region_ueb5_7sqn":"2",":@computed_region_7ccj_gre3":"202"},"geometry":{"type":"Point","coordinates":[-12624882.600296005606651,7095103.544902729801834]}},
{"type":"Feature","properties":{":id":"row-d9nw~28sy.7ey7",":version":"rv-dghz~jkgc~dty3",":created_at":"2026-08-28T07:03:03.622Z",":updated_at":"2026-08-28T07:03:04.242Z","lrt_stop_number":"3607","lrt_stop_description":"Grey Nuns Stop","latitude":"53.46244800008343","longitude":"-113.4345149994685","location":"(53.46244800008343, -113.4345149994685)",":@computed_region_ecxu_fw7u":"46",":@computed_region_ueb5_7sqn":"4",":@computed_region_7ccj_gre3":"111"},"geometry":{"type":"Point","coordinates":[-12627472.448122788220644,7069000.630021275952458]}},
{"type":"Feature","properties":{":id":"row-5wzu~8rwy-deni",":version":"rv-wfuf~5kv9-pwsj",":created_at":"2026-08-28T07:03:03.622Z",":updated_at":"2026-08-28T07:03:04.242Z","lrt_stop_number":"18761","lrt_stop_description":"Churchill Station","latitude":"53.544420000053684","longitude":"-113.48904500024311","location":"(53.544420000053684, -113.48904500024311)",":@computed_region_ecxu_fw7u":"242",":@computed_region_ueb5_7sqn":"7",":@computed_region_7ccj_gre3":"338"},"geometry":{"type":"Point","coordinates":[-12633542.700041972100735,7084342.718961688689888]}},
{"type":"Feature","properties":{":id":"row-jzdn-ibck_xd82",":version":"rv-y6t5-qbc7.nrjf",":created_at":"2026-08-28T07:03:03.622Z",":updated_at":"2026-08-28T07:03:04.242Z","lrt_stop_number":"1518","lrt_stop_description":"Quarters Stop","latitude":"53.544426000012564","longitude":"-113.48400800065555","location":"(53.544426000012564, -113.48400800065555)",":@computed_region_ecxu_fw7u":"242",":@computed_region_ueb5_7sqn":"7",":@computed_region_7ccj_gre3":"154"},"geometry":{"type":"Point","coordinates":[-12632981.983812758699059,7084343.843016033060849]}},
{"type":"Feature","properties":{":id":"row-x7v3.nxeb-i7zr",":version":"rv-p6ft-hgzx-ebsr",":created_at":"2026-08-28T07:03:03.622Z",":updated_at":"2026-08-28T07:03:04.242Z","lrt_stop_number":"49821","lrt_stop_description":"Century Park Station","latitude":"53.45780499999169","longitude":"-113.51630299955886","location":"(53.45780499999169, -113.51630299955886)",":@computed_region_ecxu_fw7u":"173",":@computed_region_ueb5_7sqn":"3",":@computed_region_7ccj_gre3":"281"},"geometry":{"type":"Point","coordinates":[-12636577.046645844355226,7068132.521228148601949]}},
{"type":"Feature","properties":{":id":"row-kam5-rh5r~nt7p",":version":"rv-utjv.bw2i~58nr",":created_at":"2026-08-28T07:03:03.622Z",":updated_at":"2026-08-28T07:03:04.242Z","lrt_stop_number":"19351","lrt_stop_description":"Central Station","latitude":"53.541034999697594","longitude":"-113.49171700030577","location":"(53.541034999697594, -113.49171700030577)",":@computed_region_ecxu_fw7u":"242",":@computed_region_ueb5_7sqn":"7",":@computed_region_7ccj_gre3":"338"},"geometry":{"type":"Point","coordinates":[-12633840.145728347823024,7083708.585956369526684]}},
{"type":"Feature","properties":{":id":"row-zmx8.dhvk~uqh3",":version":"rv-xpjq~h3rw.3jxu",":created_at":"2026-08-28T07:03:03.622Z",":updated_at":"2026-08-28T07:03:04.242Z","lrt_stop_number":"99812","lrt_stop_description":"McKernan Belgravia Station","latitude":"53.5126029999248","longitude":"-113.5261989994793","location":"(53.5126029999248, -113.5261989994793)",":@computed_region_ecxu_fw7u":"18",":@computed_region_ueb5_7sqn":"9",":@computed_region_7ccj_gre3":"59"},"geometry":{"type":"Point","coordinates":[-12637678.66431787982583,7078384.244503138586879]}},
{"type":"Feature","properties":{":id":"row-924k.qpk4-khzt",":version":"rv-bmtt~nq85_a5gu",":created_at":"2026-08-28T07:03:03.622Z",":updated_at":"2026-08-28T07:03:04.242Z","lrt_stop_number":"3876","lrt_stop_description":"Millbourne Woodvale Stop","latitude":"53.47472299985533","longitude":"-113.43897900057199","location":"(53.47472299985533, -113.43897900057199)",":@computed_region_ecxu_fw7u":"57",":@computed_region_ueb5_7sqn":"4",":@computed_region_7ccj_gre3":"46"},"geometry":{"type":"Point","coordinates":[-12627969.378452528268099,7071296.16279175132513]}},
{"type":"Feature","properties":{":id":"row-bitk~8kqs.w5tw",":version":"rv-fkpi-f6v9-immx",":created_at":"2026-08-28T07:03:03.622Z",":updated_at":"2026-08-28T07:03:04.242Z","lrt_stop_number":"19262","lrt_stop_description":"Corona Station","latitude":"53.54097699975875","longitude":"-113.50535800069186","location":"(53.54097699975875, -113.50535800069186)",":@computed_region_ecxu_fw7u":"242",":@computed_region_ueb5_7sqn":"7",":@computed_region_7ccj_gre3":"338"},"geometry":{"type":"Point","coordinates":[-12635358.65494523756206,7083697.720911774784327]}},
{"type":"Feature","properties":{":id":"row-5cg2-8c4t~7djf",":version":"rv-6snq_myb6~tjsk",":created_at":"2026-08-28T07:03:03.622Z",":updated_at":"2026-08-28T07:03:04.242Z","lrt_stop_number":"11142","lrt_stop_description":"Kingsway RAH Station","latitude":"53.557486999930816","longitude":"-113.50068400023693","location":"(53.557486999930816, -113.50068400023693)",":@computed_region_ecxu_fw7u":"220",":@computed_region_ueb5_7sqn":"7",":@computed_region_7ccj_gre3":"181"},"geometry":{"type":"Point","coordinates":[-12634838.347594628110528,7086791.116524025797844]}},
{"type":"Feature","properties":{":id":"row-z3w7_j86c_qhur",":version":"rv-xfse~ahc3_qizy",":created_at":"2026-08-28T07:03:03.622Z",":updated_at":"2026-08-28T07:03:04.242Z","lrt_stop_number":"22992","lrt_stop_description":"Muttart Stop","latitude":"53.53662799970703","longitude":"-113.47910299976016","location":"(53.53662799970703, -113.47910299976016)",":@computed_region_ecxu_fw7u":"126",":@computed_region_ueb5_7sqn":"5",":@computed_region_7ccj_gre3":"398"},"geometry":{"type":"Point","coordinates":[-12632435.961610745638609,7082883.071428855881095]}},
{"type":"Feature","properties":{":id":"row-iqj5-2rr8_3sgb",":version":"rv-m6i8.44qg~sgiz",":created_at":"2026-08-28T07:03:03.622Z",":updated_at":"2026-08-28T07:03:04.242Z","lrt_stop_number":"3899","lrt_stop_description":"Mill Woods Stop","latitude":"53.45844699962426","longitude":"-113.42972500020173","location":"(53.45844699962426, -113.42972500020173)",":@computed_region_ecxu_fw7u":"46",":@computed_region_ueb5_7sqn":"4",":@computed_region_7ccj_gre3":"63"},"geometry":{"type":"Point","coordinates":[-12626939.227843509986997,7068252.55122098326683]}},
{"type":"Feature","properties":{":id":"row-u5hg~cpc4.h4rz",":version":"rv-eeyy.uq67_wk8w",":created_at":"2026-08-28T07:03:03.622Z",":updated_at":"2026-08-28T07:03:04.242Z","lrt_stop_number":"18891","lrt_stop_description":"Coliseum Station","latitude":"53.57086299961547","longitude":"-113.45804599977274","location":"(53.57086299961547, -113.45804599977274)",":@computed_region_ecxu_fw7u":"154",":@computed_region_ueb5_7sqn":"5",":@computed_region_7ccj_gre3":"145"},"geometry":{"type":"Point","coordinates":[-12630091.907094510272145,7089298.195542157627642]}},
{"type":"Feature","properties":{":id":"Alex Decoteau Stop",":version":null,":created_at":null,":updated_at":null,"lrt_stop_number":null,"lrt_stop_description":null,"latitude":null,"longitude":null,"location":null,":@computed_region_ecxu_fw7u":null,":@computed_region_ueb5_7sqn":null,":@computed_region_7ccj_gre3":null},"geometry":{"type":"Point","coordinates":[-12634981.108425570651889,7084091.747929311357439]}},
{"type":"Feature","properties":{":id":"Norquest Stop",":version":null,":created_at":null,":updated_at":null,"lrt_stop_number":null,"lrt_stop_description":null,"latitude":null,"longitude":null,"location":null,":@computed_region_ecxu_fw7u":null,":@computed_region_ueb5_7sqn":null,":@computed_region_7ccj_gre3":null},"geometry":{"type":"Point","coordinates":[-12635292.623749012127519,7084493.885892299935222]}},
{"type":"Feature","properties":{":id":"MacEwan Arts Stop",":version":null,":created_at":null,":updated_at":null,"lrt_stop_number":null,"lrt_stop_description":null,"latitude":null,"longitude":null,"location":null,":@computed_region_ecxu_fw7u":null,":@computed_region_ueb5_7sqn":null,":@computed_region_7ccj_gre3":null},"geometry":{"type":"Point","coordinates":[-12636312.128443909808993,7084685.043022594414651]}},
{"type":"Feature","properties":{":id":"Wîhkwêntôwin Stop",":version":null,":created_at":null,":updated_at":null,"lrt_stop_number":null,"lrt_stop_description":null,"latitude":null,"longitude":null,"location":null,":@computed_region_ecxu_fw7u":null,":@computed_region_ueb5_7sqn":null,":@computed_region_7ccj_gre3":null},"geometry":{"type":"Point","coordinates":[-12637083.836858799681067,7084685.043022595345974]}},
{"type":"Feature","properties":{":id":"Brewery Stop",":version":null,":created_at":null,":updated_at":null,"lrt_stop_number":null,"lrt_stop_description":null,"latitude":null,"longitude":null,"location":null,":@computed_region_ecxu_fw7u":null,":@computed_region_ueb5_7sqn":null,":@computed_region_7ccj_gre3":null},"geometry":{"type":"Point","coordinates":[-12637851.297337459400296,7084687.874980080872774]}},
{"type":"Feature","properties":{":id":"124 Street Stop",":version":null,":created_at":null,":updated_at":null,"lrt_stop_number":null,"lrt_stop_description":null,"latitude":null,"longitude":null,"location":null,":@computed_region_ecxu_fw7u":null,":@computed_region_ueb5_7sqn":null,":@computed_region_7ccj_gre3":null},"geometry":{"type":"Point","coordinates":[-12638526.719197832047939,7084751.594023511745036]}},
{"type":"Feature","properties":{":id":"Glenora Stop",":version":null,":created_at":null,":updated_at":null,"lrt_stop_number":null,"lrt_stop_description":null,"latitude":null,"longitude":null,"location":null,":@computed_region_ecxu_fw7u":null,":@computed_region_ueb5_7sqn":null,":@computed_region_7ccj_gre3":null},"geometry":{"type":"Point","coordinates":[-12640506.25748042576015,7084662.38736270647496]}},
{"type":"Feature","properties":{":id":"Grovenor Stop",":version":null,":created_at":null,":updated_at":null,"lrt_stop_number":null,"lrt_stop_description":null,"latitude":null,"longitude":null,"location":null,":@computed_region_ecxu_fw7u":null,":@computed_region_ueb5_7sqn":null,":@computed_region_7ccj_gre3":null},"geometry":{"type":"Point","coordinates":[-12641956.9277025423944,7084103.783748626708984]}},
{"type":"Feature","properties":{":id":"Stony Plain Road Stop",":version":null,":created_at":null,":updated_at":null,"lrt_stop_number":null,"lrt_stop_description":null,"latitude":null,"longitude":null,"location":null,":@computed_region_ecxu_fw7u":null,":@computed_region_ueb5_7sqn":null,":@computed_region_7ccj_gre3":null},"geometry":{"type":"Point","coordinates":[-12643743.184886729344726,7083766.780807812698185]}},
{"type":"Feature","properties":{":id":"Jasper Place Stop",":version":null,":created_at":null,":updated_at":null,"lrt_stop_number":null,"lrt_stop_description":null,"latitude":null,"longitude":null,"location":null,":@computed_region_ecxu_fw7u":null,":@computed_region_ueb5_7sqn":null,":@computed_region_7ccj_gre3":null},"geometry":{"type":"Point","coordinates":[-12644824.284656943753362,7083512.612623456865549]}},
{"type":"Feature","properties":{":id":"Glenwood/Sherwood Stop",":version":null,":created_at":null,":updated_at":null,"lrt_stop_number":null,"lrt_stop_description":null,"latitude":null,"longitude":null,"location":null,":@computed_region_ecxu_fw7u":null,":@computed_region_ueb5_7sqn":null,":@computed_region_7ccj_gre3":null},"geometry":{"type":"Point","coordinates":[-12644818.620741968974471,7081957.15997436735779]}},
{"type":"Feature","properties":{":id":"Meadowlark Stop",":version":null,":created_at":null,":updated_at":null,"lrt_stop_number":null,"lrt_stop_description":null,"latitude":null,"longitude":null,"location":null,":@computed_region_ecxu_fw7u":null,":@computed_region_ueb5_7sqn":null,":@computed_region_7ccj_gre3":null},"geometry":{"type":"Point","coordinates":[-12645329.081078791990876,7080116.387608573772013]}},
{"type":"Feature","properties":{":id":"Misericordia Station",":version":null,":created_at":null,":updated_at":null,"lrt_stop_number":null,"lrt_stop_description":null,"latitude":null,"longitude":null,"location":null,":@computed_region_ecxu_fw7u":null,":@computed_region_ueb5_7sqn":null,":@computed_region_7ccj_gre3":null},"geometry":{"type":"Point","coordinates":[-12647212.332806866616011,7079724.161496786400676]}},
{"type":"Feature","properties":{":id":"West Edmonton Mall Station",":version":null,":created_at":null,":updated_at":null,"lrt_stop_number":null,"lrt_stop_description":null,"latitude":null,"longitude":null,"location":null,":@computed_region_ecxu_fw7u":null,":@computed_region_ueb5_7sqn":null,":@computed_region_7ccj_gre3":null},"geometry":{"type":"Point","coordinates":[-12648376.975322915241122,7079836.023817477747798]}},
{"type":"Feature","properties":{":id":"Aldergrove/Belmead Stop",":version":null,":created_at":null,":updated_at":null,"lrt_stop_number":null,"lrt_stop_description":null,"latitude":null,"longitude":null,"location":null,":@computed_region_ecxu_fw7u":null,":@computed_region_ueb5_7sqn":null,":@computed_region_7ccj_gre3":null},"geometry":{"type":"Point","coordinates":[-12650116.5052085891366,7080047.712639542296529]}},
{"type":"Feature","properties":{":id":"Lewis Farms Stop",":version":null,":created_at":null,":updated_at":null,"lrt_stop_number":null,"lrt_stop_description":null,"latitude":null,"longitude":null,"location":null,":@computed_region_ecxu_fw7u":null,":@computed_region_ueb5_7sqn":null,":@computed_region_7ccj_gre3":null},"geometry":{"type":"Point","coordinates":[-12653322.281082548201084,7080287.721036466769874]}}
]
}
