{
"type": "FeatureCollection",
"name": "lrt-stops",
"crs": { "type": "name", "properties": { "name": "urn:ogc:def:crs:EPSG::3857" } },
"features": [
{"type":"Feature","properties":{"_id":"Alex Decoteau Stop","_version":null,"_created_a":null,"_updated_a":null,"lrt_stop_n":null,"lrt_stop_d":null,"latitude":null,"longitude":null,"location":null,"_@computed":null,"_@comput_1":null,"_@comput_2":null},"geometry":{"type":"Point","coordinates":[-12634981.108425568789244,7084091.747929309494793]}},
{"type":"Feature","properties":{"_id":"Norquest Stop","_version":null,"_created_a":null,"_updated_a":null,"lrt_stop_n":null,"lrt_stop_d":null,"latitude":null,"longitude":null,"location":null,"_@computed":null,"_@comput_1":null,"_@comput_2":null},"geometry":{"type":"Point","coordinates":[-12635292.623749010264874,7084493.885892299935222]}},
{"type":"Feature","properties":{"_id":"MacEwan Arts Stop","_version":null,"_created_a":null,"_updated_a":null,"lrt_stop_n":null,"lrt_stop_d":null,"latitude":null,"longitude":null,"location":null,"_@computed":null,"_@comput_1":null,"_@comput_2":null},"geometry":{"type":"Point","coordinates":[-12636312.128443907946348,7084685.043022592552006]}},
{"type":"Feature","properties":{"_id":"Wîhkwêntôwin Stop","_version":null,"_created_a":null,"_updated_a":null,"lrt_stop_n":null,"lrt_stop_d":null,"latitude":null,"longitude":null,"location":null,"_@computed":null,"_@comput_1":null,"_@comput_2":null},"geometry":{"type":"Point","coordinates":[-12637083.836858797818422,7084685.043022592552006]}},
{"type":"Feature","properties":{"_id":"Brewery Stop","_version":null,"_created_a":null,"_updated_a":null,"lrt_stop_n":null,"lrt_stop_d":null,"latitude":null,"longitude":null,"location":null,"_@computed":null,"_@comput_1":null,"_@comput_2":null},"geometry":{"type":"Point","coordinates":[-12637851.297337457537651,7084687.874980081804097]}},
{"type":"Feature","properties":{"_id":"124 Street Stop","_version":null,"_created_a":null,"_updated_a":null,"lrt_stop_n":null,"lrt_stop_d":null,"latitude":null,"longitude":null,"location":null,"_@computed":null,"_@comput_1":null,"_@comput_2":null},"geometry":{"type":"Point","coordinates":[-12638526.719197832047939,7084751.594023508019745]}},
{"type":"Feature","properties":{"_id":"Glenora Stop","_version":null,"_created_a":null,"_updated_a":null,"lrt_stop_n":null,"lrt_stop_d":null,"latitude":null,"longitude":null,"location":null,"_@computed":null,"_@comput_1":null,"_@comput_2":null},"geometry":{"type":"Point","coordinates":[-12640506.25748042576015,7084662.38736270647496]}},
{"type":"Feature","properties":{"_id":"Grovenor Stop","_version":null,"_created_a":null,"_updated_a":null,"lrt_stop_n":null,"lrt_stop_d":null,"latitude":null,"longitude":null,"location":null,"_@computed":null,"_@comput_1":null,"_@comput_2":null},"geometry":{"type":"Point","coordinates":[-12641956.9277025423944,7084103.783748625777662]}},
{"type":"Feature","properties":{"_id":"Stony Plain Road Stop","_version":null,"_created_a":null,"_updated_a":null,"lrt_stop_n":null,"lrt_stop_d":null,"latitude":null,"longitude":null,"location":null,"_@computed":null,"_@comput_1":null,"_@comput_2":null},"geometry":{"type":"Point","coordinates":[-12643743.18488672748208,7083766.780807809904218]}},
{"type":"Feature","properties":{"_id":"Jasper Place Stop","_version":null,"_created_a":null,"_updated_a":null,"lrt_stop_n":null,"lrt_stop_d":null,"latitude":null,"longitude":null,"location":null,"_@computed":null,"_@comput_1":null,"_@comput_2":null},"geometry":{"type":"Point","coordinates":[-12644824.284656941890717,7083512.612623454071581]}},
{"type":"Feature","properties":{"_id":"Glenwood/Sherwood Stop","_version":null,"_created_a":null,"_updated_a":null,"lrt_stop_n":null,"lrt_stop_d":null,"latitude":null,"longitude":null,"location":null,"_@computed":null,"_@comput_1":null,"_@comput_2":null},"geometry":{"type":"Point","coordinates":[-12644818.620741967111826,7081957.159974366426468]}},
{"type":"Feature","properties":{"_id":"Meadowlark Stop","_version":null,"_created_a":null,"_updated_a":null,"lrt_stop_n":null,"lrt_stop_d":null,"latitude":null,"longitude":null,"location":null,"_@computed":null,"_@comput_1":null,"_@comput_2":null},"geometry":{"type":"Point","coordinates":[-12645329.081078790128231,7080116.387608570046723]}},
{"type":"Feature","properties":{"_id":"Misericordia Station","_version":null,"_created_a":null,"_updated_a":null,"lrt_stop_n":null,"lrt_stop_d":null,"latitude":null,"longitude":null,"location":null,"_@computed":null,"_@comput_1":null,"_@comput_2":null},"geometry":{"type":"Point","coordinates":[-12647212.332806866616011,7079724.161496784538031]}},
{"type":"Feature","properties":{"_id":"West Edmonton Mall Station","_version":null,"_created_a":null,"_updated_a":null,"lrt_stop_n":null,"lrt_stop_d":null,"latitude":null,"longitude":null,"location":null,"_@computed":null,"_@comput_1":null,"_@comput_2":null},"geometry":{"type":"Point","coordinates":[-12648376.975322913378477,7079836.023817474022508]}},
{"type":"Feature","properties":{"_id":"Aldergrove/Belmead Stop","_version":null,"_created_a":null,"_updated_a":null,"lrt_stop_n":null,"lrt_stop_d":null,"latitude":null,"longitude":null,"location":null,"_@computed":null,"_@comput_1":null,"_@comput_2":null},"geometry":{"type":"Point","coordinates":[-12650116.505208587273955,7080047.712639542296529]}},
{"type":"Feature","properties":{"_id":"Lewis Farms Stop","_version":null,"_created_a":null,"_updated_a":null,"lrt_stop_n":null,"lrt_stop_d":null,"latitude":null,"longitude":null,"location":null,"_@computed":null,"_@comput_1":null,"_@comput_2":null},"geometry":{"type":"Point","coordinates":[-12653322.281082548201084,7080287.721036463975906]}},
{"type":"Feature","properties":{"_id":"row-y3bg.wesr~xgeh","_version":"rv-ggy9-2jm6_7pgw","_created_a":"2026/08/28 07:03:03.622","_updated_a":"2026/08/28 07:03:04.242","lrt_stop_n":"19811","lrt_stop_d":"Stadium Station","latitude":"53.560126000058794","longitude":"-113.47046000038726","location":"(53.560126000058794, -113.47046000038726)","_@computed":"153","_@comput_1":"7","_@comput_2":"367"},"geometry":{"type":"Point","coordinates":[-12631473.827321626245975,7087285.684581032954156]}},
{"type":"Feature","properties":{"_id":"row-fb3u_mae6-ek9x","_version":"rv-ja9e.ezwq~hbyq","_created_a":"2026/08/28 07:03:03.622","_updated_a":"2026/08/28 07:03:04.242","lrt_stop_n":"22990","lrt_stop_d":"Strathearn Stop","latitude":"53.53168999978526","longitude":"-113.46246200026941","location":"(53.53168999978526, -113.46246200026941)","_@computed":"126","_@comput_1":"5","_@comput_2":"342"},"geometry":{"type":"Point","coordinates":[-12630583.494021143764257,7081958.192633223719895]}},
{"type":"Feature","properties":{"_id":"row-8jii.deta-iyw9","_version":"rv-txs7~a7nw~scr2","_created_a":"2026/08/28 07:03:03.622","_updated_a":"2026/08/28 07:03:04.242","lrt_stop_n":"11172","lrt_stop_d":"MacEwan Station","latitude":"53.54768399993457","longitude":"-113.49818000028814","location":"(53.54768399993457, -113.49818000028814)","_@computed":"222","_@comput_1":"7","_@comput_2":"338"},"geometry":{"type":"Point","coordinates":[-12634559.60359538346529,7084954.232228494249284]}},
{"type":"Feature","properties":{"_id":"row-w3hc-9pcf-rn79","_version":"rv-syis~c3ug-37wf","_created_a":"2026/08/28 07:03:03.622","_updated_a":"2026/08/28 07:03:04.242","lrt_stop_n":"19252","lrt_stop_d":"Government Station","latitude":"53.53588500040125","longitude":"-113.510326999277","location":"(53.53588500040125, -113.510326999277)","_@computed":"24","_@comput_1":"7","_@comput_2":"182"},"geometry":{"type":"Point","coordinates":[-12635911.801337487995625,7082743.902057688683271]}},
{"type":"Feature","properties":{"_id":"row-6gdy_sm4t.3hbh","_version":"rv-5i67.nih8_njz6","_created_a":"2026/08/28 07:03:03.622","_updated_a":"2026/08/28 07:03:04.242","lrt_stop_n":"1515","lrt_stop_d":"Churchill Stop","latitude":"53.5434639999909","longitude":"-113.49013299982286","location":"(53.5434639999909, -113.49013299982286)","_@computed":"242","_@comput_1":"7","_@comput_2":"338"},"geometry":{"type":"Point","coordinates":[-12633663.815601171925664,7084163.620432096533477]}},
{"type":"Feature","properties":{"_id":"row-6xkr~gdj8.g8s9","_version":"rv-2ykb~6c23_i8r9","_created_a":"2026/08/28 07:03:03.622","_updated_a":"2026/08/28 07:03:04.242","lrt_stop_n":"2717","lrt_stop_d":"Avonmore Stop","latitude":"53.51036299979529","longitude":"-113.45508599986613","location":"(53.51036299979529, -113.45508599986613)","_@computed":"73","_@comput_1":"5","_@comput_2":"188"},"geometry":{"type":"Point","coordinates":[-12629762.401412157341838,7077964.920899642631412]}},
{"type":"Feature","properties":{"_id":"row-6iqx-fkay.6nzi","_version":"rv-2ewm-ze6k_ntsm","_created_a":"2026/08/28 07:03:03.622","_updated_a":"2026/08/28 07:03:04.242","lrt_stop_n":"20141","lrt_stop_d":"Health Sciences Jubilee Station","latitude":"53.52038799984137","longitude":"-113.52581799937964","location":"(53.52038799984137, -113.52581799937964)","_@computed":"146","_@comput_1":"9","_@comput_2":"121"},"geometry":{"type":"Point","coordinates":[-12637636.25158079341054,7079841.753525452688336]}},
{"type":"Feature","properties":{"_id":"row-d7nt.cqkv_famb","_version":"rv-sqdx.qe4v~wt9w","_created_a":"2026/08/28 07:03:03.622","_updated_a":"2026/08/28 07:03:04.242","lrt_stop_n":"23161","lrt_stop_d":"University Station","latitude":"53.524939999621544","longitude":"-113.52225800047876","location":"(53.524939999621544, -113.52225800047876)","_@computed":"146","_@comput_1":"9","_@comput_2":"121"},"geometry":{"type":"Point","coordinates":[-12637239.954315921291709,7080694.10379693377763]}},
{"type":"Feature","properties":{"_id":"row-d5wb-zh5z.a99t","_version":"rv-d8sd_7a9d.x7mg","_created_a":"2026/08/28 07:03:03.622","_updated_a":"2026/08/28 07:03:04.242","lrt_stop_n":"21132","lrt_stop_d":"Southgate Station","latitude":"53.48534399998489","longitude":"-113.51689200028993","location":"(53.48534399998489, -113.51689200028993)","_@computed":"19","_@comput_1":"9","_@comput_2":"148"},"geometry":{"type":"Point","coordinates":[-12636642.613907303661108,7073282.918988913297653]}},
{"type":"Feature","properties":{"_id":"row-9vkb-4jsk_845d","_version":"rv-epmn-p7ku~6ym8","_created_a":"2026/08/28 07:03:03.622","_updated_a":"2026/08/28 07:03:04.242","lrt_stop_n":"1514","lrt_stop_d":"102 Street Stop","latitude":"53.54319199976193","longitude":"-113.49520999931818","location":"(53.54319199976193, -113.49520999931818)","_@computed":"242","_@comput_1":"7","_@comput_2":"338"},"geometry":{"type":"Point","coordinates":[-12634228.984599748626351,7084112.664227875880897]}},
{"type":"Feature","properties":{"_id":"row-56gd~74u5.cvc4","_version":"rv-kubu-9374_8dkx","_created_a":"2026/08/28 07:03:03.622","_updated_a":"2026/08/28 07:03:04.242","lrt_stop_n":"21152","lrt_stop_d":"South Campus Ft Edmonton Station","latitude":"53.502282999864654","longitude":"-113.52849799940002","location":"(53.502282999864654, -113.52849799940002)","_@computed":"17","_@comput_1":"9","_@comput_2":"260"},"geometry":{"type":"Point","coordinates":[-12637934.587818387895823,7076452.544992387294769]}},
{"type":"Feature","properties":{"_id":"row-zeze_rfnf_8fvy","_version":"rv-a47h~dnbk~c2p3","_created_a":"2026/08/28 07:03:03.622","_updated_a":"2026/08/28 07:03:04.242","lrt_stop_n":"78301","lrt_stop_d":"Belvedere Station","latitude":"53.58834899968461","longitude":"-113.43279999956972","location":"(53.58834899968461, -113.43279999956972)","_@computed":"42","_@comput_1":"2","_@comput_2":"203"},"geometry":{"type":"Point","coordinates":[-12627281.535207342356443,7092576.812916590832174]}},
{"type":"Feature","properties":{"_id":"row-s9wj-jns5-s7zd","_version":"rv-9mdy_gf9g_cd6i","_created_a":"2026/08/28 07:03:03.622","_updated_a":"2026/08/28 07:03:04.242","lrt_stop_n":"2687","lrt_stop_d":"Davies Station","latitude":"53.50016099968718","longitude":"-113.44432000065416","location":"(53.50016099968718, -113.44432000065416)","_@computed":"241","_@comput_1":"5","_@comput_2":"94"},"geometry":{"type":"Point","coordinates":[-12628563.935862001031637,7076055.406897870823741]}},
{"type":"Feature","properties":{"_id":"row-cqae-s3aw-ccyr","_version":"rv-t328.av4m_jsnu","_created_a":"2026/08/28 07:03:03.622","_updated_a":"2026/08/28 07:03:04.242","lrt_stop_n":"2006","lrt_stop_d":"Holyrood Stop","latitude":"53.527466000363916","longitude":"-113.45735900045291","location":"(53.527466000363916, -113.45735900045291)","_@computed":"91","_@comput_1":"5","_@comput_2":"152"},"geometry":{"type":"Point","coordinates":[-12630015.430680053308606,7081167.130468799732625]}},
{"type":"Feature","properties":{"_id":"row-b9x7-dgrr-pbu5","_version":"rv-vdrc_yti2_cq73","_created_a":"2026/08/28 07:03:03.622","_updated_a":"2026/08/28 07:03:04.242","lrt_stop_n":"19851","lrt_stop_d":"Bay Enterprise Square Station","latitude":"53.54090999981269","longitude":"-113.4979850002221","location":"(53.54090999981269, -113.4979850002221)","_@computed":"242","_@comput_1":"7","_@comput_2":"338"},"geometry":{"type":"Point","coordinates":[-12634537.896287323907018,7083685.169927386566997]}},
{"type":"Feature","properties":{"_id":"row-the6.5ipp_tck3","_version":"rv-xi7c~rgrs.4ct9","_created_a":"2026/08/28 07:03:03.622","_updated_a":"2026/08/28 07:03:04.242","lrt_stop_n":"2716","lrt_stop_d":"Bonnie Doon Stop","latitude":"53.51905599995044","longitude":"-113.45549599928046","location":"(53.51905599995044, -113.45549599928046)","_@computed":"80","_@comput_1":"5","_@comput_2":"269"},"geometry":{"type":"Point","coordinates":[-12629808.042338186874986,7079592.357286262325943]}},
{"type":"Feature","properties":{"_id":"row-h8fw_2yb2-se67","_version":"rv-abiq~hux9~igrx","_created_a":"2026/08/28 07:03:03.622","_updated_a":"2026/08/28 07:03:04.242","lrt_stop_n":"79771","lrt_stop_d":"Clareview Station","latitude":"53.60182000039132","longitude":"-113.4112500006051","location":"(53.60182000039132, -113.4112500006051)","_@computed":"184","_@comput_1":"2","_@comput_2":"202"},"geometry":{"type":"Point","coordinates":[-12624882.600296003744006,7095103.544902727007866]}},
{"type":"Feature","properties":{"_id":"row-d9nw~28sy.7ey7","_version":"rv-dghz~jkgc~dty3","_created_a":"2026/08/28 07:03:03.622","_updated_a":"2026/08/28 07:03:04.242","lrt_stop_n":"3607","lrt_stop_d":"Grey Nuns Stop","latitude":"53.46244800008343","longitude":"-113.4345149994685","location":"(53.46244800008343, -113.4345149994685)","_@computed":"46","_@comput_1":"4","_@comput_2":"111"},"geometry":{"type":"Point","coordinates":[-12627472.448122788220644,7069000.630021275952458]}},
{"type":"Feature","properties":{"_id":"row-5wzu~8rwy-deni","_version":"rv-wfuf~5kv9-pwsj","_created_a":"2026/08/28 07:03:03.622","_updated_a":"2026/08/28 07:03:04.242","lrt_stop_n":"18761","lrt_stop_d":"Churchill Station","latitude":"53.544420000053684","longitude":"-113.48904500024311","location":"(53.544420000053684, -113.48904500024311)","_@computed":"242","_@comput_1":"7","_@comput_2":"338"},"geometry":{"type":"Point","coordinates":[-12633542.700041972100735,7084342.718961688689888]}},
{"type":"Feature","properties":{"_id":"row-jzdn-ibck_xd82","_version":"rv-y6t5-qbc7.nrjf","_created_a":"2026/08/28 07:03:03.622","_updated_a":"2026/08/28 07:03:04.242","lrt_stop_n":"1518","lrt_stop_d":"Quarters Stop","latitude":"53.544426000012564","longitude":"-113.48400800065555","location":"(53.544426000012564, -113.48400800065555)","_@computed":"242","_@comput_1":"7","_@comput_2":"154"},"geometry":{"type":"Point","coordinates":[-12632981.983812758699059,7084343.843016033060849]}},
{"type":"Feature","properties":{"_id":"row-x7v3.nxeb-i7zr","_version":"rv-p6ft-hgzx-ebsr","_created_a":"2026/08/28 07:03:03.622","_updated_a":"2026/08/28 07:03:04.242","lrt_stop_n":"49821","lrt_stop_d":"Century Park Station","latitude":"53.45780499999169","longitude":"-113.51630299955886","location":"(53.45780499999169, -113.51630299955886)","_@computed":"173","_@comput_1":"3","_@comput_2":"281"},"geometry":{"type":"Point","coordinates":[-12636577.046645844355226,7068132.521228147670627]}},
{"type":"Feature","properties":{"_id":"row-kam5-rh5r~nt7p","_version":"rv-utjv.bw2i~58nr","_created_a":"2026/08/28 07:03:03.622","_updated_a":"2026/08/28 07:03:04.242","lrt_stop_n":"19351","lrt_stop_d":"Central Station","latitude":"53.541034999697594","longitude":"-113.49171700030577","location":"(53.541034999697594, -113.49171700030577)","_@computed":"242","_@comput_1":"7","_@comput_2":"338"},"geometry":{"type":"Point","coordinates":[-12633840.145728345960379,7083708.585956369526684]}},
{"type":"Feature","properties":{"_id":"row-zmx8.dhvk~uqh3","_version":"rv-xpjq~h3rw.3jxu","_created_a":"2026/08/28 07:03:03.622","_updated_a":"2026/08/28 07:03:04.242","lrt_stop_n":"99812","lrt_stop_d":"McKernan Belgravia Station","latitude":"53.5126029999248","longitude":"-113.5261989994793","location":"(53.5126029999248, -113.5261989994793)","_@computed":"18","_@comput_1":"9","_@comput_2":"59"},"geometry":{"type":"Point","coordinates":[-12637678.66431787982583,7078384.244503137655556]}},
{"type":"Feature","properties":{"_id":"row-924k.qpk4-khzt","_version":"rv-bmtt~nq85_a5gu","_created_a":"2026/08/28 07:03:03.622","_updated_a":"2026/08/28 07:03:04.242","lrt_stop_n":"3876","lrt_stop_d":"Millbourne Woodvale Stop","latitude":"53.47472299985533","longitude":"-113.43897900057199","location":"(53.47472299985533, -113.43897900057199)","_@computed":"57","_@comput_1":"4","_@comput_2":"46"},"geometry":{"type":"Point","coordinates":[-12627969.378452528268099,7071296.162791749462485]}},
{"type":"Feature","properties":{"_id":"row-bitk~8kqs.w5tw","_version":"rv-fkpi-f6v9-immx","_created_a":"2026/08/28 07:03:03.622","_updated_a":"2026/08/28 07:03:04.242","lrt_stop_n":"19262","lrt_stop_d":"Corona Station","latitude":"53.54097699975875","longitude":"-113.50535800069186","location":"(53.54097699975875, -113.50535800069186)","_@computed":"242","_@comput_1":"7","_@comput_2":"338"},"geometry":{"type":"Point","coordinates":[-12635358.65494523756206,7083697.720911771059036]}},
{"type":"Feature","properties":{"_id":"row-5cg2-8c4t~7djf","_version":"rv-6snq_myb6~tjsk","_created_a":"2026/08/28 07:03:03.622","_updated_a":"2026/08/28 07:03:04.242","lrt_stop_n":"11142","lrt_stop_d":"Kingsway RAH Station","latitude":"53.557486999930816","longitude":"-113.50068400023693","location":"(53.557486999930816, -113.50068400023693)","_@computed":"220","_@comput_1":"7","_@comput_2":"181"},"geometry":{"type":"Point","coordinates":[-12634838.347594626247883,7086791.116524023003876]}},
{"type":"Feature","properties":{"_id":"row-z3w7_j86c_qhur","_version":"rv-xfse~ahc3_qizy","_created_a":"2026/08/28 07:03:03.622","_updated_a":"2026/08/28 07:03:04.242","lrt_stop_n":"22992","lrt_stop_d":"Muttart Stop","latitude":"53.53662799970703","longitude":"-113.47910299976016","location":"(53.53662799970703, -113.47910299976016)","_@computed":"126","_@comput_1":"5","_@comput_2":"398"},"geometry":{"type":"Point","coordinates":[-12632435.961610745638609,7082883.07142885774374]}},
{"type":"Feature","properties":{"_id":"row-iqj5-2rr8_3sgb","_version":"rv-m6i8.44qg~sgiz","_created_a":"2026/08/28 07:03:03.622","_updated_a":"2026/08/28 07:03:04.242","lrt_stop_n":"3899","lrt_stop_d":"Mill Woods Stop","latitude":"53.45844699962426","longitude":"-113.42972500020173","location":"(53.45844699962426, -113.42972500020173)","_@computed":"46","_@comput_1":"4","_@comput_2":"63"},"geometry":{"type":"Point","coordinates":[-12626939.227843508124352,7068252.551220980472863]}},
{"type":"Feature","properties":{"_id":"row-u5hg~cpc4.h4rz","_version":"rv-eeyy.uq67_wk8w","_created_a":"2026/08/28 07:03:03.622","_updated_a":"2026/08/28 07:03:04.242","lrt_stop_n":"18891","lrt_stop_d":"Coliseum Station","latitude":"53.57086299961547","longitude":"-113.45804599977274","location":"(53.57086299961547, -113.45804599977274)","_@computed":"154","_@comput_1":"5","_@comput_2":"145"},"geometry":{"type":"Point","coordinates":[-12630091.907094510272145,7089298.195542155764997]}},
{"type":"Feature","properties":{"_id":"NAIT/Blatchford Market Stop","_version":null,"_created_a":null,"_updated_a":null,"lrt_stop_n":null,"lrt_stop_d":null,"latitude":null,"longitude":null,"location":null,"_@computed":null,"_@comput_1":null,"_@comput_2":null},"geometry":{"type":"Point","coordinates":[-12635782.375396752730012,7088573.674645256251097]}},
{"type":"Feature","properties":{"_id":"Blatchford Gate Stop","_version":null,"_created_a":null,"_updated_a":null,"lrt_stop_n":null,"lrt_stop_d":null,"latitude":null,"longitude":null,"location":null,"_@computed":null,"_@comput_1":null,"_@comput_2":null},"geometry":{"type":"Point","coordinates":[-12635918.309356071054935,7090442.766585893929005]}}
]
}
