{
"type": "FeatureCollection",
"name": "lrtisochrones",
"crs": { "type": "name", "properties": { "name": "urn:ogc:def:crs:OGC:1.3:CRS84" } },
"features": [
{"type":"Feature","properties":{"ID":null,"CENTER_LON":"-113.50196605754098","CENTER_LAT":"53.54310260392394","AA_MINS":10,"AA_MODE":"foot-walking","TOTAL_POP":"8796"},"geometry":{"type":"Polygon","coordinates":[[[-113.514479,53.543201],[-113.51448,53.542841],[-113.511922,53.540887],[-113.510463,53.539945],[-113.506847,53.537882],[-113.505202,53.53715],[-113.505033,53.537082],[-113.503317,53.536998],[-113.503051,53.536996],[-113.501264,53.536989],[-113.50075,53.536993],[-113.499147,53.537011],[-113.49621,53.538592],[-113.493722,53.540183],[-113.492842,53.540821],[-113.489715,53.543125],[-113.489616,53.54321],[-113.489646,53.543732],[-113.494088,53.546511],[-113.499073,53.549439],[-113.500747,53.550295],[-113.501107,53.550292],[-113.50319,53.549906],[-113.508367,53.547018],[-113.509137,53.546607],[-113.509732,53.54629],[-113.512159,53.544787],[-113.514468,53.543234],[-113.514479,53.543201]]]}},
{"type":"Feature","properties":{"ID":null,"CENTER_LON":"-113.50196605754098","CENTER_LAT":"53.54310260392394","AA_MINS":5,"AA_MODE":"foot-walking","TOTAL_POP":"2633"},"geometry":{"type":"Polygon","coordinates":[[[-113.508406,53.543143],[-113.508406,53.543125],[-113.508261,53.542947],[-113.506335,53.541339],[-113.504935,53.540762],[-113.503235,53.540716],[-113.502875,53.540715],[-113.499161,53.540756],[-113.498925,53.540878],[-113.495653,53.543003],[-113.495672,53.543362],[-113.500772,53.546406],[-113.500874,53.546406],[-113.502775,53.54641],[-113.503157,53.546355],[-113.505976,53.544699],[-113.507728,53.543646],[-113.508251,53.543307],[-113.508406,53.543143]]]}},
{"type":"Feature","properties":{"ID":null,"CENTER_LON":"-113.50475711566018","CENTER_LAT":"53.54522696488275","AA_MINS":10,"AA_MODE":"foot-walking","TOTAL_POP":"8966"},"geometry":{"type":"Polygon","coordinates":[[[-113.516471,53.544789],[-113.516471,53.544429],[-113.514126,53.54284],[-113.510994,53.540886],[-113.510576,53.540636],[-113.507115,53.538589],[-113.50662,53.538334],[-113.505078,53.537777],[-113.504718,53.537778],[-113.504458,53.537832],[-113.50289,53.538398],[-113.498996,53.540628],[-113.495879,53.542788],[-113.493109,53.544169],[-113.493097,53.544529],[-113.493743,53.546409],[-113.496576,53.548508],[-113.49743,53.549014],[-113.499104,53.550007],[-113.499259,53.550099],[-113.50075,53.550793],[-113.502692,53.551685],[-113.502855,53.551684],[-113.503106,53.551642],[-113.50842,53.550732],[-113.509631,53.550101],[-113.512519,53.548515],[-113.512945,53.548262],[-113.515477,53.546651],[-113.5159,53.546291],[-113.516471,53.544789]]]}},
{"type":"Feature","properties":{"ID":null,"CENTER_LON":"-113.50475711566018","CENTER_LAT":"53.54522696488275","AA_MINS":5,"AA_MODE":"foot-walking","TOTAL_POP":"1950"},"geometry":{"type":"Polygon","coordinates":[[[-113.510213,53.544855],[-113.510213,53.544495],[-113.510057,53.544361],[-113.507652,53.542745],[-113.505456,53.541454],[-113.504779,53.54137],[-113.50476,53.54137],[-113.50471,53.541395],[-113.504314,53.541597],[-113.50194,53.542923],[-113.499635,53.544309],[-113.499446,53.544426],[-113.499375,53.544494],[-113.499375,53.544854],[-113.500044,53.546403],[-113.500234,53.546553],[-113.50113,53.547105],[-113.5027,53.547953],[-113.50288,53.548046],[-113.50293,53.548046],[-113.502931,53.548046],[-113.502982,53.548046],[-113.508367,53.546989],[-113.509294,53.546478],[-113.509629,53.546291],[-113.510213,53.544855]]]}},
{"type":"Feature","properties":{"ID":null,"CENTER_LON":"-113.5139305044816","CENTER_LAT":"53.54624692501711","AA_MINS":10,"AA_MODE":"foot-walking","TOTAL_POP":"14500"},"geometry":{"type":"Polygon","coordinates":[[[-113.526381,53.546183],[-113.526375,53.545979],[-113.526306,53.545931],[-113.524077,53.544437],[-113.523958,53.544365],[-113.518953,53.541337],[-113.51796,53.540767],[-113.51414,53.538671],[-113.513795,53.53867],[-113.513624,53.538751],[-113.509702,53.540882],[-113.509366,53.541089],[-113.506694,53.542745],[-113.50413,53.544328],[-113.501501,53.546047],[-113.5015,53.546407],[-113.501615,53.546571],[-113.50171,53.546668],[-113.506649,53.54991],[-113.506896,53.550101],[-113.50983,53.551691],[-113.511816,53.55275],[-113.511947,53.552818],[-113.512812,53.553258],[-113.513664,53.553668],[-113.514024,53.553667],[-113.515974,53.552789],[-113.51612,53.552711],[-113.518036,53.551692],[-113.522304,53.549518],[-113.526377,53.546543],[-113.526381,53.546183]]]}},
{"type":"Feature","properties":{"ID":null,"CENTER_LON":"-113.5139305044816","CENTER_LAT":"53.54624692501711","AA_MINS":5,"AA_MODE":"foot-walking","TOTAL_POP":"3422"},"geometry":{"type":"Polygon","coordinates":[[[-113.520073,53.546165],[-113.520069,53.545965],[-113.52005,53.545931],[-113.519995,53.545828],[-113.514985,53.542925],[-113.514114,53.542501],[-113.513754,53.542498],[-113.513132,53.54275],[-113.511065,53.543903],[-113.508734,53.545374],[-113.507792,53.545991],[-113.507792,53.546351],[-113.507794,53.546477],[-113.507849,53.546591],[-113.50835,53.547091],[-113.508538,53.547235],[-113.510103,53.54819],[-113.513495,53.549909],[-113.513972,53.549997],[-113.514038,53.549997],[-113.518461,53.547926],[-113.520073,53.546525],[-113.520073,53.546165]]]}},
{"type":"Feature","properties":{"ID":null,"CENTER_LON":"-113.52085562609201","CENTER_LAT":"53.54634562956871","AA_MINS":10,"AA_MODE":"foot-walking","TOTAL_POP":"16303"},"geometry":{"type":"Polygon","coordinates":[[[-113.53345,53.546686],[-113.53345,53.54665],[-113.533428,53.54649],[-113.533391,53.546405],[-113.533271,53.546314],[-113.531109,53.544735],[-113.530698,53.544435],[-113.528721,53.543272],[-113.5246,53.54077],[-113.524397,53.540647],[-113.523722,53.540248],[-113.521653,53.539155],[-113.521515,53.539086],[-113.521375,53.539037],[-113.521015,53.539039],[-113.519354,53.53988],[-113.519125,53.540017],[-113.513914,53.542774],[-113.511002,53.54443],[-113.508562,53.545907],[-113.508244,53.546118],[-113.508177,53.546409],[-113.508177,53.546435],[-113.508756,53.547145],[-113.510236,53.548063],[-113.515042,53.550767],[-113.520296,53.55326],[-113.521018,53.553553],[-113.521152,53.553603],[-113.521512,53.553603],[-113.523337,53.553311],[-113.526597,53.551581],[-113.530285,53.549258],[-113.533307,53.546833],[-113.53345,53.546686]]]}},
{"type":"Feature","properties":{"ID":null,"CENTER_LON":"-113.52085562609201","CENTER_LAT":"53.54634562956871","AA_MINS":5,"AA_MODE":"foot-walking","TOTAL_POP":"2841"},"geometry":{"type":"Polygon","coordinates":[[[-113.52716,53.546185],[-113.526841,53.545979],[-113.524328,53.544437],[-113.524204,53.544364],[-113.521486,53.542836],[-113.52137,53.542773],[-113.52101,53.542776],[-113.520078,53.543207],[-113.515118,53.545824],[-113.514551,53.54617],[-113.514549,53.54653],[-113.515015,53.546929],[-113.515981,53.547443],[-113.521124,53.549868],[-113.521483,53.549852],[-113.522601,53.549699],[-113.527162,53.546545],[-113.52716,53.546185]]]}},
{"type":"Feature","properties":{"ID":null,"CENTER_LON":"-113.52775160043987","CENTER_LAT":"53.54636124215082","AA_MINS":10,"AA_MODE":"foot-walking","TOTAL_POP":"13738"},"geometry":{"type":"Polygon","coordinates":[[[-113.540174,53.547337],[-113.540138,53.547253],[-113.539515,53.546118],[-113.539388,53.54595],[-113.538056,53.544761],[-113.537636,53.544433],[-113.535617,53.542907],[-113.53551,53.54284],[-113.532539,53.541042],[-113.531008,53.540426],[-113.530197,53.540141],[-113.529121,53.539898],[-113.52652,53.539419],[-113.526447,53.539433],[-113.526268,53.539526],[-113.524096,53.54077],[-113.520558,53.542834],[-113.5154,53.545821],[-113.515139,53.546169],[-113.515141,53.546529],[-113.515445,53.54679],[-113.51823,53.548587],[-113.520941,53.550082],[-113.525942,53.551671],[-113.531014,53.55277],[-113.531267,53.55281],[-113.533655,53.551345],[-113.533964,53.551153],[-113.534109,53.551064],[-113.536426,53.549561],[-113.540127,53.547694],[-113.540174,53.547337]]]}},
{"type":"Feature","properties":{"ID":null,"CENTER_LON":"-113.52775160043987","CENTER_LAT":"53.54636124215082","AA_MINS":5,"AA_MODE":"foot-walking","TOTAL_POP":"4106"},"geometry":{"type":"Polygon","coordinates":[[[-113.533924,53.546834],[-113.533968,53.546477],[-113.531454,53.544516],[-113.531319,53.544434],[-113.531094,53.54431],[-113.528722,53.543083],[-113.528362,53.543085],[-113.526641,53.543198],[-113.526514,53.543265],[-113.52198,53.545764],[-113.521732,53.545902],[-113.52145,53.546167],[-113.52135,53.546365],[-113.521355,53.546415],[-113.521442,53.546526],[-113.522746,53.547411],[-113.526811,53.548534],[-113.530281,53.549256],[-113.533864,53.546904],[-113.533924,53.546834]]]}},
{"type":"Feature","properties":{"ID":null,"CENTER_LON":"-113.5338043082546","CENTER_LAT":"53.5466380473234","AA_MINS":10,"AA_MODE":"foot-walking","TOTAL_POP":"10933"},"geometry":{"type":"Polygon","coordinates":[[[-113.54627,53.547664],[-113.546195,53.547551],[-113.546095,53.547524],[-113.541908,53.543235],[-113.541893,53.542957],[-113.54182,53.542886],[-113.54157,53.54276],[-113.538292,53.541575],[-113.534112,53.540887],[-113.530875,53.540245],[-113.526658,53.542545],[-113.526094,53.542878],[-113.521329,53.545899],[-113.521281,53.545956],[-113.521143,53.546367],[-113.521144,53.546379],[-113.521303,53.546524],[-113.52438,53.548551],[-113.528522,53.551222],[-113.531186,53.55278],[-113.53122,53.552799],[-113.533099,53.553741],[-113.533976,53.553972],[-113.534336,53.553969],[-113.536837,53.55281],[-113.540539,53.551094],[-113.543714,53.549559],[-113.544866,53.548903],[-113.546338,53.548017],[-113.54627,53.547664]]]}},
{"type":"Feature","properties":{"ID":null,"CENTER_LON":"-113.5338043082546","CENTER_LAT":"53.5466380473234","AA_MINS":5,"AA_MODE":"foot-walking","TOTAL_POP":"3710"},"geometry":{"type":"Polygon","coordinates":[[[-113.540021,53.547316],[-113.539995,53.547235],[-113.539217,53.545949],[-113.537962,53.54485],[-113.534301,53.543138],[-113.533941,53.543133],[-113.53305,53.543152],[-113.532072,53.543531],[-113.531547,53.543791],[-113.530464,53.544366],[-113.527651,53.545936],[-113.527586,53.545978],[-113.527586,53.546338],[-113.527608,53.546542],[-113.529258,53.548034],[-113.530851,53.54902],[-113.533063,53.549989],[-113.53396,53.550225],[-113.53432,53.550222],[-113.536099,53.54939],[-113.539974,53.547673],[-113.540021,53.547316]]]}},
{"type":"Feature","properties":{"ID":null,"CENTER_LON":"-113.55151983150034","CENTER_LAT":"53.54603693488262","AA_MINS":10,"AA_MODE":"foot-walking","TOTAL_POP":"4371"},"geometry":{"type":"Polygon","coordinates":[[[-113.56325,53.544544],[-113.56325,53.544521],[-113.562915,53.542895],[-113.562846,53.54278],[-113.558255,53.540898],[-113.556767,53.540673],[-113.554844,53.540438],[-113.553357,53.540472],[-113.548771,53.54064],[-113.546693,53.541093],[-113.54121,53.54345],[-113.539762,53.547206],[-113.539717,53.547563],[-113.539816,53.548047],[-113.542283,53.549632],[-113.544262,53.550732],[-113.54438,53.550796],[-113.544495,53.550839],[-113.544855,53.550838],[-113.549226,53.551313],[-113.550729,53.552079],[-113.551089,53.552101],[-113.555369,53.550911],[-113.556185,53.55051],[-113.560472,53.547888],[-113.562851,53.546451],[-113.562966,53.546371],[-113.56325,53.544544]]]}},
{"type":"Feature","properties":{"ID":null,"CENTER_LON":"-113.55151983150034","CENTER_LAT":"53.54603693488262","AA_MINS":5,"AA_MODE":"foot-walking","TOTAL_POP":"1014"},"geometry":{"type":"Polygon","coordinates":[[[-113.557263,53.544628],[-113.557184,53.544277],[-113.557167,53.544253],[-113.55505,53.543461],[-113.553144,53.542806],[-113.550354,53.542866],[-113.549468,53.542978],[-113.548275,53.543525],[-113.54681,53.54452],[-113.545781,53.545456],[-113.545723,53.545564],[-113.545641,53.545822],[-113.545535,53.546416],[-113.545917,53.547917],[-113.545955,53.547959],[-113.546137,53.548056],[-113.546182,53.548079],[-113.549653,53.549336],[-113.549769,53.549306],[-113.553149,53.548402],[-113.553894,53.54804],[-113.556575,53.546448],[-113.556699,53.546354],[-113.557263,53.544628]]]}},
{"type":"Feature","properties":{"ID":null,"CENTER_LON":"-113.56464158031065","CENTER_LAT":"53.543255387155305","AA_MINS":10,"AA_MODE":"foot-walking","TOTAL_POP":"4701"},"geometry":{"type":"Polygon","coordinates":[[[-113.576688,53.54232],[-113.576645,53.541963],[-113.576445,53.541812],[-113.574587,53.541071],[-113.572937,53.540633],[-113.572371,53.540443],[-113.570923,53.53995],[-113.568306,53.5386],[-113.56596,53.536453],[-113.565766,53.536312],[-113.565406,53.536314],[-113.56519,53.536352],[-113.562638,53.537256],[-113.557711,53.539443],[-113.554167,53.542768],[-113.554157,53.542869],[-113.554151,53.543128],[-113.554157,53.543229],[-113.554389,53.545445],[-113.554419,53.545474],[-113.554441,53.545492],[-113.55955,53.548039],[-113.561083,53.548882],[-113.562754,53.549601],[-113.565235,53.55019],[-113.565646,53.550252],[-113.565932,53.550241],[-113.568219,53.548866],[-113.572078,53.546574],[-113.575268,53.544657],[-113.575847,53.544282],[-113.575962,53.544201],[-113.576426,53.543758],[-113.576688,53.54232]]]}},
{"type":"Feature","properties":{"ID":null,"CENTER_LON":"-113.56464158031065","CENTER_LAT":"53.543255387155305","AA_MINS":5,"AA_MODE":"foot-walking","TOTAL_POP":"1505"},"geometry":{"type":"Polygon","coordinates":[[[-113.570445,53.542882],[-113.570357,53.542445],[-113.570251,53.542101],[-113.570093,53.542019],[-113.565792,53.540052],[-113.565359,53.540055],[-113.563703,53.540564],[-113.560385,53.542888],[-113.560174,53.543772],[-113.560349,53.544745],[-113.561331,53.545265],[-113.562885,53.545832],[-113.565417,53.546448],[-113.565739,53.546495],[-113.565821,53.546496],[-113.569541,53.544279],[-113.569656,53.544204],[-113.570118,53.543738],[-113.570445,53.542882]]]}},
{"type":"Feature","properties":{"ID":null,"CENTER_LON":"-113.58068670556217","CENTER_LAT":"53.54143915130969","AA_MINS":10,"AA_MODE":"foot-walking","TOTAL_POP":"6823"},"geometry":{"type":"Polygon","coordinates":[[[-113.593315,53.541199],[-113.593276,53.541123],[-113.593192,53.54103],[-113.592667,53.540594],[-113.589643,53.538709],[-113.584593,53.536006],[-113.581926,53.534453],[-113.581555,53.534385],[-113.581497,53.534385],[-113.577638,53.535892],[-113.576936,53.536286],[-113.571729,53.538384],[-113.570403,53.538869],[-113.569877,53.539776],[-113.568944,53.541575],[-113.568539,53.542627],[-113.568646,53.542971],[-113.57202,53.544629],[-113.575167,53.546433],[-113.575405,53.546575],[-113.577782,53.547769],[-113.578921,53.548212],[-113.579784,53.548522],[-113.580144,53.54852],[-113.581858,53.548247],[-113.581977,53.548216],[-113.583388,53.547481],[-113.584965,53.546608],[-113.587526,53.545094],[-113.5903,53.543493],[-113.593312,53.541559],[-113.593315,53.541199]]]}},
{"type":"Feature","properties":{"ID":null,"CENTER_LON":"-113.58068670556217","CENTER_LAT":"53.54143915130969","AA_MINS":5,"AA_MODE":"foot-walking","TOTAL_POP":"1651"},"geometry":{"type":"Polygon","coordinates":[[[-113.587003,53.541455],[-113.587004,53.5414],[-113.586984,53.541158],[-113.586829,53.541059],[-113.586048,53.540577],[-113.583715,53.539169],[-113.581822,53.538199],[-113.581462,53.538202],[-113.57779,53.539621],[-113.575424,53.540858],[-113.574571,53.541879],[-113.574564,53.542239],[-113.574599,53.542367],[-113.574697,53.542494],[-113.578525,53.544564],[-113.579761,53.544776],[-113.580121,53.544772],[-113.581611,53.544726],[-113.581743,53.544668],[-113.581875,53.544608],[-113.583812,53.543521],[-113.586315,53.542002],[-113.586916,53.541575],[-113.586983,53.541518],[-113.587003,53.541455]]]}},
{"type":"Feature","properties":{"ID":null,"CENTER_LON":"-113.59021930632741","CENTER_LAT":"53.53999205701052","AA_MINS":10,"AA_MODE":"foot-walking","TOTAL_POP":"8988"},"geometry":{"type":"Polygon","coordinates":[[[-113.601784,53.539526],[-113.601784,53.539166],[-113.601669,53.538906],[-113.596796,53.536074],[-113.594233,53.534518],[-113.591422,53.532911],[-113.591249,53.532827],[-113.590655,53.532544],[-113.590403,53.532493],[-113.590305,53.532474],[-113.589945,53.53247],[-113.586337,53.534533],[-113.583835,53.536005],[-113.581102,53.537604],[-113.578956,53.538893],[-113.578855,53.538961],[-113.578585,53.539167],[-113.578585,53.539527],[-113.579431,53.54144],[-113.579615,53.541647],[-113.580008,53.541887],[-113.581476,53.542739],[-113.585602,53.545092],[-113.588326,53.546671],[-113.590181,53.547484],[-113.590541,53.547485],[-113.595341,53.545102],[-113.59995,53.542018],[-113.600671,53.541566],[-113.600773,53.541489],[-113.601784,53.539526]]]}},
{"type":"Feature","properties":{"ID":null,"CENTER_LON":"-113.59021930632741","CENTER_LAT":"53.53999205701052","AA_MINS":5,"AA_MODE":"foot-walking","TOTAL_POP":"2335"},"geometry":{"type":"Polygon","coordinates":[[[-113.594516,53.541401],[-113.595509,53.539523],[-113.595509,53.539163],[-113.595386,53.539086],[-113.592534,53.537316],[-113.592176,53.537102],[-113.590607,53.536257],[-113.590437,53.536248],[-113.590077,53.536244],[-113.587585,53.537557],[-113.585233,53.538911],[-113.584935,53.539178],[-113.584938,53.539538],[-113.585406,53.540943],[-113.585774,53.541419],[-113.586731,53.542002],[-113.588387,53.542901],[-113.589611,53.543519],[-113.590159,53.543738],[-113.590519,53.543736],[-113.591047,53.543503],[-113.592688,53.542551],[-113.594347,53.541562],[-113.594467,53.541484],[-113.594516,53.541401]]]}},
{"type":"Feature","properties":{"ID":null,"CENTER_LON":"-113.59019508419625","CENTER_LAT":"53.531685743475705","AA_MINS":10,"AA_MODE":"foot-walking","TOTAL_POP":"6454"},"geometry":{"type":"Polygon","coordinates":[[[-113.602635,53.531729],[-113.602567,53.531411],[-113.602372,53.53123],[-113.601846,53.530838],[-113.600534,53.529987],[-113.596737,53.527743],[-113.592883,53.525237],[-113.590717,53.523991],[-113.590632,53.524024],[-113.589014,53.524755],[-113.585914,53.526524],[-113.583039,53.528242],[-113.580438,53.529801],[-113.577816,53.531355],[-113.577814,53.531715],[-113.582575,53.534814],[-113.582692,53.534888],[-113.585253,53.536427],[-113.590022,53.539281],[-113.590107,53.539313],[-113.590222,53.539322],[-113.590284,53.539319],[-113.593159,53.53794],[-113.597871,53.534884],[-113.600669,53.533226],[-113.602531,53.531913],[-113.602635,53.531729]]]}},
{"type":"Feature","properties":{"ID":null,"CENTER_LON":"-113.59019508419625","CENTER_LAT":"53.531685743475705","AA_MINS":5,"AA_MODE":"foot-walking","TOTAL_POP":"1841"},"geometry":{"type":"Polygon","coordinates":[[[-113.596193,53.531841],[-113.596261,53.53174],[-113.596262,53.53138],[-113.596103,53.531243],[-113.592079,53.528713],[-113.590441,53.527942],[-113.590081,53.527937],[-113.58928,53.528375],[-113.584119,53.531363],[-113.584119,53.531723],[-113.586294,53.533262],[-113.586418,53.533342],[-113.589033,53.534895],[-113.59008,53.535432],[-113.590326,53.535446],[-113.590686,53.535445],[-113.594193,53.533282],[-113.596165,53.531879],[-113.596193,53.531841]]]}},
{"type":"Feature","properties":{"ID":null,"CENTER_LON":"-113.59481343429461","CENTER_LAT":"53.52178917207202","AA_MINS":10,"AA_MODE":"foot-walking","TOTAL_POP":"6397"},"geometry":{"type":"Polygon","coordinates":[[[-113.604671,53.520231],[-113.604688,53.51962],[-113.604688,53.51926],[-113.600399,53.516654],[-113.599669,53.516215],[-113.596893,53.514642],[-113.596134,53.514453],[-113.595774,53.514453],[-113.593002,53.516111],[-113.590164,53.517435],[-113.586832,53.519316],[-113.584585,53.520637],[-113.583548,53.522914],[-113.583548,53.523274],[-113.584755,53.525112],[-113.587652,53.526882],[-113.589177,53.527801],[-113.590076,53.52822],[-113.590436,53.528225],[-113.594686,53.527922],[-113.597374,53.527907],[-113.600622,53.526288],[-113.601169,53.5258],[-113.60424,53.522785],[-113.604671,53.520231]]]}},
{"type":"Feature","properties":{"ID":null,"CENTER_LON":"-113.59481343429461","CENTER_LAT":"53.52178917207202","AA_MINS":5,"AA_MODE":"foot-walking","TOTAL_POP":"1155"},"geometry":{"type":"Polygon","coordinates":[[[-113.599336,53.521047],[-113.599336,53.520687],[-113.598996,53.519846],[-113.598291,53.519227],[-113.596842,53.518342],[-113.596715,53.518324],[-113.596355,53.518318],[-113.593815,53.519354],[-113.590894,53.520687],[-113.590124,53.521181],[-113.58985,53.522927],[-113.589851,53.523287],[-113.590287,53.524482],[-113.590587,53.524681],[-113.596407,53.524683],[-113.598368,53.523371],[-113.599336,53.521047]]]}},
{"type":"Feature","properties":{"ID":null,"CENTER_LON":"-113.61183733471587","CENTER_LAT":"53.519534177535284","AA_MINS":10,"AA_MODE":"foot-walking","TOTAL_POP":"6102"},"geometry":{"type":"Polygon","coordinates":[[[-113.624783,53.520356],[-113.622694,53.517644],[-113.618871,53.51651],[-113.613691,53.513647],[-113.613455,53.513463],[-113.611627,53.513156],[-113.610527,53.513346],[-113.609418,53.513665],[-113.606047,53.516167],[-113.603883,53.516159],[-113.603523,53.516166],[-113.599261,53.519254],[-113.599244,53.519375],[-113.59925,53.519614],[-113.599347,53.519721],[-113.601833,53.521233],[-113.605429,53.523943],[-113.60607,53.524371],[-113.607165,53.52495],[-113.60751,53.525038],[-113.607614,53.525039],[-113.610951,53.524032],[-113.615029,53.525082],[-113.615389,53.525085],[-113.615829,53.524935],[-113.617346,53.524295],[-113.618815,53.523424],[-113.621481,53.521996],[-113.624723,53.520711],[-113.624783,53.520356]]]}},
{"type":"Feature","properties":{"ID":null,"CENTER_LON":"-113.61183733471587","CENTER_LAT":"53.519534177535284","AA_MINS":5,"AA_MODE":"foot-walking","TOTAL_POP":"1376"},"geometry":{"type":"Polygon","coordinates":[[[-113.618268,53.519613],[-113.618253,53.519444],[-113.613756,53.517155],[-113.612937,53.516637],[-113.612762,53.516622],[-113.612403,53.516596],[-113.608867,53.517407],[-113.606332,53.518825],[-113.605558,53.519261],[-113.605556,53.519621],[-113.608601,53.521458],[-113.611144,53.521929],[-113.611504,53.521914],[-113.615053,53.52142],[-113.615829,53.521299],[-113.617878,53.520122],[-113.618246,53.519804],[-113.618268,53.519613]]]}},
{"type":"Feature","properties":{"ID":null,"CENTER_LON":"-113.62240716076143","CENTER_LAT":"53.52013892118524","AA_MINS":10,"AA_MODE":"foot-walking","TOTAL_POP":"4758"},"geometry":{"type":"Polygon","coordinates":[[[-113.63489,53.521365],[-113.632877,53.518955],[-113.631313,53.51751],[-113.627768,53.515555],[-113.624512,53.513921],[-113.6188,53.514786],[-113.618448,53.514865],[-113.618163,53.514957],[-113.617189,53.515312],[-113.616458,53.515746],[-113.616453,53.516106],[-113.611602,53.519196],[-113.611199,53.519004],[-113.611019,53.51895],[-113.610663,53.518901],[-113.60991,53.519274],[-113.609912,53.519634],[-113.610097,53.520003],[-113.611156,53.520666],[-113.615044,53.52349],[-113.615287,53.523654],[-113.617534,53.524745],[-113.618142,53.524825],[-113.618284,53.524794],[-113.622195,53.52362],[-113.624817,53.52399],[-113.62846,53.524765],[-113.628555,53.524766],[-113.628556,53.524766],[-113.628651,53.524765],[-113.630852,53.524062],[-113.633742,53.522476],[-113.633957,53.522335],[-113.634873,53.521725],[-113.63489,53.521365]]]}},
{"type":"Feature","properties":{"ID":null,"CENTER_LON":"-113.62240716076143","CENTER_LAT":"53.52013892118524","AA_MINS":5,"AA_MODE":"foot-walking","TOTAL_POP":"826"},"geometry":{"type":"Polygon","coordinates":[[[-113.62852,53.5211],[-113.628565,53.520743],[-113.627013,53.519038],[-113.625789,53.518116],[-113.625564,53.517983],[-113.624032,53.517294],[-113.6238,53.517328],[-113.61912,53.518131],[-113.617959,53.518436],[-113.616459,53.519273],[-113.616101,53.51948],[-113.616141,53.519838],[-113.617927,53.521224],[-113.618861,53.521632],[-113.621218,53.521984],[-113.623929,53.522211],[-113.624225,53.522211],[-113.627574,53.521697],[-113.62799,53.521558],[-113.628448,53.521328],[-113.62852,53.5211]]]}},
{"type":"Feature","properties":{"ID":null,"CENTER_LON":"-113.63793004662838","CENTER_LAT":"53.52158386992494","AA_MINS":10,"AA_MODE":"foot-walking","TOTAL_POP":"8351"},"geometry":{"type":"Polygon","coordinates":[[[-113.650523,53.52112],[-113.649494,53.520539],[-113.649265,53.520481],[-113.645523,53.519024],[-113.643461,53.517468],[-113.642192,53.516699],[-113.640515,53.515658],[-113.637211,53.514967],[-113.636391,53.514816],[-113.635762,53.51486],[-113.631429,53.516999],[-113.630189,53.518007],[-113.6252,53.520274],[-113.625161,53.520632],[-113.626138,53.521629],[-113.628871,53.524093],[-113.630588,53.52515],[-113.635286,53.526552],[-113.638351,53.528112],[-113.638793,53.528319],[-113.639124,53.528461],[-113.639728,53.52833],[-113.641394,53.527886],[-113.646573,53.52497],[-113.650528,53.52148],[-113.650523,53.52112]]]}},
{"type":"Feature","properties":{"ID":null,"CENTER_LON":"-113.63793004662838","CENTER_LAT":"53.52158386992494","AA_MINS":5,"AA_MODE":"foot-walking","TOTAL_POP":"2350"},"geometry":{"type":"Polygon","coordinates":[[[-113.644346,53.521264],[-113.640757,53.519491],[-113.637048,53.518304],[-113.636688,53.518298],[-113.635893,53.518642],[-113.631655,53.52109],[-113.631637,53.521449],[-113.63183,53.52168],[-113.633287,53.522797],[-113.636263,53.524393],[-113.636489,53.524486],[-113.638324,53.52484],[-113.638616,53.524761],[-113.640135,53.524297],[-113.641794,53.523292],[-113.644355,53.521624],[-113.644346,53.521264]]]}},
{"type":"Feature","properties":{"ID":null,"CENTER_LON":"-113.6666929","CENTER_LAT":"53.5228922","AA_MINS":10,"AA_MODE":"foot-walking","TOTAL_POP":"626"},"geometry":{"type":"Polygon","coordinates":[[[-113.676862,53.525363],[-113.677161,53.524353],[-113.67699,53.52184],[-113.676975,53.521761],[-113.67685,53.521423],[-113.673504,53.521537],[-113.669557,53.523298],[-113.666519,53.520421],[-113.666245,53.520423],[-113.66506,53.521096],[-113.663226,53.52191],[-113.657962,53.522456],[-113.657093,53.522232],[-113.655517,53.521697],[-113.655358,53.521656],[-113.655267,53.522004],[-113.655491,53.522241],[-113.655807,53.522332],[-113.656123,53.522424],[-113.656512,53.522518],[-113.656894,53.522611],[-113.657174,53.522673],[-113.657451,53.522735],[-113.657902,53.52282],[-113.658347,53.522904],[-113.661559,53.52795],[-113.664205,53.531607],[-113.664565,53.531604],[-113.664552,53.530021],[-113.664538,53.528438],[-113.667996,53.525115],[-113.670549,53.526537],[-113.672033,53.527312],[-113.676067,53.526958],[-113.676191,53.526921],[-113.676465,53.526688],[-113.676862,53.525363]]]}},
{"type":"Feature","properties":{"ID":null,"CENTER_LON":"-113.6666929","CENTER_LAT":"53.5228922","AA_MINS":5,"AA_MODE":"foot-walking","TOTAL_POP":"43"},"geometry":{"type":"Polygon","coordinates":[[[-113.672453,53.523866],[-113.672122,53.523772],[-113.671792,53.523677],[-113.666688,53.520976],[-113.666328,53.520968],[-113.660596,53.522725],[-113.660543,53.523081],[-113.660575,53.523159],[-113.66466,53.525704],[-113.669491,53.525148],[-113.672354,53.524212],[-113.672453,53.523866]]]}},
{"type":"Feature","properties":{"ID":null,"CENTER_LON":"-113.47045535646909","CENTER_LAT":"53.560124121446506","AA_MINS":10,"AA_MODE":"foot-walking","TOTAL_POP":"7863"},"geometry":{"type":"Polygon","coordinates":[[[-113.480836,53.560719],[-113.478932,53.556244],[-113.477817,53.553747],[-113.477579,53.553476],[-113.472413,53.553226],[-113.470886,53.553553],[-113.47056,53.553705],[-113.465355,53.556592],[-113.464995,53.556638],[-113.464635,53.556684],[-113.461826,53.558067],[-113.460139,53.559742],[-113.458943,53.561034],[-113.458944,53.561394],[-113.459506,53.561392],[-113.460067,53.561391],[-113.462528,53.562182],[-113.463413,53.566449],[-113.463653,53.566717],[-113.467139,53.566653],[-113.470024,53.567438],[-113.470166,53.567466],[-113.470496,53.567382],[-113.472963,53.565999],[-113.475551,53.564447],[-113.480158,53.561719],[-113.480901,53.561073],[-113.480836,53.560719]]]}},
{"type":"Feature","properties":{"ID":null,"CENTER_LON":"-113.47045535646909","CENTER_LAT":"53.560124121446506","AA_MINS":5,"AA_MODE":"foot-walking","TOTAL_POP":"1413"},"geometry":{"type":"Polygon","coordinates":[[[-113.474715,53.556467],[-113.474477,53.556196],[-113.470814,53.557156],[-113.469377,53.557913],[-113.467406,53.559233],[-113.465251,53.560999],[-113.46525,53.561359],[-113.467387,53.562933],[-113.467713,53.563087],[-113.470117,53.563635],[-113.470477,53.563639],[-113.47181,53.562922],[-113.474164,53.561512],[-113.474461,53.561321],[-113.474608,53.561214],[-113.474715,53.556467]]]}},
{"type":"Feature","properties":{"ID":null,"CENTER_LON":"-113.4624620200224","CENTER_LAT":"53.5316922281904","AA_MINS":10,"AA_MODE":"foot-walking","TOTAL_POP":"6479"},"geometry":{"type":"Polygon","coordinates":[[[-113.475281,53.532278],[-113.47528,53.531918],[-113.473819,53.530612],[-113.473728,53.530543],[-113.470647,53.528801],[-113.467659,53.527069],[-113.465561,53.525938],[-113.464798,53.525549],[-113.464438,53.525552],[-113.458926,53.525889],[-113.458087,53.526062],[-113.457574,53.526413],[-113.45234,53.529175],[-113.452213,53.529236],[-113.451836,53.529495],[-113.451194,53.530279],[-113.451041,53.530605],[-113.450285,53.532543],[-113.450314,53.532718],[-113.450407,53.533066],[-113.451166,53.534194],[-113.456291,53.537097],[-113.457122,53.53741],[-113.457461,53.537532],[-113.460168,53.537562],[-113.464012,53.53687],[-113.468388,53.535963],[-113.468722,53.53583],[-113.470117,53.53422],[-113.474802,53.533132],[-113.475077,53.533005],[-113.475281,53.532278]]]}},
{"type":"Feature","properties":{"ID":null,"CENTER_LON":"-113.4624620200224","CENTER_LAT":"53.5316922281904","AA_MINS":5,"AA_MODE":"foot-walking","TOTAL_POP":"1511"},"geometry":{"type":"Polygon","coordinates":[[[-113.468868,53.53142],[-113.464825,53.529239],[-113.463558,53.528779],[-113.46341,53.528764],[-113.460781,53.528831],[-113.460251,53.529067],[-113.457528,53.530477],[-113.456276,53.531597],[-113.456278,53.531957],[-113.45707,53.532801],[-113.460347,53.534575],[-113.464388,53.534298],[-113.464437,53.534277],[-113.465587,53.533642],[-113.46886,53.531779],[-113.468868,53.53142]]]}},
{"type":"Feature","properties":{"ID":null,"CENTER_LON":"-113.49818148357636","CENTER_LAT":"53.54767618186731","AA_MINS":10,"AA_MODE":"foot-walking","TOTAL_POP":"5997"},"geometry":{"type":"Polygon","coordinates":[[[-113.509933,53.548014],[-113.508433,53.546118],[-113.508259,53.54599],[-113.508161,53.545927],[-113.505525,53.544338],[-113.503077,53.542937],[-113.500356,53.542414],[-113.499996,53.542412],[-113.498889,53.542927],[-113.495391,53.544649],[-113.494305,53.54521],[-113.492579,53.54612],[-113.490824,53.548211],[-113.490846,53.548571],[-113.491614,53.549151],[-113.49285,53.549934],[-113.495178,53.551276],[-113.498296,53.553134],[-113.498542,53.553281],[-113.499493,53.553747],[-113.502234,53.553192],[-113.504925,53.551597],[-113.50743,53.5501],[-113.509932,53.548374],[-113.509933,53.548014]]]}},
{"type":"Feature","properties":{"ID":null,"CENTER_LON":"-113.49818148357636","CENTER_LAT":"53.54767618186731","AA_MINS":5,"AA_MODE":"foot-walking","TOTAL_POP":"238"},"geometry":{"type":"Polygon","coordinates":[[[-113.504336,53.548015],[-113.504335,53.547655],[-113.504297,53.547591],[-113.504174,53.547388],[-113.502293,53.546241],[-113.501186,53.545686],[-113.500826,53.545683],[-113.496869,53.547384],[-113.496669,53.547555],[-113.496659,53.547915],[-113.496884,53.548508],[-113.497249,53.548737],[-113.499228,53.549826],[-113.500989,53.550105],[-113.50112,53.550103],[-113.504335,53.548048],[-113.504336,53.548015]]]}},
{"type":"Feature","properties":{"ID":null,"CENTER_LON":"-113.51028796374429","CENTER_LAT":"53.53588496815074","AA_MINS":10,"AA_MODE":"foot-walking","TOTAL_POP":"10501"},"geometry":{"type":"Polygon","coordinates":[[[-113.520244,53.53723],[-113.51839,53.532027],[-113.517632,53.531881],[-113.517191,53.531856],[-113.516751,53.53183],[-113.512759,53.527719],[-113.512448,53.527538],[-113.511551,53.528804],[-113.50644,53.530943],[-113.505839,53.530816],[-113.500945,53.533893],[-113.499389,53.53543],[-113.499387,53.53579],[-113.49996,53.537356],[-113.499993,53.537428],[-113.501032,53.538087],[-113.505961,53.541184],[-113.508467,53.54251],[-113.510172,53.543339],[-113.510518,53.543437],[-113.511106,53.54319],[-113.514691,53.540998],[-113.517839,53.539116],[-113.517969,53.539035],[-113.518077,53.538964],[-113.520134,53.537572],[-113.520244,53.53723]]]}},
{"type":"Feature","properties":{"ID":null,"CENTER_LON":"-113.51028796374429","CENTER_LAT":"53.53588496815074","AA_MINS":5,"AA_MODE":"foot-walking","TOTAL_POP":"2991"},"geometry":{"type":"Polygon","coordinates":[[[-113.514383,53.537023],[-113.513913,53.535607],[-113.513794,53.53538],[-113.512325,53.532655],[-113.510946,53.530822],[-113.510636,53.53064],[-113.507169,53.534235],[-113.505722,53.535228],[-113.50506,53.535616],[-113.505061,53.535976],[-113.506297,53.537442],[-113.508951,53.539067],[-113.509032,53.539114],[-113.510103,53.539695],[-113.510463,53.539695],[-113.514191,53.537507],[-113.514286,53.537448],[-113.514382,53.537383],[-113.514383,53.537023]]]}},
{"type":"Feature","properties":{"ID":null,"CENTER_LON":"-113.49012468442652","CENTER_LAT":"53.54341675008318","AA_MINS":10,"AA_MODE":"foot-walking","TOTAL_POP":"4746"},"geometry":{"type":"Polygon","coordinates":[[[-113.500304,53.543287],[-113.500352,53.543186],[-113.500384,53.543098],[-113.500385,53.542738],[-113.498147,53.541328],[-113.496332,53.540185],[-113.494559,53.539111],[-113.493412,53.538589],[-113.490997,53.537689],[-113.490785,53.53771],[-113.487511,53.538049],[-113.487456,53.538082],[-113.482012,53.540598],[-113.479676,53.542988],[-113.478433,53.544758],[-113.478249,53.545156],[-113.478378,53.545492],[-113.478437,53.54558],[-113.478598,53.545776],[-113.483229,53.547642],[-113.488324,53.549329],[-113.493756,53.548018],[-113.494219,53.547877],[-113.49431,53.547837],[-113.496756,53.54639],[-113.498902,53.544853],[-113.500304,53.543287]]]}},
{"type":"Feature","properties":{"ID":null,"CENTER_LON":"-113.49012468442652","CENTER_LAT":"53.54341675008318","AA_MINS":5,"AA_MODE":"foot-walking","TOTAL_POP":"1273"},"geometry":{"type":"Polygon","coordinates":[[[-113.494411,53.543216],[-113.494397,53.542856],[-113.490528,53.540973],[-113.490253,53.540851],[-113.488377,53.540417],[-113.488324,53.54042],[-113.488031,53.54058],[-113.487594,53.540873],[-113.487101,53.541264],[-113.4849,53.543226],[-113.484311,53.544102],[-113.484301,53.544268],[-113.484364,53.544623],[-113.488967,53.546583],[-113.489423,53.546594],[-113.489796,53.546576],[-113.489956,53.546548],[-113.494277,53.543678],[-113.494411,53.543216]]]}},
{"type":"Feature","properties":{"ID":null,"CENTER_LON":"-113.45506552668024","CENTER_LAT":"53.510363099772704","AA_MINS":10,"AA_MODE":"foot-walking","TOTAL_POP":"3956"},"geometry":{"type":"Polygon","coordinates":[[[-113.464281,53.512111],[-113.463894,53.509846],[-113.463539,53.509868],[-113.460517,53.509259],[-113.458718,53.50495],[-113.458655,53.504595],[-113.454709,53.503165],[-113.452885,53.503177],[-113.452606,53.503307],[-113.452546,53.503365],[-113.450462,53.505155],[-113.447498,53.506656],[-113.447434,53.506693],[-113.44467,53.508811],[-113.444058,53.509288],[-113.444005,53.509345],[-113.444004,53.509705],[-113.445678,53.512449],[-113.446515,53.512968],[-113.448754,53.514316],[-113.453821,53.517297],[-113.45489,53.517933],[-113.454944,53.517927],[-113.455284,53.51781],[-113.455535,53.517702],[-113.458724,53.515804],[-113.459406,53.515396],[-113.462699,53.513422],[-113.46428,53.512471],[-113.464281,53.512111]]]}},
{"type":"Feature","properties":{"ID":null,"CENTER_LON":"-113.45506552668024","CENTER_LAT":"53.510363099772704","AA_MINS":5,"AA_MODE":"foot-walking","TOTAL_POP":"1097"},"geometry":{"type":"Polygon","coordinates":[[[-113.459752,53.51002],[-113.459821,53.509353],[-113.459821,53.509333],[-113.459678,53.509174],[-113.458548,53.508444],[-113.455342,53.506615],[-113.454878,53.506568],[-113.454814,53.506569],[-113.454712,53.506609],[-113.451628,53.508451],[-113.450399,53.509247],[-113.45027,53.509363],[-113.450269,53.509723],[-113.451249,53.511803],[-113.451827,53.512407],[-113.453685,53.513429],[-113.454856,53.514049],[-113.455216,53.51405],[-113.455457,53.513913],[-113.457842,53.512559],[-113.457979,53.51247],[-113.458038,53.512417],[-113.459752,53.51002]]]}},
{"type":"Feature","properties":{"ID":null,"CENTER_LON":"-113.52583848997097","CENTER_LAT":"53.52038793943185","AA_MINS":10,"AA_MODE":"foot-walking","TOTAL_POP":"6564"},"geometry":{"type":"Polygon","coordinates":[[[-113.535977,53.519166],[-113.535575,53.518554],[-113.534242,53.517554],[-113.529101,53.514462],[-113.525931,53.513337],[-113.525571,53.513336],[-113.525486,53.513336],[-113.522821,53.514298],[-113.522705,53.51434],[-113.522376,53.514464],[-113.520473,53.515245],[-113.520303,53.515362],[-113.516861,53.51804],[-113.515524,53.519872],[-113.515524,53.520232],[-113.517339,53.523011],[-113.52081,53.525678],[-113.521006,53.525797],[-113.522067,53.526204],[-113.525166,53.527363],[-113.525676,53.527514],[-113.526251,53.527658],[-113.52636,53.527658],[-113.527907,53.52699],[-113.531217,53.524958],[-113.533356,53.523668],[-113.534193,53.523141],[-113.534935,53.522591],[-113.535977,53.519166]]]}},
{"type":"Feature","properties":{"ID":null,"CENTER_LON":"-113.52583848997097","CENTER_LAT":"53.52038793943185","AA_MINS":5,"AA_MODE":"foot-walking","TOTAL_POP":"61"},"geometry":{"type":"Polygon","coordinates":[[[-113.530943,53.520607],[-113.530949,53.520247],[-113.529826,53.518542],[-113.527533,53.5173],[-113.526966,53.51708],[-113.525804,53.516802],[-113.525409,53.516915],[-113.521735,53.518518],[-113.521596,53.519902],[-113.521704,53.520245],[-113.523476,53.522801],[-113.523596,53.522947],[-113.525258,53.523875],[-113.525515,53.52401],[-113.525875,53.524015],[-113.526184,53.523912],[-113.528166,53.522953],[-113.530308,53.521671],[-113.530425,53.52159],[-113.530943,53.520607]]]}},
{"type":"Feature","properties":{"ID":null,"CENTER_LON":"-113.52222667817723","CENTER_LAT":"53.52493974644993","AA_MINS":10,"AA_MODE":"foot-walking","TOTAL_POP":"5123"},"geometry":{"type":"Polygon","coordinates":[[[-113.534647,53.525032],[-113.534721,53.52468],[-113.532258,53.522856],[-113.532048,53.522707],[-113.529987,53.521274],[-113.527697,53.519822],[-113.526175,53.519211],[-113.525689,53.51903],[-113.520717,53.517966],[-113.520708,53.517969],[-113.520503,53.518057],[-113.516695,53.519942],[-113.512458,53.522606],[-113.510263,53.523887],[-113.51029,53.524246],[-113.511914,53.528452],[-113.512225,53.528634],[-113.517682,53.529707],[-113.52244,53.530502],[-113.527719,53.530325],[-113.528822,53.529741],[-113.530608,53.528747],[-113.531699,53.528101],[-113.534647,53.525032]]]}},
{"type":"Feature","properties":{"ID":null,"CENTER_LON":"-113.52222667817723","CENTER_LAT":"53.52493974644993","AA_MINS":5,"AA_MODE":"foot-walking","TOTAL_POP":"707"},"geometry":{"type":"Polygon","coordinates":[[[-113.52826,53.525051],[-113.528266,53.524691],[-113.526073,53.522855],[-113.525792,53.522728],[-113.525513,53.522634],[-113.52356,53.522089],[-113.521054,53.521748],[-113.521025,53.521748],[-113.520684,53.521782],[-113.518643,53.52282],[-113.516158,53.524553],[-113.516158,53.524913],[-113.517195,53.526006],[-113.520427,53.528262],[-113.521137,53.528344],[-113.522584,53.528224],[-113.524055,53.527982],[-113.526469,53.52675],[-113.526868,53.52652],[-113.526976,53.526425],[-113.52826,53.525051]]]}},
{"type":"Feature","properties":{"ID":null,"CENTER_LON":"-113.51687116879347","CENTER_LAT":"53.48534389451866","AA_MINS":10,"AA_MODE":"foot-walking","TOTAL_POP":"4806"},"geometry":{"type":"Polygon","coordinates":[[[-113.527045,53.484909],[-113.527133,53.484484],[-113.527135,53.484124],[-113.52634,53.48319],[-113.526291,53.483156],[-113.524209,53.482313],[-113.51985,53.480335],[-113.517019,53.478934],[-113.516659,53.478928],[-113.515752,53.478996],[-113.511859,53.482952],[-113.509351,53.482736],[-113.508907,53.48264],[-113.508836,53.482725],[-113.508771,53.483079],[-113.508675,53.484769],[-113.509203,53.488327],[-113.513686,53.490896],[-113.516342,53.492073],[-113.516909,53.492138],[-113.517269,53.49214],[-113.51815,53.491923],[-113.521535,53.489943],[-113.524368,53.488342],[-113.525692,53.487473],[-113.526289,53.487068],[-113.527045,53.484909]]]}},
{"type":"Feature","properties":{"ID":null,"CENTER_LON":"-113.51687116879347","CENTER_LAT":"53.48534389451866","AA_MINS":5,"AA_MODE":"foot-walking","TOTAL_POP":"746"},"geometry":{"type":"Polygon","coordinates":[[[-113.522155,53.485353],[-113.52019,53.483305],[-113.517841,53.482922],[-113.516144,53.482726],[-113.515796,53.48282],[-113.514838,53.483086],[-113.513971,53.48391],[-113.513825,53.48713],[-113.513825,53.48715],[-113.513973,53.487307],[-113.515881,53.488266],[-113.517317,53.488479],[-113.517353,53.488479],[-113.519222,53.487911],[-113.522314,53.485676],[-113.522155,53.485353]]]}},
{"type":"Feature","properties":{"ID":null,"CENTER_LON":"-113.49521198662126","CENTER_LAT":"53.543205690160846","AA_MINS":10,"AA_MODE":"foot-walking","TOTAL_POP":"9023"},"geometry":{"type":"Polygon","coordinates":[[[-113.507745,53.542939],[-113.505838,53.541338],[-113.500876,53.538584],[-113.497503,53.536811],[-113.497144,53.536792],[-113.495554,53.536805],[-113.495439,53.536843],[-113.493517,53.537641],[-113.489526,53.538643],[-113.488324,53.539397],[-113.485346,53.541884],[-113.485133,53.54208],[-113.484409,53.542817],[-113.483888,53.543396],[-113.483305,53.544263],[-113.483187,53.54446],[-113.48306,53.544707],[-113.483062,53.544712],[-113.483063,53.544712],[-113.483065,53.544717],[-113.483249,53.544814],[-113.487676,53.547137],[-113.490715,53.548579],[-113.493529,53.549993],[-113.493732,53.550089],[-113.493768,53.55009],[-113.494273,53.549828],[-113.495746,53.549113],[-113.501103,53.547415],[-113.502611,53.546571],[-113.505419,53.544861],[-113.50774,53.543299],[-113.507745,53.542939]]]}},
{"type":"Feature","properties":{"ID":null,"CENTER_LON":"-113.49521198662126","CENTER_LAT":"53.543205690160846","AA_MINS":5,"AA_MODE":"foot-walking","TOTAL_POP":"1046"},"geometry":{"type":"Polygon","coordinates":[[[-113.50149,53.542923],[-113.501119,53.542683],[-113.498177,53.540873],[-113.497733,53.540628],[-113.497463,53.540584],[-113.493995,53.540182],[-113.493901,53.540182],[-113.493722,53.540235],[-113.491871,53.541269],[-113.490512,53.542196],[-113.48921,53.543159],[-113.48911,53.543241],[-113.489118,53.543401],[-113.489138,53.54376],[-113.490624,53.544665],[-113.492303,53.545669],[-113.493262,53.546188],[-113.493931,53.546275],[-113.494101,53.546279],[-113.497384,53.545708],[-113.497582,53.545643],[-113.498517,53.54521],[-113.499114,53.544852],[-113.50149,53.543283],[-113.50149,53.542923]]]}},
{"type":"Feature","properties":{"ID":null,"CENTER_LON":"-113.52850826295712","CENTER_LAT":"53.50228298929399","AA_MINS":10,"AA_MODE":"foot-walking","TOTAL_POP":"842"},"geometry":{"type":"Polygon","coordinates":[[[-113.538884,53.501805],[-113.538879,53.501547],[-113.537542,53.500194],[-113.536331,53.499158],[-113.53254,53.496681],[-113.532368,53.496585],[-113.529105,53.495409],[-113.528745,53.49541],[-113.528509,53.495439],[-113.523029,53.497469],[-113.523005,53.497479],[-113.52085,53.498458],[-113.51747,53.501722],[-113.517387,53.501802],[-113.517387,53.502162],[-113.51751,53.502257],[-113.519772,53.503969],[-113.521408,53.505478],[-113.523842,53.508426],[-113.523974,53.508489],[-113.524734,53.508733],[-113.525449,53.508336],[-113.531063,53.507299],[-113.53176,53.507394],[-113.531891,53.507357],[-113.533557,53.506794],[-113.534035,53.506615],[-113.535703,53.505151],[-113.538888,53.502063],[-113.538884,53.501805]]]}},
{"type":"Feature","properties":{"ID":null,"CENTER_LON":"-113.52850826295712","CENTER_LAT":"53.50228298929399","AA_MINS":5,"AA_MODE":"foot-walking","TOTAL_POP":"29"},"geometry":{"type":"Polygon","coordinates":[[[-113.533647,53.501278],[-113.533114,53.500877],[-113.529204,53.498791],[-113.528844,53.498787],[-113.52855,53.4989],[-113.524,53.501014],[-113.523046,53.501442],[-113.522808,53.501628],[-113.522777,53.50181],[-113.522776,53.501899],[-113.522804,53.501988],[-113.522923,53.502181],[-113.527134,53.505307],[-113.528241,53.50613],[-113.528906,53.505761],[-113.533405,53.502831],[-113.533647,53.501278]]]}},
{"type":"Feature","properties":{"ID":null,"CENTER_LON":"-113.43280731119643","CENTER_LAT":"53.588353158683844","AA_MINS":10,"AA_MODE":"foot-walking","TOTAL_POP":"3005"},"geometry":{"type":"Polygon","coordinates":[[[-113.444243,53.587468],[-113.443091,53.585315],[-113.442682,53.58488],[-113.442573,53.584784],[-113.441771,53.58469],[-113.440023,53.584514],[-113.438827,53.584954],[-113.434889,53.585452],[-113.432309,53.584818],[-113.431207,53.584816],[-113.425888,53.585767],[-113.425567,53.585885],[-113.42295,53.58743],[-113.422827,53.587575],[-113.422826,53.587709],[-113.422914,53.587836],[-113.426072,53.592007],[-113.426099,53.592022],[-113.429523,53.593061],[-113.431627,53.593028],[-113.436519,53.593268],[-113.436879,53.593269],[-113.43761,53.592919],[-113.43841,53.592516],[-113.441281,53.590741],[-113.442715,53.589371],[-113.444245,53.587828],[-113.444243,53.587468]]]}},
{"type":"Feature","properties":{"ID":null,"CENTER_LON":"-113.43280731119643","CENTER_LAT":"53.588353158683844","AA_MINS":5,"AA_MODE":"foot-walking","TOTAL_POP":"141"},"geometry":{"type":"Polygon","coordinates":[[[-113.437993,53.587785],[-113.437999,53.587731],[-113.437995,53.587425],[-113.437634,53.587078],[-113.436743,53.586268],[-113.430926,53.586733],[-113.430647,53.586739],[-113.430401,53.586781],[-113.42903,53.587488],[-113.429028,53.587848],[-113.430295,53.589024],[-113.430577,53.589248],[-113.433458,53.590151],[-113.436126,53.589973],[-113.43741,53.588768],[-113.437993,53.587785]]]}},
{"type":"Feature","properties":{"ID":null,"CENTER_LON":"-113.44429150369909","CENTER_LAT":"53.50017323737453","AA_MINS":10,"AA_MODE":"foot-walking","TOTAL_POP":"2"},"geometry":{"type":"Polygon","coordinates":[[[-113.452971,53.499263],[-113.451713,53.495073],[-113.451516,53.494772],[-113.450434,53.494794],[-113.446021,53.494731],[-113.444221,53.493592],[-113.443287,53.493146],[-113.442927,53.493123],[-113.442139,53.493376],[-113.440126,53.494746],[-113.440093,53.494872],[-113.440093,53.495232],[-113.43635,53.499625],[-113.433839,53.501475],[-113.433813,53.501834],[-113.437634,53.50498],[-113.438037,53.505224],[-113.442042,53.505976],[-113.443205,53.505384],[-113.446127,53.503868],[-113.448522,53.501074],[-113.452794,53.499671],[-113.452971,53.499263]]]}},
{"type":"Feature","properties":{"ID":null,"CENTER_LON":"-113.44429150369909","CENTER_LAT":"53.50017323737453","AA_MINS":5,"AA_MODE":"foot-walking","TOTAL_POP":"1"},"geometry":{"type":"Polygon","coordinates":[[[-113.448636,53.500951],[-113.448743,53.500722],[-113.448755,53.500499],[-113.447297,53.497587],[-113.447139,53.497439],[-113.443278,53.496908],[-113.442918,53.496898],[-113.442716,53.497022],[-113.439038,53.501213],[-113.439041,53.501573],[-113.442638,53.503227],[-113.44602,53.503439],[-113.446328,53.503252],[-113.448522,53.501074],[-113.448636,53.500951]]]}},
{"type":"Feature","properties":{"ID":null,"CENTER_LON":"-113.45736855010371","CENTER_LAT":"53.52746599043388","AA_MINS":10,"AA_MODE":"foot-walking","TOTAL_POP":"4678"},"geometry":{"type":"Polygon","coordinates":[[[-113.464719,53.528121],[-113.464815,53.52719],[-113.464814,53.52716],[-113.464152,53.523583],[-113.464146,53.523559],[-113.464049,53.523379],[-113.463121,53.522777],[-113.459505,53.520636],[-113.458973,53.520583],[-113.458401,53.520536],[-113.455034,53.520352],[-113.454674,53.520352],[-113.451909,53.521577],[-113.451674,53.521718],[-113.448066,53.525147],[-113.448068,53.525507],[-113.448767,53.528755],[-113.449787,53.530585],[-113.450766,53.530869],[-113.455526,53.532684],[-113.456528,53.533632],[-113.456808,53.533858],[-113.459384,53.53262],[-113.463946,53.5299],[-113.464055,53.529815],[-113.464719,53.528121]]]}},
{"type":"Feature","properties":{"ID":null,"CENTER_LON":"-113.45736855010371","CENTER_LAT":"53.52746599043388","AA_MINS":5,"AA_MODE":"foot-walking","TOTAL_POP":"778"},"geometry":{"type":"Polygon","coordinates":[[[-113.45923,53.527828],[-113.459648,53.525329],[-113.458576,53.524093],[-113.458312,53.523848],[-113.45591,53.523717],[-113.4543,53.525104],[-113.453942,53.527656],[-113.453944,53.528016],[-113.454267,53.528382],[-113.457105,53.529591],[-113.457465,53.529591],[-113.458124,53.529386],[-113.45923,53.527828]]]}},
{"type":"Feature","properties":{"ID":null,"CENTER_LON":"-113.49798493568612","CENTER_LAT":"53.54092309573453","AA_MINS":10,"AA_MODE":"foot-walking","TOTAL_POP":"10934"},"geometry":{"type":"Polygon","coordinates":[[[-113.509848,53.541243],[-113.509852,53.540995],[-113.509853,53.540635],[-113.507354,53.538746],[-113.507118,53.538589],[-113.504099,53.536764],[-113.501366,53.535127],[-113.499433,53.534267],[-113.497747,53.533889],[-113.497246,53.533889],[-113.497175,53.533889],[-113.496883,53.533988],[-113.494625,53.535483],[-113.494486,53.535643],[-113.489542,53.538942],[-113.488708,53.539239],[-113.488567,53.539313],[-113.486615,53.541389],[-113.48665,53.541712],[-113.486761,53.542055],[-113.488811,53.543621],[-113.492739,53.545824],[-113.494083,53.546511],[-113.49532,53.547101],[-113.498844,53.547718],[-113.49914,53.547716],[-113.501587,53.546601],[-113.502341,53.546187],[-113.507123,53.543299],[-113.507374,53.543146],[-113.507434,53.543105],[-113.509695,53.541448],[-113.509848,53.541243]]]}},
{"type":"Feature","properties":{"ID":null,"CENTER_LON":"-113.49798493568612","CENTER_LAT":"53.54092309573453","AA_MINS":5,"AA_MODE":"foot-walking","TOTAL_POP":"2619"},"geometry":{"type":"Polygon","coordinates":[[[-113.50361,53.540879],[-113.503549,53.540638],[-113.503375,53.540182],[-113.50076,53.538596],[-113.499433,53.537894],[-113.499307,53.537833],[-113.497574,53.537673],[-113.497214,53.537672],[-113.497159,53.537674],[-113.494218,53.539397],[-113.494119,53.539458],[-113.493332,53.539952],[-113.492907,53.540234],[-113.492776,53.540697],[-113.492772,53.540949],[-113.492794,53.541308],[-113.494948,53.543194],[-113.495244,53.543384],[-113.497049,53.544274],[-113.497409,53.54428],[-113.499344,53.543966],[-113.499504,53.54393],[-113.501117,53.543098],[-113.503609,53.541239],[-113.50361,53.540879]]]}},
{"type":"Feature","properties":{"ID":null,"CENTER_LON":"-113.45550930912754","CENTER_LAT":"53.519056252543734","AA_MINS":10,"AA_MODE":"foot-walking","TOTAL_POP":"6165"},"geometry":{"type":"Polygon","coordinates":[[[-113.466409,53.518176],[-113.466409,53.518171],[-113.466364,53.517848],[-113.466261,53.517742],[-113.466184,53.51768],[-113.465623,53.517329],[-113.46472,53.516793],[-113.461559,53.514959],[-113.458505,53.513137],[-113.455536,53.511623],[-113.454884,53.511638],[-113.453892,53.512188],[-113.451651,53.513554],[-113.45098,53.513953],[-113.450745,53.514093],[-113.450053,53.514505],[-113.449138,53.515044],[-113.444002,53.517814],[-113.443995,53.518174],[-113.445085,53.519779],[-113.446776,53.521887],[-113.451232,53.524694],[-113.454516,53.526087],[-113.45709,53.52625],[-113.45745,53.526241],[-113.45779,53.52613],[-113.459085,53.525577],[-113.459219,53.525499],[-113.460928,53.523664],[-113.46449,53.519753],[-113.465282,53.519274],[-113.465394,53.519206],[-113.466361,53.518308],[-113.466409,53.518176]]]}},
{"type":"Feature","properties":{"ID":null,"CENTER_LON":"-113.45550930912754","CENTER_LAT":"53.519056252543734","AA_MINS":5,"AA_MODE":"foot-walking","TOTAL_POP":"1789"},"geometry":{"type":"Polygon","coordinates":[[[-113.460679,53.518021],[-113.455448,53.515506],[-113.45539,53.515492],[-113.45503,53.515497],[-113.454854,53.515505],[-113.4539,53.515986],[-113.452428,53.516868],[-113.450501,53.518027],[-113.450502,53.518387],[-113.450752,53.520155],[-113.450814,53.520225],[-113.452674,53.521556],[-113.455377,53.522916],[-113.455441,53.522934],[-113.456664,53.522219],[-113.460677,53.518381],[-113.460679,53.518021]]]}},
{"type":"Feature","properties":{"ID":null,"CENTER_LON":"-113.41125365721877","CENTER_LAT":"53.60182206451303","AA_MINS":10,"AA_MODE":"foot-walking","TOTAL_POP":"3450"},"geometry":{"type":"Polygon","coordinates":[[[-113.418293,53.603336],[-113.418333,53.60263],[-113.418044,53.600754],[-113.417723,53.600332],[-113.414567,53.597148],[-113.414158,53.596892],[-113.41327,53.596547],[-113.41321,53.596524],[-113.409717,53.596126],[-113.4094,53.596128],[-113.407758,53.596301],[-113.40585,53.597143],[-113.405412,53.597367],[-113.402851,53.598878],[-113.401097,53.601239],[-113.401086,53.601373],[-113.401092,53.601517],[-113.402416,53.606709],[-113.402591,53.606894],[-113.403025,53.606896],[-113.403459,53.606896],[-113.407145,53.606479],[-113.411029,53.605638],[-113.413164,53.606554],[-113.413849,53.606173],[-113.417985,53.60364],[-113.418251,53.603398],[-113.418293,53.603336]]]}},
{"type":"Feature","properties":{"ID":null,"CENTER_LON":"-113.41125365721877","CENTER_LAT":"53.60182206451303","AA_MINS":5,"AA_MODE":"foot-walking","TOTAL_POP":"1198"},"geometry":{"type":"Polygon","coordinates":[[[-113.414122,53.602398],[-113.413889,53.60142],[-113.413717,53.601051],[-113.41319,53.599939],[-113.412493,53.599726],[-113.409636,53.599547],[-113.409286,53.599629],[-113.407591,53.60008],[-113.406563,53.601765],[-113.40638,53.602075],[-113.406195,53.602483],[-113.406167,53.602841],[-113.406853,53.60422],[-113.407043,53.604526],[-113.411305,53.603748],[-113.413822,53.602913],[-113.414018,53.602743],[-113.414122,53.602398]]]}},
{"type":"Feature","properties":{"ID":null,"CENTER_LON":"-113.43453456611103","CENTER_LAT":"53.4624455298048","AA_MINS":10,"AA_MODE":"foot-walking","TOTAL_POP":"5659"},"geometry":{"type":"Polygon","coordinates":[[[-113.445422,53.4629],[-113.445421,53.462895],[-113.44475,53.459787],[-113.441995,53.458136],[-113.441701,53.458068],[-113.436452,53.455399],[-113.434625,53.455059],[-113.434266,53.455029],[-113.432905,53.455531],[-113.427645,53.457413],[-113.426343,53.458831],[-113.426076,53.459228],[-113.424009,53.463221],[-113.423917,53.463569],[-113.424505,53.465567],[-113.427532,53.466749],[-113.432904,53.468557],[-113.437601,53.469433],[-113.437929,53.469283],[-113.440029,53.467601],[-113.442632,53.46543],[-113.445372,53.463018],[-113.445422,53.4629]]]}},
{"type":"Feature","properties":{"ID":null,"CENTER_LON":"-113.43453456611103","CENTER_LAT":"53.4624455298048","AA_MINS":5,"AA_MODE":"foot-walking","TOTAL_POP":"1562"},"geometry":{"type":"Polygon","coordinates":[[[-113.440487,53.46173],[-113.440447,53.461372],[-113.438004,53.459724],[-113.437926,53.459688],[-113.434341,53.458722],[-113.433725,53.458753],[-113.430777,53.460169],[-113.430612,53.460341],[-113.428824,53.462525],[-113.428824,53.462885],[-113.429345,53.463307],[-113.43053,53.464186],[-113.43123,53.464529],[-113.435389,53.465947],[-113.435712,53.465886],[-113.436413,53.465679],[-113.436643,53.465481],[-113.439203,53.463251],[-113.440487,53.46173]]]}},
{"type":"Feature","properties":{"ID":null,"CENTER_LON":"-113.48898994260537","CENTER_LAT":"53.54442400473025","AA_MINS":10,"AA_MODE":"foot-walking","TOTAL_POP":"5901"},"geometry":{"type":"Polygon","coordinates":[[[-113.501316,53.544787],[-113.50142,53.544491],[-113.50142,53.544458],[-113.499549,53.542736],[-113.495536,53.540184],[-113.492759,53.538693],[-113.490575,53.538129],[-113.488207,53.538281],[-113.488132,53.538309],[-113.482718,53.540572],[-113.482413,53.540696],[-113.482005,53.540983],[-113.479727,53.542984],[-113.478304,53.544492],[-113.477097,53.546419],[-113.477106,53.54655],[-113.477174,53.546631],[-113.477421,53.546893],[-113.480432,53.54803],[-113.483543,53.549461],[-113.489003,53.550954],[-113.493747,53.549419],[-113.49466,53.548996],[-113.496458,53.547989],[-113.499145,53.546395],[-113.501291,53.54484],[-113.501316,53.544787]]]}},
{"type":"Feature","properties":{"ID":null,"CENTER_LON":"-113.48898994260537","CENTER_LAT":"53.54442400473025","AA_MINS":5,"AA_MODE":"foot-walking","TOTAL_POP":"1495"},"geometry":{"type":"Polygon","coordinates":[[[-113.49501,53.544423],[-113.493474,53.542979],[-113.490477,53.541432],[-113.488269,53.540671],[-113.487996,53.540623],[-113.487933,53.540627],[-113.48793,53.540627],[-113.487867,53.540632],[-113.485112,53.543106],[-113.48409,53.544124],[-113.483986,53.544233],[-113.483017,53.545269],[-113.482897,53.545511],[-113.482901,53.545521],[-113.483077,53.545624],[-113.483223,53.545689],[-113.487301,53.547433],[-113.487694,53.547425],[-113.487758,53.547416],[-113.491991,53.546774],[-113.492539,53.546478],[-113.492863,53.546273],[-113.495011,53.544783],[-113.49501,53.544423]]]}},
{"type":"Feature","properties":{"ID":null,"CENTER_LON":"-113.4840015392903","CENTER_LAT":"53.54441296769219","AA_MINS":10,"AA_MODE":"foot-walking","TOTAL_POP":"6615"},"geometry":{"type":"Polygon","coordinates":[[[-113.495968,53.543347],[-113.495949,53.542988],[-113.495919,53.542893],[-113.495869,53.542789],[-113.492327,53.540725],[-113.490781,53.539914],[-113.490159,53.539665],[-113.488186,53.539098],[-113.483788,53.540271],[-113.481668,53.5403],[-113.481141,53.540355],[-113.480614,53.540411],[-113.476943,53.540654],[-113.475358,53.541055],[-113.475035,53.541588],[-113.47489,53.541918],[-113.474525,53.542946],[-113.474578,53.547675],[-113.474589,53.547878],[-113.474895,53.548668],[-113.474952,53.548772],[-113.475243,53.548984],[-113.476273,53.549023],[-113.481747,53.550379],[-113.482096,53.550467],[-113.485591,53.55122],[-113.488397,53.550174],[-113.488728,53.550033],[-113.493303,53.54649],[-113.495193,53.544782],[-113.495968,53.543347]]]}},
{"type":"Feature","properties":{"ID":null,"CENTER_LON":"-113.4840015392903","CENTER_LAT":"53.54441296769219","AA_MINS":5,"AA_MODE":"foot-walking","TOTAL_POP":"1626"},"geometry":{"type":"Polygon","coordinates":[[[-113.489844,53.543721],[-113.489826,53.543362],[-113.489676,53.543128],[-113.489139,53.542736],[-113.486307,53.541825],[-113.486073,53.541767],[-113.480272,53.542814],[-113.480067,53.542954],[-113.478214,53.544869],[-113.478107,53.545747],[-113.478355,53.546008],[-113.483736,53.547571],[-113.483757,53.547567],[-113.48689,53.546548],[-113.48722,53.546404],[-113.487568,53.546135],[-113.488949,53.544865],[-113.489844,53.543721]]]}},
{"type":"Feature","properties":{"ID":null,"CENTER_LON":"-113.5163011038174","CENTER_LAT":"53.45780500602357","AA_MINS":10,"AA_MODE":"foot-walking","TOTAL_POP":"5977"},"geometry":{"type":"Polygon","coordinates":[[[-113.526006,53.457575],[-113.525879,53.457238],[-113.525769,53.457075],[-113.523262,53.453919],[-113.522961,53.453662],[-113.520401,53.452314],[-113.518859,53.451526],[-113.516803,53.450639],[-113.516443,53.450659],[-113.511572,53.452451],[-113.511376,53.45257],[-113.509287,53.45383],[-113.508021,53.454608],[-113.507094,53.455466],[-113.506609,53.455958],[-113.506674,53.456312],[-113.507097,53.457874],[-113.50784,53.45862],[-113.511534,53.461926],[-113.512379,53.462566],[-113.516398,53.465139],[-113.516758,53.465134],[-113.521007,53.462595],[-113.523439,53.461874],[-113.526006,53.457575]]]}},
{"type":"Feature","properties":{"ID":null,"CENTER_LON":"-113.5163011038174","CENTER_LAT":"53.45780500602357","AA_MINS":5,"AA_MODE":"foot-walking","TOTAL_POP":"1536"},"geometry":{"type":"Polygon","coordinates":[[[-113.520178,53.458657],[-113.517134,53.454457],[-113.516775,53.454432],[-113.514955,53.454507],[-113.513518,53.455355],[-113.511559,53.456607],[-113.511541,53.456644],[-113.511575,53.456786],[-113.51346,53.459025],[-113.516891,53.461102],[-113.516996,53.461152],[-113.518859,53.460026],[-113.519109,53.459867],[-113.520111,53.459075],[-113.520178,53.459017],[-113.520178,53.458657]]]}},
{"type":"Feature","properties":{"ID":null,"CENTER_LON":"-113.49171139558993","CENTER_LAT":"53.541004550176304","AA_MINS":10,"AA_MODE":"foot-walking","TOTAL_POP":"7945"},"geometry":{"type":"Polygon","coordinates":[[[-113.503414,53.540997],[-113.503416,53.540637],[-113.503373,53.540182],[-113.501424,53.538468],[-113.496981,53.535304],[-113.496759,53.535253],[-113.49596,53.535284],[-113.491072,53.535722],[-113.489706,53.536041],[-113.484509,53.536866],[-113.484271,53.537136],[-113.48166,53.540539],[-113.481042,53.542789],[-113.481038,53.542853],[-113.481065,53.543212],[-113.481634,53.543904],[-113.481802,53.543942],[-113.486733,53.545329],[-113.488453,53.546112],[-113.490146,53.546815],[-113.493372,53.547478],[-113.493704,53.5475],[-113.494064,53.547513],[-113.496247,53.546372],[-113.497145,53.545859],[-113.498723,53.544853],[-113.50333,53.541237],[-113.503414,53.540997]]]}},
{"type":"Feature","properties":{"ID":null,"CENTER_LON":"-113.49171139558993","CENTER_LAT":"53.541004550176304","AA_MINS":5,"AA_MODE":"foot-walking","TOTAL_POP":"1005"},"geometry":{"type":"Polygon","coordinates":[[[-113.497137,53.540996],[-113.497138,53.540636],[-113.497069,53.540186],[-113.495349,53.538649],[-113.489894,53.538866],[-113.489543,53.538944],[-113.488708,53.539239],[-113.48857,53.539312],[-113.486617,53.541389],[-113.486724,53.541733],[-113.486765,53.541785],[-113.490599,53.543513],[-113.493379,53.543765],[-113.493739,53.543768],[-113.494461,53.543424],[-113.494772,53.543202],[-113.496915,53.541228],[-113.497137,53.540996]]]}},
{"type":"Feature","properties":{"ID":null,"CENTER_LON":"-113.52621793431722","CENTER_LAT":"53.51260297111586","AA_MINS":10,"AA_MODE":"foot-walking","TOTAL_POP":"5084"},"geometry":{"type":"Polygon","coordinates":[[[-113.538367,53.512109],[-113.53812,53.511621],[-113.53785,53.511383],[-113.533742,53.507993],[-113.532004,53.507473],[-113.528079,53.506663],[-113.524739,53.5058],[-113.523304,53.505732],[-113.522952,53.505809],[-113.518194,53.509444],[-113.514177,53.512012],[-113.514123,53.512085],[-113.514094,53.512129],[-113.514094,53.512489],[-113.514104,53.512524],[-113.516329,53.514508],[-113.521024,53.517968],[-113.5246,53.519474],[-113.524945,53.519607],[-113.525185,53.519674],[-113.525544,53.519649],[-113.525703,53.519635],[-113.528749,53.519015],[-113.53144,53.517909],[-113.53211,53.517565],[-113.535644,53.514938],[-113.538003,53.512729],[-113.538367,53.512109]]]}},
{"type":"Feature","properties":{"ID":null,"CENTER_LON":"-113.52621793431722","CENTER_LAT":"53.51260297111586","AA_MINS":5,"AA_MODE":"foot-walking","TOTAL_POP":"1156"},"geometry":{"type":"Polygon","coordinates":[[[-113.53194,53.512115],[-113.531771,53.512007],[-113.531095,53.511599],[-113.526339,53.508855],[-113.525468,53.509033],[-113.520422,53.512081],[-113.520398,53.512135],[-113.520393,53.512495],[-113.520404,53.512518],[-113.522431,53.514281],[-113.522539,53.514348],[-113.522655,53.514418],[-113.525446,53.516024],[-113.526095,53.516257],[-113.526454,53.516274],[-113.529077,53.514822],[-113.529879,53.514337],[-113.529973,53.514272],[-113.53194,53.512475],[-113.53194,53.512115]]]}},
{"type":"Feature","properties":{"ID":null,"CENTER_LON":"-113.43899098001451","CENTER_LAT":"53.47472259573246","AA_MINS":10,"AA_MODE":"foot-walking","TOTAL_POP":"6350"},"geometry":{"type":"Polygon","coordinates":[[[-113.45098,53.473752],[-113.450859,53.473413],[-113.450719,53.47321],[-113.450526,53.473131],[-113.4493,53.472762],[-113.44495,53.470097],[-113.443565,53.468998],[-113.442993,53.468786],[-113.437301,53.467449],[-113.43706,53.467387],[-113.436733,53.467537],[-113.432848,53.470312],[-113.430727,53.471314],[-113.428638,53.472221],[-113.427542,53.47293],[-113.427415,53.473266],[-113.427471,53.473414],[-113.430115,53.476366],[-113.431363,53.477745],[-113.431489,53.477857],[-113.43155,53.477851],[-113.43453,53.477748],[-113.435339,53.477418],[-113.440669,53.478141],[-113.442496,53.481215],[-113.442853,53.481218],[-113.442932,53.481218],[-113.443559,53.480667],[-113.445445,53.478796],[-113.448833,53.476192],[-113.450332,53.474853],[-113.45098,53.473752]]]}},
{"type":"Feature","properties":{"ID":null,"CENTER_LON":"-113.43899098001451","CENTER_LAT":"53.47472259573246","AA_MINS":5,"AA_MODE":"foot-walking","TOTAL_POP":"1428"},"geometry":{"type":"Polygon","coordinates":[[[-113.444751,53.4744],[-113.444742,53.47404],[-113.440094,53.471549],[-113.43861,53.47082],[-113.438276,53.470954],[-113.435036,53.47299],[-113.433018,53.474174],[-113.432991,53.474533],[-113.433283,53.474555],[-113.433575,53.474577],[-113.433758,53.474563],[-113.439211,53.476901],[-113.439577,53.477303],[-113.440136,53.477717],[-113.440561,53.478055],[-113.440987,53.478393],[-113.44142,53.478225],[-113.444751,53.4744]]]}},
{"type":"Feature","properties":{"ID":null,"CENTER_LON":"-113.50535817325367","CENTER_LAT":"53.54095850288838","AA_MINS":10,"AA_MODE":"foot-walking","TOTAL_POP":"13488"},"geometry":{"type":"Polygon","coordinates":[[[-113.517828,53.541152],[-113.51783,53.541072],[-113.517787,53.540889],[-113.513221,53.537685],[-113.509441,53.535615],[-113.50838,53.535079],[-113.504425,53.533996],[-113.503712,53.534005],[-113.502672,53.5345],[-113.50144,53.535426],[-113.499189,53.536958],[-113.496225,53.538662],[-113.493542,53.540648],[-113.493394,53.540814],[-113.493391,53.541079],[-113.493391,53.541082],[-113.493576,53.541261],[-113.496633,53.543313],[-113.499279,53.544854],[-113.502663,53.54676],[-113.504747,53.54693],[-113.506594,53.54698],[-113.508366,53.546831],[-113.508932,53.546607],[-113.509558,53.546291],[-113.512464,53.544728],[-113.514835,53.543284],[-113.517311,53.541696],[-113.517785,53.541249],[-113.517828,53.541152]]]}},
{"type":"Feature","properties":{"ID":null,"CENTER_LON":"-113.50535817325367","CENTER_LAT":"53.54095850288838","AA_MINS":5,"AA_MODE":"foot-walking","TOTAL_POP":"1460"},"geometry":{"type":"Polygon","coordinates":[[[-113.51148,53.541246],[-113.511481,53.540886],[-113.511102,53.540636],[-113.508258,53.538769],[-113.507051,53.538049],[-113.504816,53.537726],[-113.504456,53.537732],[-113.50289,53.538421],[-113.499774,53.54063],[-113.499773,53.54099],[-113.499782,53.541225],[-113.500162,53.5416],[-113.500342,53.541702],[-113.502895,53.543108],[-113.503223,53.543284],[-113.503655,53.543467],[-113.50458,53.543844],[-113.50643,53.544157],[-113.506827,53.54403],[-113.511062,53.541706],[-113.51148,53.541246]]]}},
{"type":"Feature","properties":{"ID":null,"CENTER_LON":"-113.50069045663072","CENTER_LAT":"53.557482753444766","AA_MINS":10,"AA_MODE":"foot-walking","TOTAL_POP":"5849"},"geometry":{"type":"Polygon","coordinates":[[[-113.512051,53.559188],[-113.51203,53.558658],[-113.51182,53.558524],[-113.508926,53.556638],[-113.507703,53.555942],[-113.503844,53.552763],[-113.501734,53.55133],[-113.501338,53.55114],[-113.501111,53.551049],[-113.499436,53.550716],[-113.499076,53.550715],[-113.493556,53.552356],[-113.491937,53.552855],[-113.489844,53.554597],[-113.489807,53.554834],[-113.490038,53.556363],[-113.490102,53.556717],[-113.491245,53.559239],[-113.491811,53.559805],[-113.494367,53.561298],[-113.495517,53.561903],[-113.501061,53.563615],[-113.501836,53.564074],[-113.502577,53.564477],[-113.502757,53.564483],[-113.503091,53.564403],[-113.503618,53.564156],[-113.504746,53.563655],[-113.510369,53.56201],[-113.512051,53.559188]]]}},
{"type":"Feature","properties":{"ID":null,"CENTER_LON":"-113.50069045663072","CENTER_LAT":"53.557482753444766","AA_MINS":5,"AA_MODE":"foot-walking","TOTAL_POP":"378"},"geometry":{"type":"Polygon","coordinates":[[[-113.505686,53.559307],[-113.505757,53.558962],[-113.505758,53.558602],[-113.50115,53.555588],[-113.49927,53.554353],[-113.49891,53.554352],[-113.495685,53.555366],[-113.495506,53.555498],[-113.495585,53.556042],[-113.497506,53.559032],[-113.502507,53.560739],[-113.50286,53.560668],[-113.503274,53.560542],[-113.505545,53.559638],[-113.505686,53.559307]]]}},
{"type":"Feature","properties":{"ID":null,"CENTER_LON":"-113.47908307276349","CENTER_LAT":"53.53661449016265","AA_MINS":10,"AA_MODE":"foot-walking","TOTAL_POP":"1351"},"geometry":{"type":"Polygon","coordinates":[[[-113.488889,53.535905],[-113.488834,53.535549],[-113.48536,53.530931],[-113.484663,53.530676],[-113.483962,53.530629],[-113.48274,53.530644],[-113.481068,53.531226],[-113.475466,53.532875],[-113.475196,53.532833],[-113.474933,53.532791],[-113.474643,53.532735],[-113.474353,53.532679],[-113.468987,53.535062],[-113.468231,53.535204],[-113.467707,53.536302],[-113.467525,53.5376],[-113.467527,53.53796],[-113.467745,53.538345],[-113.46808,53.53864],[-113.468296,53.538615],[-113.468512,53.53859],[-113.471156,53.538751],[-113.474047,53.54138],[-113.479082,53.542471],[-113.480202,53.540976],[-113.482415,53.539204],[-113.48772,53.538549],[-113.488889,53.535905]]]}},
{"type":"Feature","properties":{"ID":null,"CENTER_LON":"-113.47908307276349","CENTER_LAT":"53.53661449016265","AA_MINS":5,"AA_MODE":"foot-walking","TOTAL_POP":"608"},"geometry":{"type":"Polygon","coordinates":[[[-113.482551,53.536951],[-113.482655,53.534173],[-113.482632,53.534082],[-113.482348,53.533861],[-113.481766,53.533647],[-113.481408,53.533604],[-113.475585,53.534226],[-113.475297,53.534444],[-113.47337,53.535976],[-113.473372,53.536336],[-113.473824,53.53771],[-113.474058,53.538094],[-113.47573,53.539105],[-113.476955,53.539348],[-113.477998,53.539383],[-113.48077,53.538898],[-113.481645,53.538547],[-113.482381,53.538118],[-113.482551,53.536951]]]}},
{"type":"Feature","properties":{"ID":null,"CENTER_LON":"-113.42972744042203","CENTER_LAT":"53.45845364040609","AA_MINS":10,"AA_MODE":"foot-walking","TOTAL_POP":"3388"},"geometry":{"type":"Polygon","coordinates":[[[-113.441309,53.458085],[-113.437533,53.455338],[-113.437016,53.454978],[-113.436505,53.454698],[-113.434318,53.453588],[-113.430704,53.452533],[-113.430344,53.45252],[-113.424752,53.453029],[-113.424738,53.453031],[-113.422615,53.453694],[-113.421901,53.45415],[-113.421469,53.45461],[-113.417637,53.45909],[-113.41764,53.459449],[-113.417783,53.459604],[-113.421005,53.462664],[-113.422401,53.463631],[-113.427616,53.464498],[-113.427764,53.464521],[-113.428123,53.464544],[-113.432835,53.464537],[-113.434746,53.463416],[-113.435302,53.463079],[-113.436384,53.462184],[-113.441193,53.458671],[-113.441308,53.458589],[-113.441309,53.458085]]]}},
{"type":"Feature","properties":{"ID":null,"CENTER_LON":"-113.42972744042203","CENTER_LAT":"53.45845364040609","AA_MINS":5,"AA_MODE":"foot-walking","TOTAL_POP":"181"},"geometry":{"type":"Polygon","coordinates":[[[-113.435249,53.457889],[-113.435052,53.457587],[-113.432218,53.456266],[-113.431099,53.455893],[-113.429475,53.455747],[-113.428795,53.455785],[-113.428435,53.455805],[-113.427213,53.455886],[-113.425595,53.456242],[-113.423549,53.459013],[-113.423546,53.459372],[-113.423682,53.45946],[-113.424105,53.45967],[-113.425276,53.46024],[-113.427437,53.461095],[-113.428588,53.461475],[-113.428704,53.461479],[-113.429663,53.461368],[-113.431864,53.461044],[-113.431891,53.461038],[-113.433954,53.459717],[-113.434983,53.458701],[-113.435249,53.457889]]]}},
{"type":"Feature","properties":{"ID":null,"CENTER_LON":"-113.45807267343248","CENTER_LAT":"53.57087344322176","AA_MINS":10,"AA_MODE":"foot-walking","TOTAL_POP":"3223"},"geometry":{"type":"Polygon","coordinates":[[[-113.469277,53.572007],[-113.470211,53.570575],[-113.470211,53.570215],[-113.468184,53.568712],[-113.464529,53.565414],[-113.463851,53.565718],[-113.463138,53.566695],[-113.462213,53.567643],[-113.461531,53.56825],[-113.456094,53.568614],[-113.453287,53.566744],[-113.453069,53.566526],[-113.452851,53.566309],[-113.45285,53.566308],[-113.452629,53.566091],[-113.452409,53.565875],[-113.452252,53.565848],[-113.450483,53.56614],[-113.450186,53.566343],[-113.446411,53.570207],[-113.446378,53.570384],[-113.446411,53.570567],[-113.448884,53.572155],[-113.452068,53.57626],[-113.452341,53.576496],[-113.456469,53.577921],[-113.458515,53.577531],[-113.4611,53.576791],[-113.464297,53.575401],[-113.46911,53.572179],[-113.469161,53.572144],[-113.469277,53.572007]]]}},
{"type":"Feature","properties":{"ID":null,"CENTER_LON":"-113.45807267343248","CENTER_LAT":"53.57087344322176","AA_MINS":5,"AA_MODE":"foot-walking","TOTAL_POP":"484"},"geometry":{"type":"Polygon","coordinates":[[[-113.463917,53.570577],[-113.463919,53.570499],[-113.463917,53.570217],[-113.463251,53.569817],[-113.461284,53.568837],[-113.46093,53.568769],[-113.455877,53.568583],[-113.455609,53.568614],[-113.455125,53.56867],[-113.454926,53.568697],[-113.452986,53.570055],[-113.452708,53.570261],[-113.452708,53.570621],[-113.455061,53.573643],[-113.455299,53.573914],[-113.457848,53.573936],[-113.458208,53.573935],[-113.459714,53.573526],[-113.461096,53.57311],[-113.461344,53.573019],[-113.462942,53.572197],[-113.463917,53.570577]]]}},
{"type":"Feature","properties":{"ID":null,"CENTER_LON":"-113.50914961996286","CENTER_LAT":"53.56700558274129","AA_MINS":10,"AA_MODE":"foot-walking","TOTAL_POP":"253"},"geometry":{"type":"Polygon","coordinates":[[[-113.514547,53.570013],[-113.514527,53.569908],[-113.513268,53.568862],[-113.512119,53.563057],[-113.512121,53.562697],[-113.512071,53.562647],[-113.511803,53.56248],[-113.509244,53.561757],[-113.508174,53.561459],[-113.507152,53.561206],[-113.50437,53.560926],[-113.503317,53.561537],[-113.502609,53.562006],[-113.501808,53.562612],[-113.49935,53.566593],[-113.498979,53.567761],[-113.499121,53.568091],[-113.50394,53.570684],[-113.505685,53.571401],[-113.507542,53.571988],[-113.510095,53.572515],[-113.510455,53.572514],[-113.511014,53.572261],[-113.511132,53.572191],[-113.514173,53.570404],[-113.514399,53.570228],[-113.514547,53.570013]]]}},
{"type":"Feature","properties":{"ID":null,"CENTER_LON":"-113.50914961996286","CENTER_LAT":"53.56700558274129","AA_MINS":5,"AA_MODE":"foot-walking","TOTAL_POP":"0"},"geometry":{"type":"Polygon","coordinates":[[[-113.511906,53.567573],[-113.511993,53.56745],[-113.511993,53.567394],[-113.511911,53.567213],[-113.506865,53.564767],[-113.50644,53.564729],[-113.505043,53.564619],[-113.504806,53.564653],[-113.504731,53.564798],[-113.50449,53.565571],[-113.504447,53.565727],[-113.504583,53.56606],[-113.505161,53.567099],[-113.506602,53.568501],[-113.507268,53.568915],[-113.510079,53.569422],[-113.510439,53.569414],[-113.511906,53.567573]]]}},
{"type":"Feature","properties":{"ID":null,"CENTER_LON":"-113.51025635555878","CENTER_LAT":"53.5769680039204","AA_MINS":10,"AA_MODE":"foot-walking","TOTAL_POP":"402"},"geometry":{"type":"Polygon","coordinates":[[[-113.510624,53.578813],[-113.510667,53.577664],[-113.512277,53.571948],[-113.512278,53.571264],[-113.51228,53.57058],[-113.510424,53.568743],[-113.510064,53.568751],[-113.507361,53.571021],[-113.503786,53.573936],[-113.500171,53.576631],[-113.500002,53.576803],[-113.500002,53.57681],[-113.500476,53.57849],[-113.500559,53.578565],[-113.50216,53.579582],[-113.50506,53.581215],[-113.505934,53.581368],[-113.508866,53.580903],[-113.510624,53.578813]]]}},
{"type":"Feature","properties":{"ID":null,"CENTER_LON":"-113.51025635555878","CENTER_LAT":"53.5769680039204","AA_MINS":5,"AA_MODE":"foot-walking","TOTAL_POP":"2"},"geometry":{"type":"Polygon","coordinates":[[[-113.510667,53.577664],[-113.510663,53.576024],[-113.510624,53.573922],[-113.510456,53.573237],[-113.510096,53.573238],[-113.506434,53.576688],[-113.505232,53.577408],[-113.505202,53.577542],[-113.505232,53.577768],[-113.505332,53.577893],[-113.507136,53.579221],[-113.507963,53.579335],[-113.508323,53.579335],[-113.510624,53.578813],[-113.510667,53.577664]]]}}
]
}
